borough_name,website,site_name,os_addressbase_uprn,borough_code,address1,address2,address3,ward_2018_name,ward_2018_code,longitude,easting,latitude,northing,BOROUGH,Cultural Venue Type,gss_code,runtime
Barnet,http://lbc.ac.uk/library-resources/,Leo Baeck College Library,200033491,E09000003,The Sternberg Centre for Judaism ,80 East End Road,,Finchley Church End,E05000051,-0.18932636865181554,525294.1257487781,51.59527665319985,190150.81340399996,Barnet,Archives,E09000003,11/27/2022
Barnet,https://www.rafmuseum.org.uk/research/research-enquiries.aspx,"Royal Air Force Museum, Department of Research and Information Services",200049886,E09000003,Grahame Park Way,,,Colindale,E05000046,-0.23816390141069846,521902.52448684245,51.59894703133823,190476.25720387173,Barnet,Archives,E09000003,11/27/2022
Barnet,http://www.kingalfred.org.uk/,King Alfred School,200086130,E09000003,Manor Wood North End Road,,,Garden Suburb,E05000052,-0.1844589462330991,525701.8550698007,51.569670630519,187312.25769160182,Barnet,Archives,E09000003,11/27/2022
Barnet,http://www.barnetmuseum.co.uk/,Barnet Museum,200128241,E09000003,31 Wood Street,,,Underhill,E05000060,-0.20229626137235066,524238.4112779856,51.65287654051162,196532.6381528314,Barnet,Archives,E09000003,11/27/2022
Barnet,https://moda.mdx.ac.uk/,Middlesex University: Museum of Domestic Design & Architecture Collections Centre,200141126,E09000003,9 Boulevard Drive ,Beaufort Park,Colindale,Colindale,E05000046,-0.2416367863051352,521669.8176251497,51.596048835837145,190148.23324520694,Barnet,Archives,E09000003,11/27/2022
Barnet,https://unihub.mdx.ac.uk/study/library/library-services/library-opening-hours,Middlesex University: Sheppard Library,200153196,E09000003,The Burroughs,,,Hendon,E05000055,-0.22959233023945164,522518.9208250543,51.590455698696246,189546.54034692526,Barnet,Archives,E09000003,11/27/2022
Barnet,https://www.lsjs.ac.uk/about-our-library.php,Jews College Library,200219174,E09000003,44a Albert Road,,,Hendon,E05000055,-0.21373921104105997,523622.8728506446,51.58821377787244,189323.98609407258,Barnet,Archives,E09000003,11/27/2022
Barnet,https://www.barnet.gov.uk/citizen-home/libraries/local-studies-and-archives.html,Barnet Local Studies and Archives,200222812,E09000003,The Burroughs,,,Hendon,E05000055,-0.22893283174939041,522569.60794201086,51.58859384731274,189340.64237773523,Barnet,Archives,E09000003,11/27/2022
Barnet,,,200196017,E09000003,"5 Nether Street, Tally Ho Corner",North Finchley,,West Finchley,E05000061,-0.17669950896364456,526119.8024075672,51.61281643920563,192122.6153572988,Barnet,Artists workspaces,E09000003,11/27/2022
Barnet,https://www.artsdepot.co.uk/,Arts Depot ,200196017,E09000003,5 Nether St,North Finchley,,West Finchley,E05000061,-0.17669950896364456,526119.8024075672,51.61281643920563,192122.6153572988,Barnet,Arts centres,E09000003,11/27/2022
Barnet,,Phoenix (East Finchley),000200061366,E09000003,,52 High Road,East Finchley,East Finchley,E05000049,-0.16207935928403538,527312.0701293945,51.588004519469884,189336.25012210011,Barnet,Cinemas,E09000003,11/27/2022
Barnet,,Vue North Finchley,000200217093,E09000003,Great North Leisure Park,Chaplin Square,,Woodhouse,E05000063,-0.17170618521524744,526602.6301269978,51.60333657551914,191024.34008789808,Barnet,Cinemas,E09000003,11/27/2022
Barnet,,Vue North Finchley,000200217093,E09000003,Great North Leisure Park,Chaplin Square,,Woodhouse,E05000063,-0.17170618521524744,526602.6301269978,51.60333657551914,191024.34008789808,Barnet,Cinemas,E09000003,11/27/2022
Barnet,,Hope Corner Community Centre,10091041141,E09000003,185 Mays Lane,Barnet,NA,Underhill,E05000060,-0.2014052782672873,524431.2100829929,51.64535652685511,195645.66009519994,Barnet,Community centres,E09000003,11/27/2022
Barnet,,North Road Community Centre,200018286,E09000003,230 Burnt Oak Broadway,Barnet,NA,Burnt Oak,E05000044,-0.2697683563591935,519812.1101073995,51.60354870006945,190882.62011719495,Barnet,Community centres,E09000003,11/27/2022
Barnet,,Tarling Road Community Centre,200040351,E09000003,20 Fallows Close,Barnet,NA,East Finchley,E05000049,-0.17332113261667487,526508.6000976935,51.59693513391682,190309.75012210011,Barnet,Community centres,E09000003,11/27/2022
Barnet,http://www.barnetmcc.moonfruit.com/venue-hire/4527035932,Barnet Multi Cultural Community Centre,200166018,E09000003,Algernon Road,Barnet,NA,West Hendon,E05000062,-0.23480824760948465,522299.8900756985,51.57856181010573,188162.13012699783,Barnet,Community centres,E09000003,11/27/2022
Barnet,http://www.newbarnet.org.uk/,New Barnet Community,200120427,E09000003,50 Victoria Road,Barnet,NA,East Barnet,E05000048,-0.16739493388963347,526770.8101195991,51.65006513329757,196227.7100829929,Barnet,Community centres,E09000003,11/27/2022
Barnet,,Kent Hall ,200223249,E09000003,Westcroft Way,Barnet,NA,Childs Hill,E05000045,-0.2072168458085275,524271.3601073995,51.556567783748676,185763.07012939453,Barnet,Community centres,E09000003,11/27/2022
Barnet,,Grahame Park Community Centre,200114937,E09000003,12 The Concourse,Barnet,NA,Colindale,E05000046,-0.24283926174660547,521682.57012939453,51.601359570743355,190683.69012449682,Barnet,Community centres,E09000003,11/27/2022
Barnet,,West Hendon Community Hub,200156706,E09000003,Marsh Drive,Barnet,NA,West Hendon,E05000062,-0.24252756454064872,521763.76007079333,51.57906367585188,188205.05010989308,Barnet,Community centres,E09000003,11/27/2022
Barnet,http://greenmancentre.wordpress.com/,Green Man Community Centre,200195077,E09000003,Strawberry Vale,Barnet,NA,East Finchley,E05000049,-0.1710344508965549,526657.2000731975,51.6004406688411,190703.50012210011,Barnet,Community centres,E09000003,11/27/2022
Barnet,,Sangam Community Centre,200018284,E09000003,210 Burnt Oak Broadway,Barnet,NA,Burnt Oak,E05000044,-0.26889184356403123,519874.18011479825,51.603025136071395,190825.84008789808,Barnet,Community centres,E09000003,11/27/2022
Barnet,http://www.rainbowcentrebarnet.wordpress.com,Rainbow Centre,200202321,E09000003,24 Dollis Valley Drive, Barnet,NA,Underhill,E05000060,-0.1947511805504387,524893.4500731975,51.64465499415303,195579.01007079333,Barnet,Community centres,E09000003,11/27/2022
Barnet,,Community Focus,200220388,E09000003,Friary House, Friary Park, Friary Road,Coppetts,E05000047,-0.1602796945983208,527350.4100952,51.618840062412524,192768.07012939453,Barnet,Community centres,E09000003,11/27/2022
Barnet,,Friend in Need Community Centre,200028180,E09000003,East Barnet Baptist Church,Crescent Road,Barnet,East Barnet,E05000048,-0.16341014600333717,527066.4600829929,51.64290388289583,195438.3500976935,Barnet,Community centres,E09000003,11/27/2022
Barnet,http://www.artsdepot.co.uk,Arts Depot,200196017,E09000003,5 Nether Street,,,West Finchley,E05000061,-0.17669950896364456,526119.8024075672,51.61281643920563,192122.6153572988,Barnet,Dance performance venues,E09000003,11/27/2022
Barnet,,Innovation Dance Studios Finchley,10091041343,E09000003,2A Lodge Lane,,,West Finchley,E05000061,-0.17729644199020747,526068.6870181122,51.61634744897925,192514.16025782673,Barnet,Dance rehearsal studios,E09000003,11/27/2022
Barnet,http://www.studio45.london,Studio 45,200219587,E09000003,115A Brunswick Park Roa,,,Brunswick Park,E05000043,-0.14746378327141144,528114.9401294802,51.62293182973438,193298.12906484085,Barnet,Dance rehearsal studios,E09000003,11/27/2022
Barnet,http://www.artsdepot.co.uk,Arts Depot,200196017,E09000003,5 Nether Street,,,West Finchley,E05000061,-0.17669950896364456,526119.8024075672,51.61281643920563,192122.6153572988,Barnet,Dance rehearsal studios,E09000003,11/27/2022
Barnet,http://www.mcconnelldesign.co.uk/,McConnell Design,200072640,E09000003,76 Leicester Road,,,East Finchley,E05000049,-0.16109770812404012,527258.5975571601,51.591774837646646,189810.2536339109,Barnet,Fashion and design,E09000003,11/27/2022
Barnet,,Robert Glenn Limited,200147041,E09000003,Churchill House,137-139 Brent Street,,Hendon,E05000055,-0.22015917308412447,523289.0001221001,51.58807916585624,189245.00012210011,Barnet,Jewellery design,E09000003,11/27/2022
Barnet,,Amberbergs LTD.,10091880077,E09000003,1st Floor 2 Woodberry Grove,,,West Finchley,E05000061,-0.17684162789211352,526227.0001221001,51.61056314508136,191819.00012210011,Barnet,Jewellery design,E09000003,11/27/2022
Barnet,,B.E. Cook Limited,200060663,E09000003,431 High Road,,,Woodhouse,E05000063,-0.17281305749736262,526531.0001221001,51.60153409120746,190822.00012210011,Barnet,Jewellery design,E09000003,11/27/2022
Barnet,http://www.bossmangemsandjewellery.com,Bossman Gems & Jewellery Limited,200062305,E09000003,7a High Street,Barnet,,Underhill,E05000060,-0.1956833895765644,524812.0001221001,51.65082964741702,196264.00012210011,Barnet,Jewellery design,E09000003,11/27/2022
Barnet,http://www.codismaya.com,Codis Maya Limited,200209140,E09000003,1st Floor 314 Regents Park Road,Finchley,,Finchley Church End,E05000051,-0.1937837454001901,525086.0001221001,51.59895385506919,190499.00012210011,Barnet,Jewellery design,E09000003,11/27/2022
Barnet,,Danicrest Limited,200195383,E09000003,Aston House,Cornwall Avenue,,West Finchley,E05000061,-0.18775768564684484,525488.0001221001,51.60449980075979,191126.00012210011,Barnet,Jewellery design,E09000003,11/27/2022
Barnet,,Earthlings Jewellery Ltd,200019756,E09000003,9a Cat Hill,Barnet,,East Barnet,E05000048,-0.16068059068336912,527256.0001221001,51.642651155411585,195415.00012210011,Barnet,Jewellery design,E09000003,11/27/2022
Barnet,,J.M.G. Tubing Co. Limited,200098008,E09000003,First Floor,Winston House,,Finchley Church End,E05000051,-0.193390642172657,525110.0001221001,51.600125935946856,190630.00012210011,Barnet,Jewellery design,E09000003,11/27/2022
Barnet,http://www.jewellerycave.co.uk,Jewellery Cave Limited,200200255,E09000003,2nd Floor Gadd House,Arcadia Avenue,,Finchley Church End,E05000051,-0.19282750269855753,525153.0001221001,51.59866933266405,190469.00012210011,Barnet,Jewellery design,E09000003,11/27/2022
Barnet,http://www.krwholesale.com,K. & R. Manufacturing Limited,200152558,E09000003,Stirling House,9 Burroughs Gardens,,Hendon,E05000055,-0.22900255062713332,522681.0001221001,51.58639630548795,189043.00012210011,Barnet,Jewellery design,E09000003,11/27/2022
Barnet,,Lara Heems Ltd,10093299684,E09000003,Building 3,North London Business Park,,Brunswick Park,E05000043,-0.15077194720983142,527990.0001221001,51.62541707957729,193516.00012210011,Barnet,Jewellery design,E09000003,11/27/2022
Barnet,,Lili Jewels Ltd,10091786729,E09000003,42 Lytton Road,Barnet,,High Barnet,E05000056,-0.1740313569068041,526309.0001221001,51.65106148173524,196327.00012210011,Barnet,Jewellery design,E09000003,11/27/2022
Barnet,,Livyora Ltd,200209150,E09000003,"Suite 2, First Floor",315 Regents Park Road,,Finchley Church End,E05000051,-0.1946904707783304,525023.0001221001,51.59903076035569,190506.00012210011,Barnet,Jewellery design,E09000003,11/27/2022
Barnet,,Mogul Jewellery Company Limited,200198497,E09000003,New Burlington House,1075 Finchley Road,,Garden Suburb,E05000052,-0.19736360603788794,524889.0001221001,51.58039259883889,188429.00012210011,Barnet,Jewellery design,E09000003,11/27/2022
Barnet,,Neumark Limited,200148479,E09000003,First Floor Office,Sentinel House,,Hendon,E05000055,-0.21850967025555643,523407.0001221001,51.58669613841907,189094.00012210011,Barnet,Jewellery design,E09000003,11/27/2022
Barnet,,Perfection Jewellery Limited,200097890,E09000003,Gable House,239 Regents Park Road,,Finchley Church End,E05000051,-0.1974111794994009,524846.0001221001,51.59487267737733,190039.00012210011,Barnet,Jewellery design,E09000003,11/27/2022
Barnet,,Pravins Trading Limited,200219481,E09000003,Chancellors House,3 Brampton Lane,,Hendon,E05000055,-0.21989587253564422,523310.0001221001,51.587058922490215,189132.00012210011,Barnet,Jewellery design,E09000003,11/27/2022
Barnet,,R. & J. (Diamonds) Limited,200086239,E09000003,5 North End Road,Golders Green,,Garden Suburb,E05000052,-0.1913122688119028,525334.0001221001,51.57101828226654,187397.00012210011,Barnet,Jewellery design,E09000003,11/27/2022
Barnet,,Sharon Subner Jeweller Limited,200017903,E09000003,Unit 7,"Granard Business Centre, Bunns L",,Hale,E05000054,-0.24541037517192907,521482.0001221001,51.609800572971444,191618.00012210011,Barnet,Jewellery design,E09000003,11/27/2022
Barnet,,Tarra Rosenbaum Limited,200219303,E09000003,"Suite 5, 3rd Floor Sovereign Hou",1 Albert Place,,West Finchley,E05000061,-0.19121564197168237,525256.0001221001,51.60180117461962,190820.00012210011,Barnet,Jewellery design,E09000003,11/27/2022
Barnet,,UWE Koetter (Europe) Limited,10091824625,E09000003,843 Finchley Road,,,Childs Hill,E05000045,-0.19374075842923272,525172.0001221001,51.568735392876704,187139.00012210011,Barnet,Jewellery design,E09000003,11/27/2022
Barnet,,Multiple businesses ,200148250,E09000003,Turnberry House,1404-1410 High Road,,Oakleigh,E05000058,-0.17407356664637336,526355.0001221001,51.63346218221449,194370.00012210011,Barnet,Jewellery design,E09000003,11/27/2022
Barnet,,Multiple businesses ,200197981,E09000003,Hallswelle House,1 Hallswelle Road,,Golders Green,E05000053,-0.19894192295119978,524769.0001221001,51.58428399264861,188859.00012210011,Barnet,Jewellery design,E09000003,11/27/2022
Barnet,,Multiple businesses ,200195383,E09000003,Aston House,Cornwall Avenue,,West Finchley,E05000061,-0.18775768564684484,525488.0001221001,51.60449980075979,191126.00012210011,Barnet,Jewellery design,E09000003,11/27/2022
Barnet,http://www.hattonsquarejewels.com,Multiple businesses ,10091912791,E09000003,Langley House,Park Road,,East Finchley,E05000049,-0.1663845412106079,527001.0001221001,51.592620290106105,189842.00012210011,Barnet,Jewellery design,E09000003,11/27/2022
Barnet,,ZOE and Morgan Limited,200097966,E09000003,272 Regents Park Road,,,Finchley Church End,E05000051,-0.1956420882193058,524962.0001221001,51.59724672102479,190306.00012210011,Barnet,Jewellery design,E09000003,11/27/2022
Barnet,,ZSB Limited,200209140,E09000003,1st 314 Regents Park Road,,,Finchley Church End,E05000051,-0.1937837454001901,525086.0001221001,51.59895385506919,190499.00012210011,Barnet,Jewellery design,E09000003,11/27/2022
Barnet,,Childs Hill ,200219960,E09000003,Cricklewood Lane,,,Childs Hill,E05000045,-0.19909221789125597,524820.5300902948,51.56166852279702,186344.07012939453,Barnet,Libraries,E09000003,11/27/2022
Barnet,,Golders Green ,200049056,E09000003,Golders Green Road,,,Childs Hill,E05000045,-0.2001792027963,524710.7501221001,51.57425403018267,187741.63012699783,Barnet,Libraries,E09000003,11/27/2022
Barnet,,Garden Suburb Community Library ,200207760,E09000003,Falloden Way,,,Garden Suburb,E05000052,-0.18174135695139326,525956.2901000977,51.585800948364046,189057.17010499537,Barnet,Libraries,E09000003,11/27/2022
Barnet,,Hendon,200222812,E09000003,The Burroughs,,,Hendon,E05000055,-0.22736036142784594,522790.18011479825,51.58809112826577,189234.2100829929,Barnet,Libraries,E09000003,11/27/2022
Barnet,,East Finchley,200061457,E09000003,High Road,,,East Finchley,E05000049,-0.16597384312028893,527027.2100829929,51.5934209408349,189931.74011229724,Barnet,Libraries,E09000003,11/27/2022
Barnet,,Church End ,200218220,E09000003,Hendon Lane,,,Finchley Church End,E05000051,-0.19569566230737,524952.5900878981,51.599323214604425,190536.80010989308,Barnet,Libraries,E09000003,11/27/2022
Barnet,,Colindale,200222825,E09000003,The Concourse,,,Colindale,E05000046,-0.24347888461365944,521638.4600829929,51.60129207279496,190675.12011719495,Barnet,Libraries,E09000003,11/27/2022
Barnet,,South Friern ,200147125,E09000003,Colney Hatch Lane,,,Coppetts,E05000047,-0.14693528573152184,528327.3801269978,51.599934550746,190689.26007079333,Barnet,Libraries,E09000003,11/27/2022
Barnet,,Burnt Oak ,200155264,E09000003,Watling Avenue,Edgware,,Burnt Oak,E05000044,-0.26163843835029277,520377.1101073995,51.6027650390111,190808.84008789808,Barnet,Libraries,E09000003,11/27/2022
Barnet,,Friern Barnet Community Library ,200044867,E09000003,Friern Barnet Road,,,Coppetts,E05000047,-0.15184292780019892,527950.7000731975,51.61303718567348,192137.57012939453,Barnet,Libraries,E09000003,11/27/2022
Barnet,,Mill Hill ,200057669,E09000003,Hartley Avenue,,,Mill Hill,E05000057,-0.24149010251579142,521739.79010009766,51.61488957721529,192190.3900756985,Barnet,Libraries,E09000003,11/27/2022
Barnet,,Edgware ,200220766,E09000003,Hale Lane,Edgware,,Edgware,E05000050,-0.27242709703681056,519595.87011719495,51.61577734430174,192238.0200805962,Barnet,Libraries,E09000003,11/27/2022
Barnet,,North Finchley ,200097082,E09000003,Ravensdale Avenue,,,Woodhouse,E05000063,-0.17431092914352178,526381.3300780952,51.61807536195456,192658.68011479825,Barnet,Libraries,E09000003,11/27/2022
Barnet,,Osidge,200140830,E09000003,Brunswick Park Road,,,Brunswick Park,E05000043,-0.14745717693680427,528206.9901122972,51.629820494658134,194011.44012449682,Barnet,Libraries,E09000003,11/27/2022
Barnet,,East Barnet ,200016111,E09000003,Brookhill Road,Barnet,,East Barnet,E05000048,-0.15990157841186542,527306.4201049954,51.64389091163575,195554.2100829929,Barnet,Libraries,E09000003,11/27/2022
Barnet,,Chipping Barnet ,200107378,E09000003,Stapylton Road,Barnet,,High Barnet,E05000056,-0.2031656184359825,524281.2501221001,51.65565921489958,196788.26007079333,Barnet,Libraries,E09000003,11/27/2022
Barnet,www.createspacelondon.org/,Create Space London,200160294,E09000003,Create Space London,80 Daws Lane,Mill Hill,Mill Hill,E05000057,-0.2387958181480361,521814.9861367663,51.61526636937385,192289.5819422042,Barnet,Makerspaces,E09000003,11/27/2022
Barnet,https://www.maisonhenrybertrand.com,Maison Henry Bertrand,10093298811,E09000003,13-15 Station Road,,,Finchley Church End,E05000051,-0.19145864341252164,525244.1500854939,51.599992665094746,190618.49011229724,Barnet,Making and manufacturing,E09000003,11/27/2022
Barnet,http://www.london-northwest.com/sites/stephens,The Stephens Collection,200035687,E09000003,Avenue House,East End Road,Finchley,Finchley Church End,E05000051,-0.19299620462205125,525148.3801269978,51.596100364665986,190183.0601195991,Barnet,Museums and public galleries,E09000003,11/27/2022
Barnet,http://www.rafmuseum.org/,Royal Air Force Museum London (RAF),200049886,E09000003,Grahame Park Way,Hendon,NA,Colindale,E05000046,-0.23659166081645194,522123.0001221001,51.5984456475647,190370.1000976935,Barnet,Museums and public galleries,E09000003,11/27/2022
Barnet,www.barnetmuseum.co.uk,Barnet Museum (and Local History Society),200128241,E09000003,31 Wood Street,Barnet,Hertfordshire,Underhill,E05000060,-0.2007175892576655,524459.5401000977,51.652381084739545,196427.92010499537,Barnet,Museums and public galleries,E09000003,11/27/2022
Barnet,http://www.culture24.org.uk/se000059,Museum of Domestic Design and Architecture,200141133,E09000003,Middlesex University,9 Boulevard Drive,Beaufort Park,Colindale,E05000046,-0.24034016230180377,521871.0001221001,51.59561415621596,190049.00012210011,Barnet,Museums and public galleries,E09000003,11/27/2022
Barnet,,Shaw Audio Video Installation Ltd,200081406,E09000003,42 Midland Terrace,Barnet,,Childs Hill,E05000045,-0.21757839647743296,523542.000122197,51.560691127009356,186204.00012169778,Barnet,Music (office based businesses),E09000003,11/27/2022
Barnet,,Iknobipick-Chores Uk Ltd,200096645,E09000003,24 Ramsey Close,Barnet,,West Hendon,E05000062,-0.24200983743317497,521799.000122197,51.57929829116805,188232.00012169778,Barnet,Music (office based businesses),E09000003,11/27/2022
Barnet,,Unbelievable Records Ltd,200013199,E09000003,53 Bramber Road,Barnet,,Woodhouse,E05000063,-0.1646834684101419,527061.000122197,51.61332348431127,192147.00012159348,Barnet,Music (office based businesses),E09000003,11/27/2022
Barnet,,Divine Comedy Records Uk Ltd,200118918,E09000003,9 Trinity Avenue,Barnet,,East Finchley,E05000049,-0.17200897250489428,526616.000122197,51.59099029746138,189651.00012159348,Barnet,Music (office based businesses),E09000003,11/27/2022
Barnet,,Umbrella Records Ltd,200118918,E09000003,9 Trinity Avenue,Barnet,,East Finchley,E05000049,-0.17200897250489428,526616.000122197,51.59099029746138,189651.00012159348,Barnet,Music (office based businesses),E09000003,11/27/2022
Barnet,www.navrasrecords.com,Navras Records Ltd,200103066,E09000003,22 Sherwood Road,Barnet,,Hendon,E05000055,-0.21905999798871537,523350.000122197,51.59366534941741,189868.00012169778,Barnet,Music (office based businesses),E09000003,11/27/2022
Barnet,www.slidingvinyl.com,Sliding Vinyl Ltd,200221411,E09000003,46 Lankaster Gardens,Barnet,,East Finchley,E05000049,-0.17004967967638077,526728.000122197,51.59950349422931,190601.00012159348,Barnet,Music (office based businesses),E09000003,11/27/2022
Barnet,,Phonocord Ltd,200015942,E09000003,38 Brookfield Crescent,Barnet,,Mill Hill,E05000057,-0.22524854954302626,522878.000122197,51.60974025580266,191645.00012169778,Barnet,Music (office based businesses),E09000003,11/27/2022
Barnet,www.venusmusicandrecords.co.uk,Venus Music & Records Ltd,200040931,E09000003,13 Fernhurst Gardens,Barnet,,Edgware,E05000050,-0.2794406641938159,519117.000122197,51.61324515795243,191945.00012169778,Barnet,Music (office based businesses),E09000003,11/27/2022
Barnet,,Noisy Records Ltd,200200564,E09000003,69 Avondale Avenue,Barnet,,West Finchley,E05000061,-0.1840601474237325,525719.000122197,51.613552930164,192139.00012159348,Barnet,Music (office based businesses),E09000003,11/27/2022
Barnet,,Pavilion Records Ltd,200052009,E09000003,19 Green Bank,Barnet,,Totteridge,E05000059,-0.18020111158987107,525969.000122197,51.619743547780196,192834.00012159348,Barnet,Music (office based businesses),E09000003,11/27/2022
Barnet,,Ice Records Ltd,200061994,E09000003,1341 High Road,Barnet,,Totteridge,E05000059,-0.17423133402306187,526349.000122197,51.63169294654589,194173.00012159348,Barnet,Music (office based businesses),E09000003,11/27/2022
Barnet,,Trendkill Records Ltd,200030584,E09000003,32 Daneland,Barnet,,East Barnet,E05000048,-0.1518557978397828,527865.000122197,51.64318706448432,195490.00012159348,Barnet,Music (office based businesses),E09000003,11/27/2022
Barnet,,Albam Records Ltd,200028386,E09000003,171 Crescent Road,Barnet,,East Barnet,E05000048,-0.16199247519120047,527156.000122197,51.6459542729961,195780.00012159348,Barnet,Music (office based businesses),E09000003,11/27/2022
Barnet,,Midland Hotel,200228409,E09000003,29 Station Road,Barnet,,West Hendon,E05000062,-0.23623758801566888,522197.000122197,51.58000308414089,188320.00012169778,Barnet,Music venues (all),E09000003,11/27/2022
Barnet,www.thebaldfacedstagn2.co.uk,Bald Faced Stag,200061371,E09000003,69 High Road,Barnet,,East Finchley,E05000049,-0.1627562613908529,527263.000122197,51.58878630543441,189422.00012159348,Barnet,Music venues (all),E09000003,11/27/2022
Barnet,www.thegreyhoundhendon.co.uk,Greyhound,200198935,E09000003,Church End Barnet,,,Hendon,E05000055,-0.22634582904659004,522853.000122197,51.59085285506803,189543.00012169778,Barnet,Music venues (all),E09000003,11/27/2022
Barnet,www.flaminggrillpubs.com/pub/five-bells-finchley,Five Bells,200220096,E09000003,165-167 East End Road,Barnet,,East Finchley,E05000049,-0.17078431128836122,526703.000122197,51.590206774127594,189566.00012159348,Barnet,Music venues (all),E09000003,11/27/2022
Barnet,www.thechandosarms.com,Chandos,200025648,E09000003,31 Colindale Avenue,Barnet,,Colindale,E05000046,-0.25387863757362916,520941.000122197,51.59275864741917,189709.00012169778,Barnet,Music venues (all),E09000003,11/27/2022
Barnet,www.mcmullens.co.uk/windsor-castle,Windsor Castle,200117440,E09000003,The Walks Barnet,,,East Finchley,E05000049,-0.16941876193029345,526790.000122197,51.59292847001717,189871.00012159348,Barnet,Music venues (all),E09000003,11/27/2022
Barnet,,Catcher In The Rye,200209038,E09000003,317-319 Regents Park Road,Barnet,,Finchley Church End,E05000051,-0.19445563531018126,525039.000122197,51.599126074719535,190517.00012159348,Barnet,Music venues (all),E09000003,11/27/2022
Barnet,www.greatukpubs.co.uk/joinersarmslondon,Joiners Arms,200006639,E09000003,51 Ballards Lane,Barnet,,West Finchley,E05000061,-0.19001918514494917,525336.000122197,51.60283495285205,190937.00012159348,Barnet,Music venues (all),E09000003,11/27/2022
Barnet,www.thethreewishes-edgware.com,Three Wishes,0,E09000003,122-126 High St Edgware,,,Edgware,E05000050,-0.27906738614930815,519147.000122197,51.611656871945904,191769.00012169778,Barnet,Music venues (all),E09000003,11/27/2022
Barnet,www.artsdepot.co.uk,Artsdepot,200196017,E09000003,5 Nether Street,Barnet,,West Finchley,E05000061,-0.17512458956227447,526341.000122197,51.61231714895465,192017.00012159348,Barnet,Music venues (all),E09000003,11/27/2022
Barnet,www.thebohemia.co.uk,Bohemia,200060460,E09000003,762-764 High Road,Barnet,,Woodhouse,E05000063,-0.17461759857858988,526369.000122197,51.61487237657218,192302.00012159348,Barnet,Music venues (all),E09000003,11/27/2022
Barnet,,Twenty N20,200148269,E09000003,1105-1111 High Road,Barnet,,Totteridge,E05000059,-0.1749095738526143,526320.000122197,51.62523727278653,193454.00012159348,Barnet,Music venues (all),E09000003,11/27/2022
Barnet,www.thecavalierpub.com,Cavalier,200100308,E09000003,67 Russell Lane,Barnet,,Brunswick Park,E05000043,-0.15633865358109014,527594.000122197,51.6292458898854,193932.00012159348,Barnet,Music venues (all),E09000003,11/27/2022
Barnet,www.griffinwhetstone.pub/,The Griffin,200061924,E09000003,1262 High Road,Barnet,,Oakleigh,E05000058,-0.1728080823986644,526453.000122197,51.62971025097337,193955.00012159348,Barnet,Music venues (all),E09000003,11/27/2022
Barnet,,Builders Arms,200002377,E09000003,3 Albert Road,Barnet,,East Barnet,E05000048,-0.17159142006838443,526480.000122197,51.65025907669404,196242.00012159348,Barnet,Music venues (all),E09000003,11/27/2022
Barnet,www.blackhorsebarnet.co.uk,Black Horse,200119419,E09000003,92 Wood Street,Barnet,,High Barnet,E05000056,-0.2050674440346347,524158.000122197,51.65262825012917,196448.00012169778,Barnet,Music venues (all),E09000003,11/27/2022
Barnet,www.mcmullens.co.uk/king-s-head,Kings Head,200062402,E09000003,84 High Street,Barnet,,High Barnet,E05000056,-0.19918362652138474,524564.000122197,51.65297882375251,196497.00012159348,Barnet,Music venues (all),E09000003,11/27/2022
Barnet,,Misty Moon,200206439,E09000003,148 High Street,Barnet,,High Barnet,E05000056,-0.19992674602374058,524507.000122197,51.655022702537025,196723.00012159348,Barnet,Music venues (all),E09000003,11/27/2022
Barnet,https://angels.uk.com/,Angels Costumes,200046869,E09000003,1 Garrick Road,,,Colindale,E05000046,-0.23986561426066233,521942.8300780952,51.58106058902406,188431.53009029478,Barnet,Prop and costume making,E09000003,11/27/2022
Barnet,https://www.maisonhenrybertrand.com,Maison Henry Bertrand,10093298811,E09000003,13-15  Station Road,,,Finchley Church End,E05000051,-0.19145864341252164,525244.1500854939,51.599992665094746,190618.49011229724,Barnet,Prop and costume making,E09000003,11/27/2022
Barnet,http://www.ronbriggs.com/,Ron Briggs Design,200216781,E09000003,1 Bedford Mews,,,East Finchley,E05000049,-0.16350687413698567,527203.5800780952,51.59144598731191,189716.43011479825,Barnet,Prop and costume making,E09000003,11/27/2022
Barnet,,Lord Kitchener,,E09000003,"49 East Barnet Road, East",New Barnet,Barnet,East Barnet,E05000048,-0.169673143322798,526615.0001221001,51.64942878074293,196153.00012210011,Barnet,Pubs,E09000003,11/27/2022
Barnet,,Railway Tavern,,E09000003,3 East Barnet Road,New Barnet,Barnet,High Barnet,E05000056,-0.17284373377561796,526395.0001221001,51.649676019905804,196175.00012210011,Barnet,Pubs,E09000003,11/27/2022
Barnet,,Railway Bell,,E09000003,13 East Barnet Road,New Barnet,Barnet,High Barnet,E05000056,-0.17284373377561796,526395.0001221001,51.649676019905804,196175.00012210011,Barnet,Pubs,E09000003,11/27/2022
Barnet,,Prince Of Wales,,E09000003,2 Church Hill Road,East Barnet,Barnet,East Barnet,E05000048,-0.1614098161249331,527210.0001221001,51.64106176188978,195237.00012210011,Barnet,Pubs,E09000003,11/27/2022
Barnet,,Cock Inn,,E09000003,Chalk Lane,Cockfosters,Barnet,East Barnet,E05000048,-0.15292012052756143,527761.0001221001,51.65398684184318,196689.00012210011,Barnet,Pubs,E09000003,11/27/2022
Barnet,,Builders Arms,,E09000003,3 Albert Road,New Barnet,Barnet,East Barnet,E05000048,-0.1715520544179622,526483.0001221001,51.650159537044786,196231.00012210011,Barnet,Pubs,E09000003,11/27/2022
Barnet,,Queens Arms,,E09000003,Great North Road,High Barnet,Barnet,Oakleigh,E05000058,-0.1867207942568064,525445.0001221001,51.64609598625953,195753.00012210011,Barnet,Pubs,E09000003,11/27/2022
Barnet,,Weaver's Bar,,E09000003,"27 Greenhill Parade,  Great North Road",High Barnet,Barnet,Oakleigh,E05000058,-0.18458579191857968,525594.0001221001,51.645622319320324,195704.00012210011,Barnet,Pubs,E09000003,11/27/2022
Barnet,,Lord Nelson,,E09000003,14 West End Lane,High Barnet,Barnet,Underhill,E05000060,-0.20919058781551841,523875.0001221001,51.651827856132314,196352.00012210011,Barnet,Pubs,E09000003,11/27/2022
Barnet,,Arkley (Village Inn & Dining),,E09000003,Barnet Road,High Barnet,Arkley,High Barnet,E05000056,-0.21913363801094435,523188.0001221001,51.65155640911995,196305.00012210011,Barnet,Pubs,E09000003,11/27/2022
Barnet,,Miller & Carter Steakhouse,,E09000003,Stirling Corner,High Barnet,Arkley,High Barnet,E05000056,-0.2521783119284367,520926.0001221001,51.64267302622245,195262.00012210011,Barnet,Pubs,E09000003,11/27/2022
Barnet,,Gate,,E09000003,Barnet Road,High Barnet,Arkley,Underhill,E05000060,-0.2408205149774243,521715.0001221001,51.64146016962016,195146.00012210011,Barnet,Pubs,E09000003,11/27/2022
Barnet,,Black Horse,,E09000003,"92, Wood Street",High Barnet,Barnet,High Barnet,E05000056,-0.2025454625722017,524332.0001221001,51.65278752003133,196470.00012210011,Barnet,Pubs,E09000003,11/27/2022
Barnet,,Sebright Arms,,E09000003,9 Alston Road,High Barnet,Barnet,High Barnet,E05000056,-0.20597585024722403,524087.0001221001,51.6556189104,196779.00012210011,Barnet,Pubs,E09000003,11/27/2022
Barnet,,Hadley Hotel,,E09000003,113 Hadley Road,High Barnet,Barnet,High Barnet,E05000056,-0.1818415876068367,525755.0001221001,51.65603907726895,196867.00012210011,Barnet,Pubs,E09000003,11/27/2022
Barnet,,"Olde Mitre Inne, Ye",,E09000003,58 High Street,High Barnet,Barnet,High Barnet,E05000056,-0.19778114894280655,524662.0001221001,51.65261555929716,196459.00012210011,Barnet,Pubs,E09000003,11/27/2022
Barnet,,King's Head,,E09000003,84 High Street,High Barnet,Barnet,High Barnet,E05000056,-0.19932669413668705,524554.0001221001,51.65301699117831,196501.00012210011,Barnet,Pubs,E09000003,11/27/2022
Barnet,,"Olde Monken Holt, Ye",,E09000003,193 High Street,High Barnet,Barnet,High Barnet,E05000056,-0.19990781465044213,524502.0001221001,51.65732469351737,196979.00012210011,Barnet,Pubs,E09000003,11/27/2022
Barnet,,Red Lion,,E09000003,31 High Street,High Barnet,Barnet,Underhill,E05000060,-0.1980974147489699,524641.0001221001,51.65229665493632,196423.00012210011,Barnet,Pubs,E09000003,11/27/2022
Barnet,,Butchers Arms,,E09000003,148 High Street,High Barnet,Barnet,High Barnet,E05000056,-0.19979974852520427,524515.0001221001,51.65530854064754,196755.00012210011,Barnet,Pubs,E09000003,11/27/2022
Barnet,,Flavours,,E09000003,218 Burnt Oak Broadway,Edgware,,Burnt Oak,E05000044,-0.26910508468101074,519859.0001221001,51.6031826062024,190843.00012210011,Barnet,Pubs,E09000003,11/27/2022
Barnet,,Blarneys Freehouse,,E09000003,128 Burnt Oak Broadway,Edgware,,Burnt Oak,E05000044,-0.2659653656837598,520083.0001221001,51.600681091814295,190570.00012210011,Barnet,Pubs,E09000003,11/27/2022
Barnet,,Three Wishes,,E09000003,122-126 High Street,Edgware,,Edgware,E05000050,-0.27918915795327154,519138.0001221001,51.611874495556485,191793.00012210011,Barnet,Pubs,E09000003,11/27/2022
Barnet,,Jolly Badger,,E09000003,128 Hale Lane,Edgware,,Hale,E05000054,-0.25918389450550183,520510.0001221001,51.61675962053,192369.00012210011,Barnet,Pubs,E09000003,11/27/2022
Barnet,,Furlong,,E09000003,89 Colney Hatch Lane,Muswell Hill,London,Coppetts,E05000047,-0.146070821252281,528390.0001221001,51.598956263169796,190582.00012210011,Barnet,Pubs,E09000003,11/27/2022
Barnet,,Tally Ho,,E09000003,749 High Road,North Finchley,London,West Finchley,E05000061,-0.17476985308638174,526363.0001221001,51.613237950510914,192120.00012210011,Barnet,Pubs,E09000003,11/27/2022
Barnet,,Hollywood Bowl,,E09000003,"Leisure Way, Finchley High Road",North Finchley,London,Woodhouse,E05000063,-0.17273185428593318,526526.0001221001,51.605355017556725,191247.00012210011,Barnet,Pubs,E09000003,11/27/2022
Barnet,,Woodhouse,,E09000003,230 Woodhouse Road,North Finchley,London,Woodhouse,E05000063,-0.1611814488532304,527310.0001221001,51.61097535612895,191892.00012210011,Barnet,Pubs,E09000003,11/27/2022
Barnet,,Elephant Inn,,E09000003,283 Ballards Lane,North Finchley,London,West Finchley,E05000061,-0.17817442376083978,526134.0001221001,51.61082666187827,191846.00012210011,Barnet,Pubs,E09000003,11/27/2022
Barnet,,Safari Club Bar,,E09000003,975 High Road,North Finchley,London,Woodhouse,E05000063,-0.17541512554177696,526299.0001221001,51.620199857152855,192893.00012210011,Barnet,Pubs,E09000003,11/27/2022
Barnet,,Finchley Tavern,,E09000003,686 High Road,North Finchley,London,Woodhouse,E05000063,-0.1738967952619013,526426.0001221001,51.61231603936785,192019.00012210011,Barnet,Pubs,E09000003,11/27/2022
Barnet,,Bohemia,,E09000003,762-764 High Road,North Finchley,London,Woodhouse,E05000063,-0.17463817756211208,526367.0001221001,51.61507954417056,192325.00012210011,Barnet,Pubs,E09000003,11/27/2022
Barnet,,Toolans,,E09000003,866 High Road,North Finchley,London,Woodhouse,E05000063,-0.174735011510559,526351.0001221001,51.61842658339587,192697.00012210011,Barnet,Pubs,E09000003,11/27/2022
Barnet,,Osidge Arms,,E09000003,Hampden Square,Southgate,London,Brunswick Park,E05000043,-0.14083583341877157,528660.0001221001,51.63165442640073,194227.00012210011,Barnet,Pubs,E09000003,11/27/2022
Barnet,,Cavalier,,E09000003,67 Russell Lane,Whetstone,Oakleigh Park,Brunswick Park,E05000043,-0.1563386535823043,527594.0001221001,51.62924588988997,193932.00012210011,Barnet,Pubs,E09000003,11/27/2022
Barnet,,York Arms,,E09000003,310 Oakleigh Road North,Whetstone,Oakleigh Park,Oakleigh,E05000058,-0.15725911447562238,527543.0001221001,51.624718688703176,193427.00012210011,Barnet,Pubs,E09000003,11/27/2022
Barnet,,Three Horseshoes,,E09000003,1166 High Road,Whetstone,London,Totteridge,E05000059,-0.17327276530874294,526430.0001221001,51.62641692179008,193588.00012210011,Barnet,Pubs,E09000003,11/27/2022
Barnet,,Orange Tree,,E09000003,7 Totteridge Village,Whetstone,Totteridge,Totteridge,E05000059,-0.19484272524374258,524929.0001221001,51.629412637911805,193884.00012210011,Barnet,Pubs,E09000003,11/27/2022
Barnet,,Griffin,,E09000003,1262 High Road,Whetstone,London,Oakleigh,E05000058,-0.17305972577433518,526435.0001221001,51.62992101481589,193978.00012210011,Barnet,Pubs,E09000003,11/27/2022
Barnet,,Five Bells,,E09000003,165-167 East End Road,East Finchley,London,East Finchley,E05000049,-0.17020824954526956,526744.0001221001,51.5898110763829,189523.00012210011,Barnet,Pubs,E09000003,11/27/2022
Barnet,,Old White Lion,,E09000003,121 Great North Road,East Finchley,London,East Finchley,E05000049,-0.16278485682371194,527267.0001221001,51.586646318512976,189184.00012210011,Barnet,Pubs,E09000003,11/27/2022
Barnet,,Bald Faced Stag,,E09000003,69 High Road,East Finchley,London,East Finchley,E05000049,-0.16277830569484447,527262.0001221001,51.58859778872567,189401.00012210011,Barnet,Pubs,E09000003,11/27/2022
Barnet,,Gertie Brownes,,E09000003,"95 High Road, London",East Finchley,London,East Finchley,E05000049,-0.1634185991291737,527213.0001221001,51.59026260095137,189585.00012210011,Barnet,Pubs,E09000003,11/27/2022
Barnet,,Windsor Castle,,E09000003,"The Walks, off Church Lane, London",East Finchley,London,East Finchley,E05000049,-0.16955836379847017,526780.0001221001,51.59304756193118,189884.00012210011,Barnet,Pubs,E09000003,11/27/2022
Barnet,,Maddens,,E09000003,130 High Road,East Finchley,London,East Finchley,E05000049,-0.16279379715694048,527256.0001221001,51.590360741661094,189597.00012210011,Barnet,Pubs,E09000003,11/27/2022
Barnet,,Catcher In The Rye,,E09000003,317 Regents Park Road,Finchley,London,Finchley Church End,E05000051,-0.19438169191956126,525044.0001221001,51.59916990393652,190522.00012210011,Barnet,Pubs,E09000003,11/27/2022
Barnet,,Ahir Lorenzoâ€™s,,E09000003,298 Nether Street,Finchley,London,West Finchley,E05000061,-0.19391405983816848,525068.0001221001,51.6022204538275,190862.00012210011,Barnet,Pubs,E09000003,11/27/2022
Barnet,,Finchley Manor Tennis Squash & Health Club,,E09000003,Lyndhurst Gardens,Finchley,London,Finchley Church End,E05000051,-0.2025187170542163,524475.0001221001,51.60119241396725,190733.00012210011,Barnet,Pubs,E09000003,11/27/2022
Barnet,,Joiners,,E09000003,51 Ballards Lane,Finchley,London,West Finchley,E05000061,-0.189933657949656,525342.0001221001,51.60280665368051,190934.00012210011,Barnet,Pubs,E09000003,11/27/2022
Barnet,,Annie Twomey's,,E09000003,168 Ballards Lane,Finchley,London,West Finchley,E05000061,-0.18604052854963218,525606.0001221001,51.6048240143635,191165.00012210011,Barnet,Pubs,E09000003,11/27/2022
Barnet,,Finchley Cricket Club,,E09000003,"Arden Field, East End Road",Finchley,,Finchley Church End,E05000051,-0.18453995676054286,525739.0001221001,51.59428754864711,189996.00012210011,Barnet,Pubs,E09000003,11/27/2022
Barnet,,Papillon,,E09000003,"30 Market Place,  Falloden Way",Hampstead Garden Suburb,London,Garden Suburb,E05000052,-0.18110812951953187,526002.0001221001,51.58513308741529,188984.00012210011,Barnet,Pubs,E09000003,11/27/2022
Barnet,,Wallace,,E09000003,1023 Finchley Road,Golders Green,London,Garden Suburb,E05000052,-0.1969077900556985,524924.0001221001,51.57914450690739,188291.00012210011,Barnet,Pubs,E09000003,11/27/2022
Barnet,,Refectory,,E09000003,911 Finchley Road,Golders Green,London,Childs Hill,E05000045,-0.1948616363395367,525081.0001221001,51.573591097616635,187677.00012210011,Barnet,Pubs,E09000003,11/27/2022
Barnet,,Gate Lodge,,E09000003,622 Finchley Road,Golders Green,London,Childs Hill,E05000045,-0.1934193158608559,525189.0001221001,51.570655034208656,187353.00012210011,Barnet,Pubs,E09000003,11/27/2022
Barnet,,Lucky Seven,,E09000003,7 Cricklewood Lane,Cricklewood,London,Childs Hill,E05000045,-0.21332964213449856,523847.0001221001,51.5568132958957,185780.00012210011,Barnet,Pubs,E09000003,11/27/2022
Barnet,,Lambo Bar & Restaurant,,E09000003,75 Cricklewood Lane,Cricklewood,London,Childs Hill,E05000045,-0.2061120477123656,524338.0001221001,51.560210585551665,186170.00012210011,Barnet,Pubs,E09000003,11/27/2022
Barnet,,Best Western Palm Hotel,,E09000003,64-76 Hendon Way,Cricklewood,,Childs Hill,E05000045,-0.20271090162128466,524566.0001221001,51.56303642323519,186490.00012210011,Barnet,Pubs,E09000003,11/27/2022
Barnet,,Clayton Crown Hotel,,E09000003,142-152 Cricklewood Broadway,Cricklewood,London,Childs Hill,E05000045,-0.2133078744098097,523850.0001221001,51.55626436643499,185719.00012210011,Barnet,Pubs,E09000003,11/27/2022
Barnet,,Spaniards,,E09000003,Spaniards Road,Hampstead,London,Garden Suburb,E05000052,-0.17265238756969023,526632.0001221001,51.56920026340018,187227.00012210011,Barnet,Pubs,E09000003,11/27/2022
Barnet,,Hendon,,E09000003,377 Hendon Way,Hendon,London,West Hendon,E05000062,-0.22547855315182036,522940.0001221001,51.580875106569046,188435.00012210011,Barnet,Pubs,E09000003,11/27/2022
Barnet,,Bodhran Bar,,E09000003,3-5 Vivian Avenue,Hendon,London,West Hendon,E05000062,-0.22661883930462914,522858.0001221001,51.581989535208976,188557.00012210011,Barnet,Pubs,E09000003,11/27/2022
Barnet,,Claddagh Ring,,E09000003,10 Church Road,Hendon,London,Hendon,E05000055,-0.2245602159755397,522980.0001221001,51.58962074460015,189409.00012210011,Barnet,Pubs,E09000003,11/27/2022
Barnet,,Greyhound,,E09000003,"52 Church End, London",Hendon,London,Hendon,E05000055,-0.22548529838001574,522913.0001221001,51.59070494551464,189528.00012210011,Barnet,Pubs,E09000003,11/27/2022
Barnet,,Midland Hotel,,E09000003,29 Station Road,Hendon,London,West Hendon,E05000062,-0.23578271066706466,522228.0001221001,51.5801940996688,188342.00012210011,Barnet,Pubs,E09000003,11/27/2022
Barnet,,Red Filly,,E09000003,"3 Thornfield Parade, Holders Hill Road",Mill Hill,London,Finchley Church End,E05000051,-0.20574534532619332,524244.0001221001,51.60396677474249,191036.00012210011,Barnet,Pubs,E09000003,11/27/2022
Barnet,,Adam & Eve,,E09000003,The Ridgeway,Mill Hill,London,Mill Hill,E05000057,-0.2166700852247944,523455.0001221001,51.61596850838975,192352.00012210011,Barnet,Pubs,E09000003,11/27/2022
Barnet,,Bridge Tavern,,E09000003,9 The Broadway,Mill Hill,London,Mill Hill,E05000057,-0.2473808083265294,521335.0001221001,51.6137690759332,192056.00012210011,Barnet,Pubs,E09000003,11/27/2022
Barnet,,Railway Tavern,,E09000003,129 Hale Lane,Mill Hill,London,Hale,E05000054,-0.25733791665876105,520640.0001221001,51.61592283343679,192279.00012210011,Barnet,Pubs,E09000003,11/27/2022
Barnet,,Three Hammers,,E09000003,Hammers Lane,Mill Hill,London,Mill Hill,E05000057,-0.23266179465143,522336.0001221001,51.62043723950389,192822.00012210011,Barnet,Pubs,E09000003,11/27/2022
Barnet,,Rising Sun,,E09000003,137 Marsh Lane,Mill Hill,London,Hale,E05000054,-0.24023867289908857,521795.0001221001,51.62662154476345,193497.00012210011,Barnet,Pubs,E09000003,11/27/2022
Barnet,,Beaufort,,E09000003,2 Heritage Avenue,Colindale,London,Colindale,E05000046,-0.24139315397072547,521797.0001221001,51.59601665318342,190092.00012210011,Barnet,Pubs,E09000003,11/27/2022
Barnet,,Chandos Arms,,E09000003,31 Colindale Avenue,Colindale,London,Colindale,E05000046,-0.25427412220292833,520914.0001221001,51.59261164489146,189692.00012210011,Barnet,Pubs,E09000003,11/27/2022
Barnet,,Hind & Hart,,E09000003,The Concourse,Colindale,London,Colindale,E05000046,-0.24337398851843847,521644.0001221001,51.60193694219407,190747.00012210011,Barnet,Pubs,E09000003,11/27/2022
Barnet,,Funky Brownz,,E09000003,63 The Hyde,Colindale,London,West Hendon,E05000062,-0.2465268495308006,521475.0001221001,51.58344885347232,188686.00012210011,Barnet,Pubs,E09000003,11/27/2022
Barnet,,Moon Under Water,,E09000003,"10 Varley Parade, Edgware Road",Colindale,London,Colindale,E05000046,-0.24923916353842332,521278.0001221001,51.58687084410329,189062.00012210011,Barnet,Pubs,E09000003,11/27/2022
Barnet,,O'Hanlon's,,E09000003,210 The Broadway,West Hendon,London,West Hendon,E05000062,-0.2372462999663678,522136.0001221001,51.57669070154279,187950.00012210011,Barnet,Pubs,E09000003,11/27/2022
Barnet,,Friary-Park,0,E09000003,,,,Coppetts,E05000047,-0.16119293766658244,527289.0084838942,51.61819303709226,192694.53430179507,Barnet,Skate Parks,E09000003,11/27/2022
Barnet,https://www.maisonhenrybertrand.com,Maison Henry Bertrand,10093298811,E09000003,13-15 Station Road,,,Finchley Church End,E05000051,-0.19145864341252164,525244.1500854939,51.599992665094746,190618.49011229724,Barnet,Textile design,E09000003,11/27/2022
Barnet,http://www.mcconnelldesign.co.uk/,McConnell Design,200072640,E09000003,76 Leicester Road,,,East Finchley,E05000049,-0.15951702309416194,527480.4000854939,51.59127205001551,189704.04010009766,Barnet,Textile design,E09000003,11/27/2022
Barnet,www.thebridge-ttc.org,Bridge Theatre Training Company,200196013,E09000003,90 Kingsway,Tally Ho Corner,,West Finchley,E05000061,-0.17670437709938333,526119.4624900608,51.612817504012654,192122.72533749015,Barnet,Theatre rehearsal studio,E09000003,11/27/2022
Barnet,NA,All Saints Arts Centre,200088136,E09000003,122 Oakleigh Rd North, Whetstone,NA,Oakleigh,E05000058,-0.17525466208750679,526164.6285730546,51.63269014380219,194334.66654003697,Barnet,Theatres,E09000003,11/27/2022
Barnet,https://www.thebulltheatre.com/,The Bull Theatre,200148795,E09000003,68 High St, Barnet,NA,High Barnet,E05000056,-0.20096385841041747,524328.5649529024,51.653603403545866,196615.7220233351,Barnet,Theatres,E09000003,11/27/2022
Barnet,https://www.artsdepot.co.uk/,artsdepot,200198999,E09000003,5 Nether St, Tally Ho Corner, North Finchley,West Finchley,E05000061,-0.1778996827887166,526034.9403038005,51.61346126926521,192192.23579849966,Barnet,Theatres,E09000003,11/27/2022
