borough_name,website,site_name,os_addressbase_uprn,borough_code,address1,address2,address3,ward_2018_name,ward_2018_code,longitude,easting,latitude,northing,BOROUGH,Cultural Venue Type,gss_code,runtime
Bromley,,Odeon Beckenham,010003626016,E09000006,,The High Street,,Copers Cope,E05000113,-0.02978938493543999,537018.0001221001,51.406584118758595,169403.00012210011,Bromley,Cinemas,E09000006,11/27/2022
Bromley,http://bethlemgallery.com/#,Bethlem Gallery,10003615210,E09000006,Bethlem Royal Hospital,Monks Orchard Road,NA,Kelsey and Eden Park,E05000120,-0.02814025538515905,537211.0001221001,51.380402272119106,166495.00012210011,Bromley,Commercial galleries,E09000006,11/27/2022
Bromley,http://www.facebook.com/darrick.wood,Darrick Wood Community Centre,10003626647,E09000006,Broadwater Gardens,Bromley,NA,Farnborough and Crofton,E05000118,0.07082131881092234,544147.0001221001,51.364340158205266,164899.00012210011,Bromley,Community centres,E09000006,11/27/2022
Bromley,http://www.mytimeactive.co.uk/leisure/crofton-halls,Crofton Halls,10003626864,E09000006,Crofton Halls, Crofton Road, Orpington,Farnborough and Crofton,E05000118,0.08887779700968977,545377.0001221001,51.37278867927399,165874.00012210011,Bromley,Community centres,E09000006,11/27/2022
Bromley,,Windsor Drive Community Centre (Chelsfield),100022899499,E09000006,Windsor Drive, Orpington,NA,Chelsfield and Pratts Bottom,E05000110,0.10590848001900091,546616.0001221001,51.3559256647051,164033.00012210011,Bromley,Community centres,E09000006,11/27/2022
Bromley,http://www.bromley.gov.uk/CotmandeneCommunityCentre,Cotmandene Community Resource Centre,100022898298,E09000006,64 Cotmandene Crescent, St. Paul's Cray, Orpington,Cray Valley West,E05000115,0.10650957837652701,546506.0001221001,51.403448305345954,169318.00012210011,Bromley,Community centres,E09000006,11/27/2022
Bromley,,Assembly Halls - West Wickham,100022897671,E09000006,Assembly Halls, 18 Gates Green Road, West Wickham,Hayes and Coney Hall,E05000119,0.005780632385565183,539609.0001221001,51.36796338445021,165176.00012210011,Bromley,Community centres,E09000006,11/27/2022
Bromley,http://www.sandersonhall.com/,Sanderson Hall - St Paul's Cray,100022898279,E09000006,Mickleham Road, St Paul's Cray,NA,Cray Valley West,E05000115,0.1030729585734151,546264.0001221001,51.404391458153455,169416.00012210011,Bromley,Community centres,E09000006,11/27/2022
Bromley,http://www.orpingtonvillagehall.org.uk,Orpington Village Hall,10070007136,E09000006,311 High Street, Orpington,NA,Orpington,E05000122,0.09975286747315557,546133.0001221001,51.373034933366746,165923.00012210011,Bromley,Community centres,E09000006,11/27/2022
Bromley,http://www.mytimeactive.co.uk/leisure/beckenham-public-hall,Beckenham Public Hall,100022896627,E09000006,4 Bromley Road,Bromley,NA,Copers Cope,E05000113,-0.0228231425454385,537498.0001221001,51.40805867811709,169580.00012210011,Bromley,Community centres,E09000006,11/27/2022
Bromley,http://www.wickhamhall.org.uk,Wickham Hall,100022897602,E09000006,Sussex Road,Bromley,NA,West Wickham,E05000127,-0.01786853418820336,537936.0001221001,51.37697313063567,166133.00012210011,Bromley,Community centres,E09000006,11/27/2022
Bromley,,Downe Village Hall,100022899568,E09000006,The Village Hall, 24 High Street, Downe,Darwin,E05000117,0.05557883498933597,543177.0001221001,51.33517128583586,161626.00012210011,Bromley,Community centres,E09000006,11/27/2022
Bromley,,Hayes Village Hall,100023527434,E09000006,Hayes Street, Bromley,NA,Hayes and Coney Hall,E05000119,0.02006233543904559,540572.0001221001,51.378069957195706,166327.00012210011,Bromley,Community centres,E09000006,11/27/2022
Bromley,,Farnborough Village Hall,100023528480,E09000006,65 High Street, Farnborough, Orpington,Farnborough and Crofton,E05000118,0.06913233784724349,544046.0001221001,51.35906354466391,164309.00012210011,Bromley,Community centres,E09000006,11/27/2022
Bromley,http://www.bromley.gov.uk/MottinghamCommunityShop,Mottingham Community and Learning Shop - Rooms,100023528178,E09000006,1 - 2, Cranley Parade, Beaconsfield Road,Mottingham and Chislehurst North,E05000121,0.04852923920340633,542401.0001221001,51.42689826841639,171811.00012210011,Bromley,Community centres,E09000006,11/27/2022
Bromley,,Mountfield Community Centre,10003626729,E09000006,17 Sandway Road,Bromley,NA,Cray Valley East,E05000114,0.11786521920589907,547328.0001221001,51.393395122945876,168223.00012210011,Bromley,Community centres,E09000006,11/27/2022
Bromley,http://www.kestonvillagehall.org.uk,Keston Village Hall,10003615873,E09000006,Heathfield Road,Bromley,NA,Bromley Common and Keston,E05000108,0.03357829786410959,541581.0001221001,51.3558458642296,163882.00012210011,Bromley,Community centres,E09000006,11/27/2022
Bromley,https://www.bromley.gov.uk/directory_record/1210436/garden_estates_association_of_petts_wood/category/131/community_halls,Garden Estates Association of Petts Wood,10003626246,E09000006,36 Woodhurst Avenue,Bromley,NA,Petts Wood and Knoll,E05000124,0.07115470046516537,544096.0001221001,51.38796147649417,167526.00012210011,Bromley,Community centres,E09000006,11/27/2022
Bromley,http://www.pbvh.co.uk,Pratts Bottom Village Hall,10003626614,E09000006,Norsted Lane,Bromley,NA,Chelsfield and Pratts Bottom,E05000110,0.11303933395777918,547168.0001221001,51.3385735522432,162118.00012210011,Bromley,Community centres,E09000006,11/27/2022
Bromley,https://gsgvillagesociety.weebly.com/,Greenwood Community Centre,100022899427,E09000006,4 High Street,Bromley,NA,Chelsfield and Pratts Bottom,E05000110,0.09097581314598131,545587.0001221001,51.352604609066404,163634.00012210011,Bromley,Community centres,E09000006,11/27/2022
Bromley,http://www.kestonvillagehall.org.uk,Keston Village Hall,100023527990,E09000006,Heathfield Road,Bromley,NA,Bromley Common and Keston,E05000108,0.03357829786410959,541581.0001221001,51.3558458642296,163882.00012210011,Bromley,Community centres,E09000006,11/27/2022
Bromley,https://www.bromley.gov.uk/directory_record/1210827/aperfield_womens_institute,Aperfield Womens Institute,10003627425,E09000006,Lebanon Gardens,Bromley,NA,Biggin Hill,E05000107,0.035506075963150224,541856.0001221001,51.31021277210387,158812.00012210011,Bromley,Community centres,E09000006,11/27/2022
Bromley,https://www.bromley.gov.uk/directory_record/1210151/community_house_halls/category/131/community_halls,Community House Halls,200001900201,E09000006,Community House, South Street, Bromley,Bromley Town,E05000109,0.018725889874237338,540393.0001221001,51.40615397864478,169447.00012210011,Bromley,Community centres,E09000006,11/27/2022
Bromley,http://www.magpiedance.org.uk,Churchill Theatre: Magpie Dance,100022886981,E09000006,118 High Street,,,Bromley Town,E05000109,0.01447424710333657,539992.2625834523,51.403764998095454,169228.39725823456,Bromley,Dance performance venues,E09000006,11/27/2022
Bromley,http://www.lpsb.org.uk,Langley Park Centre for the Performing Arts - Bromley Hall,100022894311,E09000006,S Eden Park Rd,,,Kelsey and Eden Park,E05000120,-0.01894750975679238,537712.9444351302,51.38893000520387,167515.74804962554,Bromley,Dance performance venues,E09000006,11/27/2022
Bromley,http://chantry-studios.co.uk,Chantry Studios,100022892183,E09000006,20 Chantry Lane,,,Bromley Common and Keston,E05000108,0.034346311350921865,541409.9486956585,51.39213619037571,167973.8244113418,Bromley,Dance rehearsal studios,E09000006,11/27/2022
Bromley,http://danceboxstudios.co.uk/classes/,Dance Box Bromley,100022887397,E09000006,28-30 The Mall,,,Bromley Town,E05000109,0.01640756417169709,540131.2211029201,51.402283926724316,169067.44238793512,Bromley,Dance rehearsal studios,E09000006,11/27/2022
Bromley,http://www.studio74dance.co.uk,Studio 74,100022892160,E09000006,St Augustines Avenue,,,Bickley,E05000106,0.04338448694450062,542044.8006054712,51.39012657132494,167767.92056993995,Bromley,Dance rehearsal studios,E09000006,11/27/2022
Bromley,http://www.bishopjustus.bromley.sch.uk,Bishop Justus Church of England School,10013149314,E09000006,Magpie Hall Lane,,,Bromley Common and Keston,E05000108,0.045098174460370344,542187.83109789,51.38245295759116,166918.1746118074,Bromley,Dance rehearsal studios,E09000006,11/27/2022
Bromley,http://www.dancecompanystudios.co.uk,Dance Company Studios,100022892873,E09000006,76 High Street,,,Copers Cope,E05000113,-0.025341804557769135,537210.0227895684,51.40833628677849,169661.20410050277,Bromley,Dance rehearsal studios,E09000006,11/27/2022
Bromley,http://www.magpiedance.org.uk,Churchill Theatre: Magpie Dance,100022886981,E09000006,118 High Street,,,Bromley Town,E05000109,0.01447424710333657,539992.2625834523,51.403764998095454,169228.39725823456,Bromley,Dance rehearsal studios,E09000006,11/27/2022
Bromley,http://www.lpsb.org.uk,Langley Park Centre for the Performing Arts - Bromley Hall,100022894311,E09000006,S Eden Park Rd,,,Kelsey and Eden Park,E05000120,-0.01894750975679238,537712.9444351302,51.38893000520387,167515.74804962554,Bromley,Dance rehearsal studios,E09000006,11/27/2022
Bromley,,Andrew Prince Jewellery Limited,100023631949,E09000006,104 High Street,West Wickham,,West Wickham,E05000127,-0.017865828385922204,537938.0001221001,51.37637049482593,166066.00012210011,Bromley,Jewellery design,E09000006,11/27/2022
Bromley,,Foreman & Beatty (Diamond Mounters) Limited,100022901069,E09000006,18 Royal Parade,Chislehurst,,Chislehurst,E05000111,0.07797598539468852,544499.0001221001,51.41064937695308,170062.00012210011,Bromley,Jewellery design,E09000006,11/27/2022
Bromley,http://www.hunki-dori.com,Hunki Dori Limited,100023631949,E09000006,104 High Street,West Wickham,,West Wickham,E05000127,-0.017865828385922204,537938.0001221001,51.37637049482593,166066.00012210011,Bromley,Jewellery design,E09000006,11/27/2022
Bromley,,Till Obermeier Limited,10091760304,E09000006,264 High Street,Beckenham,,Copers Cope,E05000113,-0.028711176601808112,537094.0001221001,51.40624220522581,169367.00012210011,Bromley,Jewellery design,E09000006,11/27/2022
Bromley,,Multiple businesses ,10070006105,E09000006,Ashfields Suite,International House,,Cray Valley East,E05000114,0.11285769632833868,546989.0001221001,51.39049053689359,167890.00012210011,Bromley,Jewellery design,E09000006,11/27/2022
Bromley,,Biggin Hill Memorial Library and Pool,10070007971,E09000006,Church Road,Biggin Hill,,Biggin Hill,E05000107,0.036318182477974324,541908.0001221001,51.311700653215325,158979.00012210011,Bromley,Libraries,E09000006,11/27/2022
Bromley,,West Wickham Library,100022897598,E09000006,Glebe Way,West Wickham,,West Wickham,E05000127,-0.012306128533212944,538328.0001221001,51.37533192539564,165961.00012210011,Bromley,Libraries,E09000006,11/27/2022
Bromley,,Hayes Library,100022891892,E09000006,Hayes Street,Bromley,,Hayes and Coney Hall,E05000119,0.019678625209458473,540549.0001221001,51.37686239390687,166192.00012210011,Bromley,Libraries,E09000006,11/27/2022
Bromley,,Orpington Library,10070009943,E09000006,The Walnuts,Orpington,,Orpington,E05000122,0.10277352775739329,546335.0001221001,51.375607000378025,166215.00012210011,Bromley,Libraries,E09000006,11/27/2022
Bromley,,Southborough Library,100022892170,E09000006,Southborough Lane,Bromley,,Bickley,E05000106,0.04499848908149254,542272.0001221001,51.389383361690754,167633.00012210011,Bromley,Libraries,E09000006,11/27/2022
Bromley,,Petts Wood Library,100022897997,E09000006,Frankswood Avenue,Orpington,,Petts Wood and Knoll,E05000124,0.07253162352378577,544187.0001221001,51.389484087382634,167698.00012210011,Bromley,Libraries,E09000006,11/27/2022
Bromley,,Shortlands Library,100022891493,E09000006,Shortlands Road,Bromley,,Shortlands,E05000126,-0.00558983520144526,538723.0001221001,51.39924941333211,168633.00012210011,Bromley,Libraries,E09000006,11/27/2022
Bromley,,Bromley Central Library,100022886980,E09000006,High Street,Bromley,,Bromley Town,E05000109,0.016066783909296462,540217.0001221001,51.40324077728442,169118.00012210011,Bromley,Libraries,E09000006,11/27/2022
Bromley,,St Pauls Cray Library,100022898290,E09000006,Mickleham Road,Orpington,,Cray Valley West,E05000115,0.10486766661118022,546390.0001221001,51.4040174558779,169378.00012210011,Bromley,Libraries,E09000006,11/27/2022
Bromley,,Beckenham Library,10003628986,E09000006,Beckenham Road,Beckenham,,Clock House,E05000112,-0.035346839548617684,536627.0001221001,51.408107456136726,169562.00012210011,Bromley,Libraries,E09000006,11/27/2022
Bromley,,Penge Library,10070007380,E09000006,Green Lane,,,Penge and Cator,E05000123,-0.049516923964200515,535626.0001221001,51.4133987157756,170124.00012210011,Bromley,Libraries,E09000006,11/27/2022
Bromley,,Burnt Ash Library,100022890161,E09000006,Burnt Ash Lane,Bromley,,Plaistow and Sundridge,E05000125,0.02129001895749918,540531.0001221001,51.41929479801025,170913.00012210011,Bromley,Libraries,E09000006,11/27/2022
Bromley,,Chislehurst Library,100022901114,E09000006,Red Hill,Chislehurst,,Chislehurst,E05000111,0.06635256708469033,543663.0001221001,51.4195161051789,171025.00012210011,Bromley,Libraries,E09000006,11/27/2022
Bromley,,Mottingham Library,100023283985,E09000006,Mottingham Road,,,Mottingham and Chislehurst North,E05000121,0.04520832611648285,542139.0001221001,51.436939487434884,172921.00012210011,Bromley,Libraries,E09000006,11/27/2022
Bromley,www.crystalpalacemuseum.org.uk/,Crystal Palace Museum,100023247277,E09000006,Anerley Hill,NA,NA,Crystal Palace,E05000116,-0.07511634411459826,533829.0001221001,51.41925428070396,170728.00012210011,Bromley,Museums and public galleries,E09000006,11/27/2022
Bromley,NA,Bromley Museum at Bromley Historic Collections,100022886980,E09000006, High St,Bromley,NA,Bromley Town,E05000109,0.016066783909296462,540217.0001221001,51.40324077728442,169118.00012210011,Bromley,Museums and public galleries,E09000006,11/27/2022
Bromley,http://museumofthemind.org.uk/,Bethlem Museum of the Mind,100022894353,E09000006,Bethlem Royal Hospital,Monks Orchard Road,NA,Kelsey and Eden Park,E05000120,-0.02815500357282838,537210.0001221001,51.38039352651485,166494.00012210011,Bromley,Museums and public galleries,E09000006,11/27/2022
Bromley,www.english-heritage.org.uk/darwin/,Down House,100023633852,E09000006,Down House,Luxted Road, Downe,Darwin,E05000117,0.05505752087977386,543154.0001221001,51.330899278802036,161150.00012210011,Bromley,Museums and public galleries,E09000006,11/27/2022
Bromley,,Sludge City Records Ltd,100000000000,E09000006,7 Park Avenue,,,West Wickham,E05000127,-0.01424095526640131,538196.000122197,51.37445635928582,165860.00012149662,Bromley,Music (office based businesses),E09000006,11/27/2022
Bromley,,We Make Things Records Ltd,100000000000,E09000006,9 Walden Road,,,Chislehurst,E05000111,0.0589966813181774,543158.0001222938,51.41747806119955,170784.00012149662,Bromley,Music (office based businesses),E09000006,11/27/2022
Bromley,www.yeoldewhytelyon.co.uk,Olde Whyte Lyon,10013149027,E09000006,Farnborough Common Orpington,,,Farnborough And Crofton,E05000118,0.05657138470073329,543154.0001222938,51.36471716035939,164913.00012149662,Bromley,Music venues (all),E09000006,11/27/2022
Bromley,www.partridgebromley.co.uk,Partridge,100000000000,E09000006,194 High Street,,,Bromley Town,E05000109,0.015427785400351973,540167.000122197,51.405059542,169319.00012149662,Bromley,Music venues (all),E09000006,11/27/2022
Bromley,www.mitchellsandbutlers.com,The White Horse,10070003978,E09000006,205-213 High Street,,,Copers Cope,E05000113,-0.02938340174123018,537048.000122197,51.40599269242192,169338.00012149662,Bromley,Music venues (all),E09000006,11/27/2022
Bromley,www.theoakbromley.com,Oak,100000000000,E09000006,206 Widmore Road,,,Bickley,E05000106,0.035853403484582456,541587.000122197,51.40519206705872,169373.00012149662,Bromley,Music venues (all),E09000006,11/27/2022
Bromley,www.thejollywoodman.co.uk,Jolly Woodman,100000000000,E09000006,9 Chancery Lane,,,Copers Cope,E05000113,-0.01643424811370363,537948.000122197,51.40615192315936,169380.00012149662,Bromley,Music venues (all),E09000006,11/27/2022
Bromley,www.thechancerybeckenham.co.uk,The Chancery,100000000000,E09000006,90 Bromley Road,,,Copers Cope,E05000113,-0.015907985657444956,537984.000122197,51.40634987086242,169403.00012149662,Bromley,Music venues (all),E09000006,11/27/2022
Bromley,,Vuvu Club,10070003296,E09000006,30 East Street,,,Bromley Town,E05000109,0.017983695890009744,540340.000122197,51.40660746470412,169496.00012149662,Bromley,Music venues (all),E09000006,11/27/2022
Bromley,www.railwaytavernbromley.com,Railway Tavern,100000000000,E09000006,45 East Street,,,Bromley Town,E05000109,0.017966705155495064,540337.000122197,51.407201353656404,169562.00012149662,Bromley,Music venues (all),E09000006,11/27/2022
Bromley,,Bridge Bar,100000000000,E09000006,42827 High Street,,,Copers Cope,E05000113,-0.02356244010526545,537440.000122197,51.41025665210085,169823.00012149662,Bromley,Music venues (all),E09000006,11/27/2022
Bromley,www.thefreelandstavern.com,Freelands Tavern,100000000000,E09000006,31 Freelands Road,,,Plaistow And Sundridge,E05000125,0.026045974836550648,540891.000122197,51.409742101188364,169860.00012149662,Bromley,Music venues (all),E09000006,11/27/2022
Bromley,www.goldsmithsarms.com,Goldsmiths Arms,100000000000,E09000006,3 Croydon Road,,,Penge And Cator,E05000123,-0.05042040865164809,535565.000122197,51.41278418640286,170054.00012159348,Bromley,Music venues (all),E09000006,11/27/2022
Bromley,http://www.bromleyarts.com/ripley-arts-centre/,Ripley Arts Center,0,E09000006,24 Sundridge Avenue Bromley,,,Plaistow And Sundridge,E05000125,0.023909638938108532,540734.0364991948,51.412482631830436,170160.6052850932,Bromley,Music venues (all),E09000006,11/27/2022
Bromley,www.sydneyarms.com,Sydney Arms,100000000000,E09000006,Old Perry Street ,,,Chislehurst,E05000111,0.08860180992777622,545226.0001222938,51.41438180725004,170498.00012139976,Bromley,Music venues (all),E09000006,11/27/2022
Bromley,www.thegrapeandgrainse19.co.uk,Grape & Grain,100000000000,E09000006,2 Anerley Hill,,,Crystal Palace,E05000116,-0.07627082866857796,533749.000122197,51.41916531445639,170716.00012159348,Bromley,Music venues (all),E09000006,11/27/2022
Bromley,,Crystal Palace Park ,,E09000006,42 Thicket Rd,,,Crystal Palace,E05000116,-0.07049999870447451,534146.866088897,51.42030000005863,170852.7135009989,Bromley,Outdoor spaces for cultural use,E09000006,11/27/2022
Bromley,http://www.europainternational.com,Europa International ,1.00023E+11,E09000006,Europa House, Meaford Way,,Penge and Cator,E05000123,-0.06077791988451839,534840.0001221001,51.41443104244718,170218.00012210011,Bromley,Prop and costume making,E09000006,11/27/2022
Bromley,,Bitter End Bar,,E09000006,139 Masons Hill,Bromley,,Bromley Town,E05000109,0.026833437505355034,540989.0001221001,51.395680009795896,168298.00012210011,Bromley,Pubs,E09000006,11/27/2022
Bromley,,Richmal Crompton,,E09000006,23 Westmoreland Place,Bromley,,Bromley Town,E05000109,0.017889537018804334,540356.0001221001,51.39924309155157,168677.00012210011,Bromley,Pubs,E09000006,11/27/2022
Bromley,,Partridge,,E09000006,194 High Street,Bromley,,Bromley Town,E05000109,0.015871392643457535,540199.0001221001,51.40468316095841,169278.00012210011,Bromley,Pubs,E09000006,11/27/2022
Bromley,,Bar Sport,,E09000006,196-198 High Street,Bromley,,Bromley Town,E05000109,0.015871392643457535,540199.0001221001,51.40468316095841,169278.00012210011,Bromley,Pubs,E09000006,11/27/2022
Bromley,,Havet,,E09000006,195-199 High Street,Bromley,,Bromley Town,E05000109,0.015479446656137432,540169.0001221001,51.405580298501384,169377.00012210011,Bromley,Pubs,E09000006,11/27/2022
Bromley,,Greyhound,,E09000006,205 High Street,Bromley,,Bromley Town,E05000109,0.014732883139538768,540116.0001221001,51.405934906336284,169415.00012210011,Bromley,Pubs,E09000006,11/27/2022
Bromley,,Star & Garter,,E09000006,227 High Street,Bromley,,Bromley Town,E05000109,0.014063290496619321,540068.0001221001,51.40640510662853,169466.00012210011,Bromley,Pubs,E09000006,11/27/2022
Bromley,,Swan & Mitre,,E09000006,260-262 High Street,Bromley,,Bromley Town,E05000109,0.013585933445957332,540035.0001221001,51.406341360514965,169458.00012210011,Bromley,Pubs,E09000006,11/27/2022
Bromley,,Metropolis,,E09000006,256A High Street,Bromley,,Bromley Town,E05000109,0.013585933445957332,540035.0001221001,51.406341360514965,169458.00012210011,Bromley,Pubs,E09000006,11/27/2022
Bromley,,Barrel & Horn,,E09000006,204-206 High Street,Bromley,,Bromley Town,E05000109,0.014984566036318854,540135.0001221001,51.40544490851622,169361.00012210011,Bromley,Pubs,E09000006,11/27/2022
Bromley,,O'Neill's,,E09000006,27-29 East St,Bromley,,Bromley Town,E05000109,0.017261384900337195,540291.0001221001,51.4062061847306,169450.00012210011,Bromley,Pubs,E09000006,11/27/2022
Bromley,,Railway Tavern,,E09000006,45 East Street,Bromley,,Bromley Town,E05000109,0.017808761208778782,540327.0001221001,51.406880294109605,169526.00012210011,Bromley,Pubs,E09000006,11/27/2022
Bromley,,Belgo,,E09000006,242 The Glades,Bromley,,Bickley,E05000106,0.03723196016794168,541689.0001221001,51.40320743180347,169155.00012210011,Bromley,Pubs,E09000006,11/27/2022
Bromley,,Lord Holmesdale,,E09000006,184 Homesdale Road,Bromley,,Bickley,E05000106,0.03657532046177706,541655.0001221001,51.39943241027952,168734.00012210011,Bromley,Pubs,E09000006,11/27/2022
Bromley,,Oak,,E09000006,206 Widmore Road,Bromley,,Bickley,E05000106,0.03570053319932007,541576.0001221001,51.40531164412234,169386.00012210011,Bromley,Pubs,E09000006,11/27/2022
Bromley,,Crown & Anchor,,E09000006,19 Park Road,Bromley,,Plaistow and Sundridge,E05000125,0.02323350961581886,540702.0001221001,51.407605186306895,169617.00012210011,Bromley,Pubs,E09000006,11/27/2022
Bromley,,Freelands Tavern,,E09000006,31 Freelands Road,Bromley,,Plaistow and Sundridge,E05000125,0.02620517879491853,540901.0001221001,51.41009010979857,169899.00012210011,Bromley,Pubs,E09000006,11/27/2022
Bromley,,White Horse,,E09000006,64 Palace Road,Bromley,,Plaistow and Sundridge,E05000125,0.022487677062997896,540648.0001221001,51.40830159874149,169693.00012210011,Bromley,Pubs,E09000006,11/27/2022
Bromley,,Anglesey Arms,,E09000006,90 Palace Road,Bromley,,Plaistow and Sundridge,E05000125,0.022487677062997896,540648.0001221001,51.40830159874149,169693.00012210011,Bromley,Pubs,E09000006,11/27/2022
Bromley,,Red Lion,,E09000006,10 North Road,Bromley,,Plaistow and Sundridge,E05000125,0.02347332546361428,540713.0001221001,51.4094537857575,169823.00012210011,Bromley,Pubs,E09000006,11/27/2022
Bromley,,Hop & Rye,,E09000006,54 London Road,Bromley,,Plaistow and Sundridge,E05000125,0.011361786920713894,539866.0001221001,51.411038390184494,169976.00012210011,Bromley,Pubs,E09000006,11/27/2022
Bromley,,Prince Frederick,,E09000006,31 Nichol Lane,Bromley,,Plaistow and Sundridge,E05000125,0.02089481285116273,540516.0001221001,51.41522739020383,170460.00012210011,Bromley,Pubs,E09000006,11/27/2022
Bromley,,Shortlands Tavern,,E09000006,5 Station Road,Bromley,,Bromley Town,E05000109,0.0057933203390936674,539499.0001221001,51.404406436164344,169228.00012210011,Bromley,Pubs,E09000006,11/27/2022
Bromley,,Greyhound,,E09000006,Commonside,Keston,,Bromley Common and Keston,E05000108,0.030175058863120555,541322.0001221001,51.363019132750246,164673.00012210011,Bromley,Pubs,E09000006,11/27/2022
Bromley,,Fox Inn,,E09000006,Heathfield Road,Keston,,Bromley Common and Keston,E05000108,0.028900150420438402,541240.0001221001,51.36082871144336,164427.00012210011,Bromley,Pubs,E09000006,11/27/2022
Bromley,,Crown Inn,,E09000006,Leaves Green Road,Keston,,Darwin,E05000117,0.03179451578491573,541501.0001221001,51.34150444613813,162284.00012210011,Bromley,Pubs,E09000006,11/27/2022
Bromley,,Kings Arms,,E09000006,Leaves Green Rd,Keston,,Darwin,E05000117,0.0312338200047999,541483.0001221001,51.3346697451018,161523.00012210011,Bromley,Pubs,E09000006,11/27/2022
Bromley,,New Inn,,E09000006,59 Station Approach,Hayes,,Hayes and Coney Hall,E05000119,0.012891721411469019,540081.0001221001,51.375468240681194,166024.00012210011,Bromley,Pubs,E09000006,11/27/2022
Bromley,,Real Ale Way,,E09000006,"55 Station Approach, Hayes",Hayes,,Hayes and Coney Hall,E05000119,0.013124866183456187,540096.0001221001,51.37586896035383,166069.00012210011,Bromley,Pubs,E09000006,11/27/2022
Bromley,,Pie & Pint Bar,,E09000006,6 Bourne Way,Hayes,,Hayes and Coney Hall,E05000119,0.008484778160294647,539774.0001221001,51.375579864549515,166028.00012210011,Bromley,Pubs,E09000006,11/27/2022
Bromley,,George,,E09000006,29 Hayes Street,Hayes,,Hayes and Coney Hall,E05000119,0.019903906894090224,540557.0001221001,51.379367814287534,166471.00012210011,Bromley,Pubs,E09000006,11/27/2022
Bromley,,Crooked Billet,,E09000006,286 Southborough Lane,Bromley,,Bromley Common and Keston,E05000108,0.058408912450172296,543205.0001221001,51.38934635578069,167655.00012210011,Bromley,Pubs,E09000006,11/27/2022
Bromley,,Chequers,,E09000006,177 Southborough Lane,Bromley,,Bickley,E05000106,0.046782110578528185,542395.0001221001,51.38972995716179,167675.00012210011,Bromley,Pubs,E09000006,11/27/2022
Bromley,,Two Doves,,E09000006,37 Oakley Road Kent,Bromley Common,Bromley,Bromley Common and Keston,E05000108,0.04125429542848265,542066.0001221001,51.371793544952524,165670.00012210011,Bromley,Pubs,E09000006,11/27/2022
Bromley,,Bird in Hand,,E09000006,62 Gravel Road,Bromley Common,Bromley,Bromley Common and Keston,E05000108,0.044263170227384366,542269.0001221001,51.37385465046774,165905.00012210011,Bromley,Pubs,E09000006,11/27/2022
Bromley,,Bricklayers Arms,,E09000006,141-143 Masons Hill,Bromley,,Bromley Town,E05000109,0.027217012822397905,541017.0001221001,51.395250659212586,168251.00012210011,Bromley,Pubs,E09000006,11/27/2022
Bromley,,Crown of Bromley,,E09000006,14 Masons Hill,Bromley,,Bromley Town,E05000109,0.026966495176193376,541001.0001221001,51.39478731059805,168199.00012210011,Bromley,Pubs,E09000006,11/27/2022
Bromley,,Chatterton Arms,,E09000006,41 Chatterton Road,Bromley Common,Bromley,Bromley Common and Keston,E05000108,0.03663664194437226,541681.0001221001,51.39239809788691,167952.00012210011,Bromley,Pubs,E09000006,11/27/2022
Bromley,,Crown,,E09000006,155 Bromley Common,Bromley Common,Bromley,Bromley Common and Keston,E05000108,0.03618252986705559,541657.0001221001,51.38994165575818,167678.00012210011,Bromley,Pubs,E09000006,11/27/2022
Bromley,,George Inn,,E09000006,111 High Street,Beckenham,,Copers Cope,E05000113,-0.026098217639805268,537275.0001221001,51.40647702203658,169398.00012210011,Bromley,Pubs,E09000006,11/27/2022
Bromley,,White Horse,,E09000006,215 High Street,Beckenham,,Copers Cope,E05000113,-0.02861168065832112,537102.0001221001,51.40588077804349,169327.00012210011,Bromley,Pubs,E09000006,11/27/2022
Bromley,,Kelsey House,,E09000006,75 High Street,Beckenham,,Copers Cope,E05000113,-0.02436532947849697,537394.0001221001,51.40697845102758,169457.00012210011,Bromley,Pubs,E09000006,11/27/2022
Bromley,,O'Neill's,,E09000006,9 High Street,Beckenham,,Copers Cope,E05000113,-0.023540287698094964,537442.0001221001,51.41010338334113,169806.00012210011,Bromley,Pubs,E09000006,11/27/2022
Bromley,,Patrick's Bar,,E09000006,5 High Street,Beckenham,,Copers Cope,E05000113,-0.023540287698094964,537442.0001221001,51.41010338334113,169806.00012210011,Bromley,Pubs,E09000006,11/27/2022
Bromley,,Bricklayers Arms,,E09000006,237 High Street,Beckenham,,Copers Cope,E05000113,-0.030212220163407855,536990.0001221001,51.40611455546696,169350.00012210011,Bromley,Pubs,E09000006,11/27/2022
Bromley,,Slug & Lettuce,,E09000006,150-156 High Street,Beckenham,,Copers Cope,E05000113,-0.025475747007425498,537316.0001221001,51.40724000296133,169484.00012210011,Bromley,Pubs,E09000006,11/27/2022
Bromley,,Eden Park,,E09000006,422 Upper Elmers End Road,Eden Park,Beckenham,Kelsey and Eden Park,E05000120,-0.025334713488768593,537380.0001221001,51.38915100815641,167473.00012210011,Bromley,Pubs,E09000006,11/27/2022
Bromley,,Coach & Horses,,E09000006,Burnhill Road,Beckenham,,Kelsey and Eden Park,E05000120,-0.024737252749806565,537372.0001221001,51.40568960989483,169313.00012210011,Bromley,Pubs,E09000006,11/27/2022
Bromley,,Club Langley,,E09000006,2 Hawksbrook Lane,Eden Park,Beckenham,Kelsey and Eden Park,E05000120,-0.020896804511519707,537692.0001221001,51.38805981203122,167360.00012210011,Bromley,Pubs,E09000006,11/27/2022
Bromley,,Elm Tree,,E09000006,116 Croydon Road,Elmers End,Beckenham,Clock House,E05000112,-0.043532482839179265,536087.0001221001,51.398270286470044,168453.00012210011,Bromley,Pubs,E09000006,11/27/2022
Bromley,,Chancery,,E09000006,90 Bromley Road,Beckenham,,Copers Cope,E05000113,-0.016409375686100715,537949.0001221001,51.40639433582788,169407.00012210011,Bromley,Pubs,E09000006,11/27/2022
Bromley,,Jolly Woodman,,E09000006,9 Chancery Lane,Beckenham,,Copers Cope,E05000113,-0.01705565045887548,537905.0001221001,51.40608149714292,169371.00012210011,Bromley,Pubs,E09000006,11/27/2022
Bromley,,Railway Hotel,,E09000006,"Red Lodge Road,",West Wickham,,West Wickham,E05000127,-0.011556387821474405,538367.0001221001,51.37969922361342,166448.00012210011,Bromley,Pubs,E09000006,11/27/2022
Bromley,,Wheatsheaf,,E09000006,135 High Street,West Wickham,,West Wickham,E05000127,-0.019521943941998552,537823.0001221001,51.37629058068045,166054.00012210011,Bromley,Pubs,E09000006,11/27/2022
Bromley,,Swan,,E09000006,2-4 High Street,West Wickham,,West Wickham,E05000127,-0.014535811400837715,538172.0001221001,51.37561257512144,165988.00012210011,Bromley,Pubs,E09000006,11/27/2022
Bromley,,Coney,,E09000006,35 Croydon Road,Coney Hall,,Hayes and Coney Hall,E05000119,0.003614600054790382,539453.0001221001,51.36969131371426,165364.00012210011,Bromley,Pubs,E09000006,11/27/2022
Bromley,,Sovereign of the Seas,,E09000006,109-111 Queensway,Petts Wood,Orpington,Petts Wood and Knoll,E05000124,0.07344332775513626,544252.0001221001,51.38898227913842,167644.00012210011,Bromley,Pubs,E09000006,11/27/2022
Bromley,,One Inn The Wood,,E09000006,209 Petts Wood Road,Petts Wood,Orpington,Petts Wood and Knoll,E05000124,0.07553935034173109,544396.0001221001,51.38955675132832,167712.00012210011,Bromley,Pubs,E09000006,11/27/2022
Bromley,,Daylight Inn,,E09000006,Station Square,Petts Wood,Orpington,Petts Wood and Knoll,E05000124,0.07678447226481849,544486.0001221001,51.38848238814635,167595.00012210011,Bromley,Pubs,E09000006,11/27/2022
Bromley,,Bull Inn,,E09000006,Main Road,St Paul's Cray,Orpington,Cray Valley East,E05000114,0.11931874965199797,547397.0001221001,51.40337918221182,169336.00012210011,Bromley,Pubs,E09000006,11/27/2022
Bromley,,White Swan,,E09000006,21 Kent Road,St Mary Cray,Orpington,Cray Valley East,E05000114,0.11396579938946996,547081.0001221001,51.38583862049756,167375.00012210011,Bromley,Pubs,E09000006,11/27/2022
Bromley,,Beech Tree,,E09000006,75 Wellington Road,St Mary Cray,Orpington,Cray Valley East,E05000114,0.11284407088011683,547008.0001221001,51.384266915031716,167198.00012210011,Bromley,Pubs,E09000006,11/27/2022
Bromley,,Cricketers,,E09000006,93 Chislehurst Road,Orpington,,Petts Wood and Knoll,E05000124,0.10202568473757007,546266.0001221001,51.38092689939258,166805.00012210011,Bromley,Pubs,E09000006,11/27/2022
Bromley,,White Hart,,E09000006,106 High St,Orpington,,Petts Wood and Knoll,E05000124,0.10410760437299825,546417.0001221001,51.37900077437545,166595.00012210011,Bromley,Pubs,E09000006,11/27/2022
Bromley,,Harvest Moon,,E09000006,141-143 High Street,Orpington,,Orpington,E05000122,0.10300974892429333,546346.0001221001,51.377311625140244,166405.00012210011,Bromley,Pubs,E09000006,11/27/2022
Bromley,,Maxwell,,E09000006,Station Road,Orpington,,Orpington,E05000122,0.09624280328015261,545892.0001221001,51.37200952863262,165802.00012210011,Bromley,Pubs,E09000006,11/27/2022
Bromley,,Royal Oak,,E09000006,High Street,Green St Green,Orpington,Chelsfield and Pratts Bottom,E05000110,0.09077053197409987,545578.0001221001,51.35093538129413,163448.00012210011,Bromley,Pubs,E09000006,11/27/2022
Bromley,,Queen's Head,,E09000006,73 High Street,Green St Green,Orpington,Chelsfield and Pratts Bottom,E05000110,0.09083723203920287,545578.0001221001,51.35240022027035,163611.00012210011,Bromley,Pubs,E09000006,11/27/2022
Bromley,,Rose & Crown,,E09000006,Farnborough Way,Green St Green,Orpington,Darwin,E05000117,0.08981198510257535,545515.0001221001,51.34975628231271,163315.00012210011,Bromley,Pubs,E09000006,11/27/2022
Bromley,,Chelsfield,,E09000006,1 Windsor Drive,Chelsfield,Orpington,Chelsfield and Pratts Bottom,E05000110,0.10692341896719293,546687.0001221001,51.35581746890152,164023.00012210011,Bromley,Pubs,E09000006,11/27/2022
Bromley,,Woodman,,E09000006,50 High Street,Farnborough,Orpington,Farnborough and Crofton,E05000118,0.07157191937227897,544217.0001221001,51.35868763965581,164272.00012210011,Bromley,Pubs,E09000006,11/27/2022
Bromley,,Change of Horses,,E09000006,87 High Street,Farnborough,Orpington,Farnborough and Crofton,E05000118,0.06931610832905291,544059.0001221001,51.35899733969604,164302.00012210011,Bromley,Pubs,E09000006,11/27/2022
Bromley,,Bulls Head,,E09000006,Rushmore Hill,Pratts Bottom,Orpington,Chelsfield and Pratts Bottom,E05000110,0.11337424201032666,547188.0001221001,51.339610822967266,162234.00012210011,Bromley,Pubs,E09000006,11/27/2022
Bromley,,Bo Peep,,E09000006,Hewitts Road,Chelsfield,Orpington,Chelsfield and Pratts Bottom,E05000110,0.13912036339644152,548948.0001221001,51.34976536999182,163415.00012210011,Bromley,Pubs,E09000006,11/27/2022
Bromley,,Five Bells,,E09000006,Church Road,Chelsfield,Orpington,Chelsfield and Pratts Bottom,E05000110,0.12909234658657157,548228.0001221001,51.356522803866405,164146.00012210011,Bromley,Pubs,E09000006,11/27/2022
Bromley,,Queen's Head,,E09000006,25 High Street,Downe,Orpington,Darwin,E05000117,0.05546363595096598,543166.0001221001,51.336126674774896,161732.00012210011,Bromley,Pubs,E09000006,11/27/2022
Bromley,,George & Dragon,,E09000006,26 High Street,Downe,Orpington,Darwin,E05000117,0.05531400656886926,543157.0001221001,51.33567060597587,161681.00012210011,Bromley,Pubs,E09000006,11/27/2022
Bromley,,Whyte Lyon (Ye Olde),,E09000006,Farnborough Common,Locksbottom,Orpington,Farnborough and Crofton,E05000118,0.058827099260945724,543315.0001221001,51.36343635913838,164775.00012210011,Bromley,Pubs,E09000006,11/27/2022
Bromley,,British Queen,,E09000006,427 Crofton Road,Locksbottom,Orpington,Farnborough and Crofton,E05000118,0.05613373787722958,543119.0001221001,51.36617287607937,165074.00012210011,Bromley,Pubs,E09000006,11/27/2022
Bromley,,Black Horse,,E09000006,318 Crofton Road,Locksbottom,Orpington,Farnborough and Crofton,E05000118,0.058315104082338996,543266.0001221001,51.3677175028892,165250.00012210011,Bromley,Pubs,E09000006,11/27/2022
Bromley,,Buff,,E09000006,Pinewood Drive,Orpington,,Chelsfield and Pratts Bottom,E05000110,0.0882743270100575,545381.0001221001,51.358265093657785,164258.00012210011,Bromley,Pubs,E09000006,11/27/2022
Bromley,,Queens Head,,E09000006,2 High Street,Chislehurst,,Chislehurst,E05000111,0.06947660157373575,543886.0001221001,51.4176621845578,170825.00012210011,Bromley,Pubs,E09000006,11/27/2022
Bromley,,Gordon Arms,,E09000006,47 Park Road,Chislehurst,,Chislehurst,E05000111,0.07022310024646138,543935.0001221001,51.4185843665651,170929.00012210011,Bromley,Pubs,E09000006,11/27/2022
Bromley,,Imperial Arms,,E09000006,Old Hill,Chislehurst,,Chislehurst,E05000111,0.06240715129695871,543424.0001221001,51.40824427176035,169764.00012210011,Bromley,Pubs,E09000006,11/27/2022
Bromley,,Rambler's Rest,,E09000006,Mill Place,Chislehurst,,Chislehurst,E05000111,0.06356907939334942,543505.0001221001,51.40817884291488,169759.00012210011,Bromley,Pubs,E09000006,11/27/2022
Bromley,,Bickley,,E09000006,Chislehurst Road,Chislehurst,,Chislehurst,E05000111,0.057425447554757265,543081.0001221001,51.40715365353225,169633.00012210011,Bromley,Pubs,E09000006,11/27/2022
Bromley,,Tigers Head,,E09000006,Watts Lane,Chislehurst,,Chislehurst,E05000111,0.07060813593156609,543992.0001221001,51.40896304158773,169860.00012210011,Bromley,Pubs,E09000006,11/27/2022
Bromley,,Crown Inn,,E09000006,School Road,Chislehurst,,Chislehurst,E05000111,0.07455811944973434,544263.0001221001,51.41012533834553,169997.00012210011,Bromley,Pubs,E09000006,11/27/2022
Bromley,,Bull's Head Hotel,,E09000006,Royal Parade,Chislehurst,,Chislehurst,E05000111,0.07697361060866507,544428.0001221001,51.41106288427042,170106.00012210011,Bromley,Pubs,E09000006,11/27/2022
Bromley,,Sydney Arms,,E09000006,Old Perry Street,Chislehurst,,Chislehurst,E05000111,0.08829301093517519,545204.0001221001,51.41454920275529,170516.00012210011,Bromley,Pubs,E09000006,11/27/2022
Bromley,,Alma,,E09000006,95 Church Rd,Crystal Palace,London,Crystal Palace,E05000116,-0.07898916507751788,533566.0001221001,51.417114365443204,170483.00012210011,Bromley,Pubs,E09000006,11/27/2022
Bromley,,Crooked Billet,,E09000006,99 High Street,Penge,London,Penge and Cator,E05000123,-0.05141064318328418,535489.0001221001,51.4152020003541,170321.00012210011,Bromley,Pubs,E09000006,11/27/2022
Bromley,,Pawleyne Arms,,E09000006,156 High Street,Penge,London,Penge and Cator,E05000123,-0.05054408805938274,535554.0001221001,51.41359568551718,170144.00012210011,Bromley,Pubs,E09000006,11/27/2022
Bromley,,Brewery Tap,,E09000006,21 Southey Street,Penge,London,Penge and Cator,E05000123,-0.05074336904891637,535535.0001221001,51.415334802440015,170337.00012210011,Bromley,Pubs,E09000006,11/27/2022
Bromley,,Alexandra,,E09000006,163 Parish Lane,Penge,London,Penge and Cator,E05000123,-0.04802401766239579,535723.0001221001,51.415694253757415,170382.00012210011,Bromley,Pubs,E09000006,11/27/2022
Bromley,,Moon & Stars,,E09000006,164-166 High Street,Penge,London,Penge and Cator,E05000123,-0.04893484395610063,535671.0001221001,51.41186907351073,169955.00012210011,Bromley,Pubs,E09000006,11/27/2022
Bromley,,Goldsmiths Arms,,E09000006,"3 Croydon Road,",Penge,London,Penge and Cator,E05000123,-0.051011735194170675,535525.0001221001,51.412407290668,170011.00012210011,Bromley,Pubs,E09000006,11/27/2022
Bromley,,Graces (Bar & Grill),,E09000006,1-3 Witham Rd,Birkbeck,Penge,Clock House,E05000112,-0.0552343388479892,535258.0001221001,51.40339371954058,169001.00012210011,Bromley,Pubs,E09000006,11/27/2022
Bromley,,Anerley Arms,,E09000006,2 Ridsdale Road,Anerley,London,Crystal Palace,E05000116,-0.06473461225342679,534572.0001221001,51.41201417639426,169942.00012210011,Bromley,Pubs,E09000006,11/27/2022
Bromley,,Douglas Fir,,E09000006,144 Anerley Rd,Anerley,London,Crystal Palace,E05000116,-0.06975529465741087,534216.0001221001,51.41437241627028,170195.00012210011,Bromley,Pubs,E09000006,11/27/2022
Bromley,,Maple Tree,,E09000006,52-54 Maple Road,Penge,London,Penge and Cator,E05000123,-0.056983467355104477,535114.0001221001,51.41097752593411,169841.00012210011,Bromley,Pubs,E09000006,11/27/2022
Bromley,,Bridge House,,E09000006,2 High Street,Penge,London,Crystal Palace,E05000116,-0.05903528582778709,534952.0001221001,51.41754101779504,170567.00012210011,Bromley,Pubs,E09000006,11/27/2022
Bromley,,Prince of Wales,,E09000006,154 Mottingham Road,Mottingham,London,Mottingham and Chislehurst North,E05000121,0.04932266498751474,542437.0001221001,51.433054204614045,172497.00012210011,Bromley,Pubs,E09000006,11/27/2022
Bromley,,Blacksmith's Arms,,E09000006,Cudham Lane South,Cudham,Sevenoaks,Darwin,E05000117,0.07569922708145556,544635.0001221001,51.31715200307299,159662.00012210011,Bromley,Pubs,E09000006,11/27/2022
Bromley,,Aperfield Inn,,E09000006,311 Main Road,Biggin Hill,Westerham,Darwin,E05000117,0.05358697229062535,543144.0001221001,51.3011997462514,157845.00012210011,Bromley,Pubs,E09000006,11/27/2022
Bromley,,Old Jail,,E09000006,Jail Lane,Biggin Hill,Westerham,Darwin,E05000117,0.05391481353013265,543126.0001221001,51.314325323445836,159305.00012210011,Bromley,Pubs,E09000006,11/27/2022
Bromley,,Black Horse,,E09000006,123 Main Road,Biggin Hill,Westerham,Biggin Hill,E05000107,0.035268808629060996,541826.0001221001,51.314579002620356,159297.00012210011,Bromley,Pubs,E09000006,11/27/2022
Bromley,,Flying Machine,,E09000006,Kings Road,Biggin Hill,Westerham,Biggin Hill,E05000107,0.02781848027753242,541319.0001221001,51.310633990824016,158844.00012210011,Bromley,Pubs,E09000006,11/27/2022
Bromley,http://www.madesignstudios.com,Simon Morris Associates Limited,100000000000,E09000006,Ravensquay Business Centre  Cray Avenue,,,Cray Valley East,E05000114,0.11034520793628151,546822.0001221001,51.388062470290585,167615.00012210011,Bromley,Set and exhibition building,E09000006,11/27/2022
Bromley,,Biggin-Hill,0,E09000006,,,,Biggin Hill,E05000107,0.039015280274133576,542092.0220946968,51.31296851755185,159125.18670649827,Bromley,Skate Parks,E09000006,11/27/2022
Bromley,,Bromley,0,E09000006,,,,Bromley Town,E05000109,0.01425812350286098,540095.4237060994,51.40186519044199,168961.59429929405,Bromley,Skate Parks,E09000006,11/27/2022
Bromley,http://www.amwadesigns.com/,AMWA Designs,100020443503,E09000006,68 Stembridge Road,,,Clock House,E05000112,-0.06105315857544574,534853.0001221001,51.40350814751952,169003.00012210011,Bromley,Textile design,E09000006,11/27/2022
Bromley,https://www.bhtheatre.com/,Bridge House Theatre,100020000000,E09000006,2 High St,NA,NA,Crystal Palace,E05000116,-0.0622302193400366,534615.1075073112,51.418584057898876,170732.03551028605,Bromley,Theatres,E09000006,11/27/2022
Bromley,https://churchilltheatre.co.uk/,Churchill Theatre,100023000000,E09000006,High Street, Bromley,NA,Bromley Town,E05000109,0.01285566471615541,539878.1178915557,51.40428911545257,169283.56985983287,Bromley,Theatres,E09000006,11/27/2022
Bromley,http://bromleylittletheatre.org/,Bromley Little Theatre,100023000000,E09000006,North Street, Bromley,NA,Bromley Town,E05000109,0.01363249810803662,539920.1437694824,51.4082146673247,169721.47174865444,Bromley,Theatres,E09000006,11/27/2022
Bromley,https://theatre62.wordpress.com/,Theatre 62,100023000000,E09000006,Wickham Theatre Centre, Corkscrew Hill, West Wickham,West Wickham,E05000127,-0.011943755453455543,538246.9306337587,51.3734225856746,165804.99202744866,Bromley,Theatres,E09000006,11/27/2022
