borough_name,website,site_name,os_addressbase_uprn,borough_code,address1,address2,address3,ward_2018_name,ward_2018_code,longitude,easting,latitude,northing,BOROUGH,Cultural Venue Type,gss_code,runtime
Tower Hamlets,https://blog.hrp.org.uk/archive/,Historic Royal Palaces Architectural Drawings Archive,6086565,E09000030,Waterloo Block HM Tower of London,,,St. Katharine's & Wapping,E05009330,-0.07624551384551244,533378.8481400628,51.50827522899562,180678.10078296077,City of London,Archives,E09000001,11/27/2022
Tower Hamlets,https://royalarmouries.org/,"Royal Armouries Library, Tower of London",6086565,E09000030,The Library,Royal Armouries,HM Tower of London,St. Katharine's & Wapping,E05009330,-0.07624551384551244,533378.8481400628,51.50827522899562,180678.10078296077,City of London,Archives,E09000001,11/27/2022
Tower Hamlets,https://www.bartshealth.nhs.uk/the-royal-london-hospital-museum-and-archives,Royal London Hospital Archives,6086730,E09000030,Royal London Hospital Archives, 9 Prescot Street,,Whitechapel,E05009336,-0.07041242640004805,533773.7728341245,51.51160554779249,181059.00707694312,City of London,Archives,E09000001,11/27/2022
Tower Hamlets,https://www.rcpsych.ac.uk/,Royal College of Psychiatrists,6193878,E09000030,21 Prescot Street,,,Whitechapel,E05009336,-0.07109835506890998,533726.7422412409,51.511416482973054,181036.7335189351,City of London,Archives,E09000001,11/27/2022
City and County of th,https://www.baringarchive.org.uk/,Baring Archive,95512518,E09000001,8-10 Moorgate,,,Broad Street,E05009295,-0.08922629221024543,532457.2586765247,51.515516990930195,181459.64550480508,City of London,Archives,E09000001,11/27/2022
City and County of th,,Employment Policy Institute,95500292,E09000001,Beaufort House ,15 St Botolph Street,,Portsoken,E05009308,-0.07588712169359235,533383.861428427,51.51506783327342,181433.9448269448,City of London,Archives,E09000001,11/27/2022
City and County of th,https://www.prudential.co.uk/about-us/our-history/our-archives,Prudential Group Archives,95503633,E09000001,Prudential plc Laurence Pountney Hill,,,Dowgate,E05009303,-0.08904024058696591,532485.0434655742,51.51039098106976,180890.07624471904,City of London,Archives,E09000001,11/27/2022
City and County of th,https://www.sbf.org.uk/,St Bride Library,95511226,E09000001,St Bride Institute ,Bride Lane ,Fleet Street,Castle Baynard,E05009297,-0.10502349280047492,531367.2944332145,51.51349204783571,181206.01379450312,City of London,Archives,E09000001,11/27/2022
City and County of th,https://www.rothschildarchive.org/,The Rothschild Archive,95511233,E09000001,New Court ,St Swithin's Lane,,Walbrook,E05009312,-0.08903173539661931,532480.0479981588,51.51231528689345,181104.0345846496,City of London,Archives,E09000001,11/27/2022
City and County of th,https://www.apothecaries.org/,Worshipful Society of Apothecaries,95511244,E09000001,Apothecaries' Hall ,Blackfriars Lane,,Farringdon Within,E05009304,-0.10288661886062263,531517.2600624943,51.51289096433619,181143.0277393532,City of London,Archives,E09000001,11/27/2022
City and County of th,http://www.carpentersco.com/,Carpenters Company,95511248,E09000001,Carpenters Hall ,Throgmorton Avenue,,Broad Street,E05009295,-0.08593668491623555,532682.0123228506,51.51669821477163,181596.93537830457,City of London,Archives,E09000001,11/27/2022
City and County of th,https://www.clothworkers.co.uk/,Clothworkers Company,95511249,E09000001,Clothworkers' Hall ,Dunster Court ,Mincing Lane,Tower,E05009310,-0.08113809363590549,533029.9277501749,51.51152987376919,181031.04153595428,City of London,Archives,E09000001,11/27/2022
City and County of th,https://www.thedrapers.co.uk/,Drapers' Company,95511252,E09000001,Drapers' Hall ,Throgmorton Avenue,,Broad Street,E05009295,-0.08635820016902822,532657.0149305894,51.51523928335491,181433.96824457962,City of London,Archives,E09000001,11/27/2022
City and County of th,https://www.mercers.co.uk/archive,Mercers' Company Archives,95511261,E09000001,Mercers' Hall ,Ironmonger Lane,,Cheap,E05009298,-0.09173585283533456,532287.0932313561,51.51416686408574,181304.99712638173,City of London,Archives,E09000001,11/27/2022
City and County of th,https://www.saddlersco.co.uk/,Saddlers Company,95511266,E09000001,Saddlers Hall ,40 Gutter Lane,,Cheap,E05009298,-0.09559725867593341,532017.152940331,51.51488611375831,181377.98603178962,City of London,Archives,E09000001,11/27/2022
City and County of th,https://www.ncsyes.co.uk/?gclid=EAIaIQobChMI3NOB97zo3gIVZJJbCh2ijwJVEAAYASAAEgJzafD_BwE&gclsrc=aw.ds,National Association of Citizens Advice Bureaux,95511288,E09000001,Citizens Advice 3rd Floor North 200 Aldersgate Street,,,Aldersgate,E05009288,-0.09750730842223782,531877.1871094138,51.51747106555315,181661.93485179462,City of London,Archives,E09000001,11/27/2022
City and County of th,https://leathersellers.co.uk/,Leathersellers Company,95513684,E09000001,15 St Helen's Place,,,Lime Street,E05009307,-0.08154356868509867,532991.6730829879,51.51500491004278,181416.6542505289,City of London,Archives,E09000001,11/27/2022
City and County of th,https://www.lloydsbankinggroup.com/our-group/our-heritage/our-archives/,Lloyds Banking Group Archives (London),100023000000,E09000001,7th floor 155 Bishopsgate,,,Bishopsgate,E05009292,-0.08006971146811354,533082.9318205079,51.518769485866386,181837.87395334564,City of London,Archives,E09000001,11/27/2022
City and County of th,http://www.bishopsgate.org.uk/,Bishopsgate Institute,100023000000,E09000001,230 Bishopsgate,,,Bishopsgate,E05009292,-0.07925055940497212,533139.9198344832,51.51871109863439,181832.8726056078,City of London,Archives,E09000001,11/27/2022
City and County of th,http://www.cityoflondonclub.com/,City of London Club,100023000000,E09000001,19 Old Broad Street,,,Cornhill,E05009301,-0.08468246032841201,532773.9891752631,51.51498710217885,181408.97170970525,City of London,Archives,E09000001,11/27/2022
City and County of th,https://archiveshub.jisc.ac.uk/contributors/schroderarchive.html,Schroder Archive,100023000000,E09000001,31 Gresham Street,,,Bassishaw,E05009290,-0.09519029768411726,532042.1492120276,51.51600359776056,181502.9624697151,City of London,Archives,E09000001,11/27/2022
City and County of th,https://www.balticexchange.com/,Baltic Exchange,100023000000,E09000001,38 St Mary Axe,,,Aldgate,E05009289,-0.0801860503000319,533085.9233677441,51.51497647272873,181415.9605784908,City of London,Archives,E09000001,11/27/2022
City and County of th,https://www.lloydsbank.com/,Lloyd's,100023000000,E09000001,One Lime Street,,,Lime Street,E05009307,-0.0822575105225365,532947.9481483644,51.51301401025989,181194.01088772505,City of London,Archives,E09000001,11/27/2022
City and County of th,http://www.drjohnsonshouse.org/,Dr Johnson's House,100023000000,E09000001,17 Gough Square,,,Castle Baynard,E05009297,-0.10815906729427995,531145.3464115488,51.515035457395136,181371.97984870075,City of London,Archives,E09000001,11/27/2022
City and County of th,https://www.cityoflondonschool.org.uk/,City of London School,100023000000,E09000001,William Hallet Archive Room City of London School Library ,Queen Victoria Street,,Queenhithe,E05009309,-0.09936120585248388,531767.2021224466,51.51102633465999,180942.0667546474,City of London,Archives,E09000001,11/27/2022
City and County of th,https://www.college-of-arms.gov.uk/,College of Arms,100024000000,E09000001,Queen Victoria Street,,,Castle Baynard,E05009297,-0.09867661410429898,531811.1940433959,51.51223825494152,181078.04248695978,City of London,Archives,E09000001,11/27/2022
City and County of th,https://www.cityoflondon.police.uk/about-us/history/museum/Pages/default.aspx,City of London Police Museum,100024000000,E09000001,Police Headquarters ,37 Wood St,,Bassishaw,E05009290,-0.09374985518968856,532140.1291432361,51.51667262923099,181579.94648487837,City of London,Archives,E09000001,11/27/2022
City and County of th,https://www.caabu.org/,Council for the Advancement of Arab-British Understanding,100024000000,E09000001,1 Gough Square,,,Castle Baynard,E05009297,-0.10805377440149894,531152.3450016562,51.515141672618526,181383.9778039602,City of London,Archives,E09000001,11/27/2022
City and County of th,https://www.missiontoseafarers.org/,Mission to Seafarers,200000000000,E09000001,St Michael Paternoster ,Royal College Hill,,Dowgate,E05009303,-0.09200460642316904,532277.0904670389,51.51118564659832,180973.06054756994,City of London,Archives,E09000001,11/27/2022
City and County of th,https://www.museumoflondon.org.uk/collections,Museum of London Library,200000000000,E09000001,150 London Wall,,,Aldersgate,E05009288,-0.09606669492678842,531976.1663461706,51.51779839658581,181700.92579484108,City of London,Archives,E09000001,11/27/2022
City and County of th,https://www.bankofengland.co.uk/archive,Bank of England Archive,200000000000,E09000001,Threadneedle Street,,,Walbrook,E05009312,-0.08862182915907171,532503.0463601339,51.514188086001454,181312.99364348972,City of London,Archives,E09000001,11/27/2022
City and County of th,https://stationers.org/,Stationers Company,200000000000,E09000001,Stationers' Hall Ave ,Maria Lane,,Farringdon Within,E05009304,-0.10150290483227077,531609.2413775867,51.514280446102156,181300.0010988706,City of London,Archives,E09000001,11/27/2022
City and County of th,https://www.icaew.com/,Institute of Chartered Accountants in England and Wales,200000000000,E09000001,Chartered Accountants' Hall ,Moorgate Place,,Coleman Street,E05009299,-0.08824116817564889,532523.0460501169,51.516394089801295,181558.9451897159,City of London,Archives,E09000001,11/27/2022
City and County of th,https://www.bartshealth.nhs.uk/st-bartholomews-museum-and-archives,St Bartholomew's Hospital Archives,200000000000,E09000001,North Wing St Bartholomew's Hospital,West Smithfield,,Farringdon Without,E05009305,-0.10037837821702664,531677.23125123,51.51775143017796,181687.9306499181,City of London,Archives,E09000001,11/27/2022
City and County of th,http://barberscompany.org/,Barbers Company,200000000000,E09000001,Barber-Surgeons' Hall ,1 Monkwell Square, Wood Street ,Cripplegate,E05009302,-0.09460175552164257,532077.1449911341,51.51801740150455,181727.91891762242,City of London,Archives,E09000001,11/27/2022
City and County of th,http://www.lrfoundation.org.uk/public_education/HEC-Blogs/,Lloyd's Register Foundation Heritage & Education Centre,200000000000,E09000001,71 Fenchurch Street,,,Aldgate,E05009289,-0.0787334229524479,533193.8956308415,51.51250664913171,181144.0120299901,City of London,Archives,E09000001,11/27/2022
City and County of th,https://www.rtpi.org.uk/,National Council for Housing and Planning,200000000000,E09000001,41 Botolph Lane,,,Bridge,E05009294,-0.08446052938441584,532802.9736276389,51.510316258765066,180890.07552460273,City of London,Archives,E09000001,11/27/2022
City and County of th,https://www.rtpi.org.uk/,Royal Town Planning Institute,200000000000,E09000001,41 Botolph Lane,,,Bridge,E05009294,-0.08446052938441584,532802.9736276389,51.510316258765066,180890.07552460273,City of London,Archives,E09000001,11/27/2022
City and County of th,https://www.salters.co.uk/,Salters Company,200000000000,E09000001,Salters' Hall ,4 Fore Street,,Bassishaw,E05009290,-0.09220015630257623,532243.1096666175,51.51823014264285,181755.9106633737,City of London,Archives,E09000001,11/27/2022
City and County of th,https://www.stpauls.co.uk/history-collections/the-collections/architectural-archive,"St Paul's Cathedral, Architectural Archive",200000000000,E09000001,Chapter House St Paul's Churchyard,,,Bread Street,E05009293,-0.09902297567465371,531781.2034529743,51.5143032165026,181307.0008046243,City of London,Archives,E09000001,11/27/2022
City and County of th,https://www.thegoldsmiths.co.uk/,Goldsmiths Company,200000000000,E09000001,Goldsmith's Hall ,Foster Lane,,Cheap,E05009298,-0.09577131125369295,532002.1576904509,51.51589612954544,181489.96541209362,City of London,Archives,E09000001,11/27/2022
City and County of th,https://www.redcross.org.uk/about-us/our-history/museum-and-archives,British Red Cross Museum and Archives,200000000000,E09000001,UK Office ,44 Moorfields,,Coleman Street,E05009299,-0.08858642989842232,532491.2878969825,51.519083592843316,181857.3362005233,City of London,Archives,E09000001,11/27/2022
City and County of th,http://www.fishhall.org.uk/,Fishmongers Company,200000000000,E09000001,Fishmongers Hall, London Bridge,,Bridge,E05009294,-0.08754143721728919,532592.0180490727,51.509359362914005,180778.09823851974,City of London,Archives,E09000001,11/27/2022
City and County of th,http://www.allhallowsbythetower.org.uk/,All Hallows by the Tower,200000000000,E09000001,All Hallows Church ,Byward Street,,Tower,E05009310,-0.07918415574116289,533171.8935047484,51.50933061865676,180790.08546827332,City of London,Archives,E09000001,11/27/2022
City and County of the City of London,https://www.barbican.org.uk/,The Barbican ,200000072615,E09000001,Silk St,,,Cripplegate,E05009302,-0.094102588661412,532106.1421189584,51.51996070862563,181944.87633179902,City of London,Arts centres,E09000001,11/27/2022
City and County of the City of London,,Barbican Centre,200000072615,E09000001,,Silk Street,,Cripplegate,E05009302,-0.09251783735356144,532329.0001221001,51.51944947796296,181837.00012210011,City of London,Cinemas,E09000001,11/27/2022
City and County of the City of London,http://www.bankofengland.co.uk/education/Pages/museum/visiting/default.aspx#,Bank of England Museum,95511162,E09000001,Bartholomew Lane,NA,NA,Walbrook,E05009312,-0.08611216324620276,532790.0001221001,51.51372410896053,181212.00012210011,City of London,Commercial galleries,E09000001,11/27/2022
City and County of the City of London,http://www.carterlanegallery.com/#,Carter Lane Gallery,95514285,E09000001,49 Carter Lane,NA,NA,Castle Baynard,E05009297,-0.09877845272173807,531915.0001221001,51.51242821159213,181045.00012210011,City of London,Commercial galleries,E09000001,11/27/2022
City and County of the City of London,http://www.exhibit-goldenlane.com/#,EXHIBIT at Golden Lane Estate,200000072012,E09000001,20 Goswell Road,NA,NA,Cripplegate,E05009302,-0.09577322767034234,532096.0001221001,51.5219306514311,182107.00012210011,City of London,Commercial galleries,E09000001,11/27/2022
City and County of the City of London,http://www.allhallowsbythetower.org.uk/visit/crypt/,Crypt Museum,200000075582,E09000001,Byward Street,NA,NA,Tower,E05009310,-0.07759820011277004,533395.0001221001,51.50881822633147,180682.00012210011,City of London,Commercial galleries,E09000001,11/27/2022
City of London,https://www.cityoflondon.gov.uk/services/libraries-and-archives/our-libraries/Pages/Artizan-Street-Library-and-Community-Centre.aspx,Artizan Street Library & Community Centre,95511788,E09000001,1 Artizan Street,City Of London,NA,Portsoken,E05009308,-0.07518397316927176,533544.0001221001,51.51514611257796,181390.00012210011,City of London,Community centres,E09000001,11/27/2022
City of London,,Golden Lane Community Centre,200000071911,E09000001,Golden Lane Estate,City Of London,NA,Cripplegate,E05009302,-0.09385283784531938,532230.0001221001,51.52165662763659,182080.00012210011,City of London,Community centres,E09000001,11/27/2022
City of London,http://thekoppelproject.com/studios/,The Koppel Project Hive,95514267,E09000001,The Koppel Project Hive,26 Holborn Viaduct,,,,-0.1040481093034978,531537.0001221001,51.51673152134811,181514.00012210011,City of London,Creative workspaces,E09000001,11/27/2022
City and County of the City of London,http://www.arctheatre.com,The Arc Theatre,95513019,E09000001,14 Austin Friars,,,Broad Street,E05009295,-0.08566234443244888,532703.2762608258,51.515929805308474,181512.00214289053,City of London,Dance performance venues,E09000001,11/27/2022
City and County of the City of London,http://www.barbican.org.uk,Barbican Centre Theatre,95512045,E09000001,1C Silk St,,,Cripplegate,E05009302,-0.09410684626769471,532105.8421860349,51.51996230660304,181945.04630478157,City of London,Dance performance venues,E09000001,11/27/2022
City and County of the City of London,http://www.sbf.org.uk/theatre,Bridewell Theatre,95511225,E09000001,14 Bride Ln,,,Castle Baynard,E05009297,-0.10502349280047492,531367.2944332145,51.51349204783571,181206.01379450312,City of London,Dance performance venues,E09000001,11/27/2022
City and County of the City of London,http://www.barbican.org.uk/theatre,"The Pit, Barbican Centre",95512046,E09000001,1C Silk St,,,Cripplegate,E05009302,-0.09410454151200137,532106.0021516739,51.519962269135135,181945.0463015925,City of London,Dance performance venues,E09000001,11/27/2022
City and County of the City of London,http://www.bishopsgate.org.uk/form.aspx?id=14,Bishopgate Institute,100022933667,E09000001,230 Bishopgate,,,Bishopsgate,E05009292,-0.07925055940497212,533139.9198344832,51.51871109863439,181832.8726056078,City of London,Dance rehearsal studios,E09000001,11/27/2022
City and County of the City of London,http://www.barbican.org.uk/theatre,"The Pit, Barbican Centre",95512046,E09000001,1C Silk St,,,Cripplegate,E05009302,-0.09410454151200137,532106.0021516739,51.519962269135135,181945.0463015925,City of London,Dance rehearsal studios,E09000001,11/27/2022
City of London,http://www.fashionworkslondon.com/,Fashionworks London,2E+11,E09000001,7th Floor,45 Moorfields,,Coleman Street,E05009299,-0.08900603153206546,532463.0633923783,51.518780634415094,181822.8935849314,City of London,Fashion and design,E09000001,11/27/2022
Tower Hamlets,https://www.londonmet.ac.uk/services-and-facilities/cass-works/,"Metropolitan Works, Cass Works",6151592,E09000030,Calcutta House,Old Castle Street,,Spitalfields & Banglatown,E05009333,-0.07359778250349287,533541.8290886114,51.5153539580746,181469.93098692072,City of London,Fashion and design,E09000001,11/27/2022
City and County of the City of London,,Alex Monroe Limited,10091779289,E09000001,15 Lower Ground Floor,65 London Wall,,Broad Street,E05009295,-0.08500245599805671,532860.0001221001,51.516125274813575,181481.00012210011,City of London,Jewellery design,E09000001,11/27/2022
City and County of the City of London,,Chahat Limited,10091902578,E09000001,Royal Bank of Canada Centre,71 Queen Victoria Street,,Vintry,E05009311,-0.09285578397043892,532329.0001221001,51.511360731267445,180937.00012210011,City of London,Jewellery design,E09000001,11/27/2022
City and County of the City of London,,Courts and Hackett Limited,10091779397,E09000001,177 Temple Chambers,Temple Avenue,,Castle Baynard,E05009297,-0.10660766992680354,531375.0001221001,51.5113227586566,180908.00012210011,City of London,Jewellery design,E09000001,11/27/2022
City and County of the City of London,,Fabio Salini Ltd,10091866456,E09000001,5th Floor,Aldermary House,,Cordwainer,E05009300,-0.0910652335532815,532450.0001221001,51.512473786113866,181064.00012210011,City of London,Jewellery design,E09000001,11/27/2022
City and County of the City of London,,Ileana Makri Trading Limited,100022934047,E09000001,"3rd Floor, Basildon House",7 Moorgate,,Coleman Street,E05009299,-0.08811691888249397,532648.0001221001,51.51472812006753,181320.00012210011,City of London,Jewellery design,E09000001,11/27/2022
City and County of the City of London,,JVM London Ltd,10091959705,E09000001,Office 7 35-37 Ludgate Hill,,,Farringdon Within,E05009304,-0.10052864670912237,531791.0001221001,51.51331995881724,181141.00012210011,City of London,Jewellery design,E09000001,11/27/2022
City and County of the City of London,,Orange River Diamond Ltd,10091783838,E09000001,1 London Wall,,,Aldersgate,E05009288,-0.09444594214481397,532203.0001221001,51.516773749713316,181536.00012210011,City of London,Jewellery design,E09000001,11/27/2022
City and County of the City of London,http://www.producersprice.com,Producers Price England Ltd,10091778726,E09000001,24 Holborn Viaduct,"International House, 24 Holborn",,Farringdon Within,E05009304,-0.10312333984118234,531602.0001221001,51.516437765760905,181483.00012210011,City of London,Jewellery design,E09000001,11/27/2022
City and County of the City of London,,Siara London Limited,10091869243,E09000001,3 London Wall Buildings,,,Coleman Street,E05009299,-0.08438160668413923,532902.0001221001,51.516492866705505,181523.00012210011,City of London,Jewellery design,E09000001,11/27/2022
City and County of the City of London,,Stones In Tones Limited,10091779131,E09000001,40 Holborn Viaduct,,,Farringdon Without,E05009305,-0.10475740836523857,531486.0001221001,51.5173545502889,181582.00012210011,City of London,Jewellery design,E09000001,11/27/2022
City and County of the City of London,,The Jewellery Agency Limited,10091962243,E09000001,C/O Very Ard Times Limited,Tower 42,,Cornhill,E05009301,-0.08240781493414977,533044.0001221001,51.51475182176446,181333.00012210011,City of London,Jewellery design,E09000001,11/27/2022
City and County of the City of London,,The Pink Peacock Limited,200000071308,E09000001,150 Aldersgate Street,,,Farringdon Within,E05009304,-0.09578733548127609,532104.0001221001,51.5188280909225,181762.00012210011,City of London,Jewellery design,E09000001,11/27/2022
City and County of the City of London,,Ulus Capital Ltd,200000075363,E09000001,6th Floor 48-54 Moorgate,,,Coleman Street,E05009299,-0.08715567469155364,532710.0001221001,51.51634028821076,181501.00012210011,City of London,Jewellery design,E09000001,11/27/2022
City and County of the City of London,,Xtra-Star LTD.,95513392,E09000001,Octagon Point,The Sugar Building,,Bread Street,E05009293,-0.0956812797769121,532125.0001221001,51.51411372325466,181238.00012210011,City of London,Jewellery design,E09000001,11/27/2022
City of London,,The Minories (Regular LGBTQ+ Programming),,,64-73 Minories,,,,,-0.07474473774107879,533475.9740404332,51.51066714500202,180946.76635377196,City of London,LGBT+ night time venues,E09000001,11/27/2022
City and County of the City of London,,Shoe Lane,200000075492,E09000001,Little New Street,,,Castle Baynard,E05009297,-0.10497338917242037,531478.0001221001,51.51492977174707,181312.00012210011,City of London,Libraries,E09000001,11/27/2022
City and County of the City of London,,Artizan Street,95511788,E09000001,Artizan Street,,,Portsoken,E05009308,-0.07518397316927176,533544.0001221001,51.51514611257796,181390.00012210011,City of London,Libraries,E09000001,11/27/2022
City and County of the City of London,,Guildhall Library and City Business Library,100023529028,E09000001,Aldermanbury,,,Bassishaw,E05009290,-0.09123883304057374,532429.0001221001,51.51556141908711,181407.00012210011,City of London,Libraries,E09000001,11/27/2022
City and County of the City of London,,Barbican,200000072620,E09000001,Silk Street,,,Cripplegate,E05009302,-0.09251783735356144,532329.0001221001,51.51944947796296,181837.00012210011,City of London,Libraries,E09000001,11/27/2022
City of London,www.goldsmiths-centre.org/workspace/,The Goldsmiths' Centre,100023000000,E09000001,The Goldsmiths Centre,The Goldsmiths’ Centre,42 Britton Street,Cheap,E05009298,-0.09585420180587846,531997.15838582,51.51563668572754,181460.97085616883,City of London,Makerspaces,E09000001,11/27/2022
City of London,http://www.holmes-wood.com,The Holmes Wood Consultancy Limited,2E+11,E09000001,1 Monkwell Square,,,Cripplegate,E05009302,-0.09297085608316066,532302.7200927958,51.5176742239998,181638.79010009766,City of London,Making and manufacturing,E09000001,11/27/2022
City and County of the City of London,www.qmul.ac.uk/pathologymuseum/,Barts Pathology Museum,95512892,E09000001,3rd Floor,Robin Brook Centre  St Bartholomew's Hospital,West Smithfield,Farringdon Without,E05009305,-0.09943359250929393,531855.9500731975,51.51713618643427,181567.30010989308,City of London,Museums and public galleries,E09000001,11/27/2022
City and County of the City of London,https://www.bartshealth.nhs.uk/st-bartholomews-museum-and-archives,St Bartholomews Hospital Museum,95512892,E09000001,North Wing,St Bartholomew’s Hospital,West Smithfield,Farringdon Without,E05009305,-0.09943359250929393,531855.9500731975,51.51713618643427,181567.30010989308,City of London,Museums and public galleries,E09000001,11/27/2022
City and County of the City of London,http://www.drjohnsonshouse.org/,Dr Johnsonʼs House,100022935908,E09000001,17 Gough Square,NA,NA,Castle Baynard,E05009297,-0.10657580835722047,531368.0001221001,51.51452396245245,181264.00012210011,City of London,Museums and public galleries,E09000001,11/27/2022
City and County of the City of London,http://www.museumoflondon.org.uk/london-wall/#,Museum of London,200000069411,E09000001,150 London Wall,NA,NA,Aldersgate,E05009288,-0.09448217896942207,532199.0001221001,51.517286973661534,181593.00012210011,City of London,Museums and public galleries,E09000001,11/27/2022
City and County of the City of London,http://www.barbican.org.uk/artgallery,Barbican Art Gallery,200000072620,E09000001,Level 3,Barbican Centre,Silk Street,Cripplegate,E05009302,-0.09251783735356144,532329.0001221001,51.51944947796296,181837.00012210011,City of London,Museums and public galleries,E09000001,11/27/2022
City and County of the City of London,http://www.redcross.org.uk/museumandarchives,British Red Cross Museum and Archives,200000075168,E09000001,UK Office 44 Moorfields,NA,NA,Coleman Street,E05009299,-0.08706524857498489,532709.7600707933,51.51858073934926,181750.28009029478,City of London,Museums and public galleries,E09000001,11/27/2022
City and County of the City of London,http://www.guildhallartgallery.cityoflondon.gov.uk/,Guildhall Art Gallery and London's Roman Amphitheatre,200000075197,E09000001,Guildhall Art Gallery Cultural and Visitor Development Town Clerk’s Department Guildhall Yard,NA,NA,Bassishaw,E05009290,-0.09004913001957505,532513.0001221001,51.5150563942422,181353.00012210011,City of London,Museums and public galleries,E09000001,11/27/2022
City And County Of The City Of London,www.stmagnusmartyr.org.uk,St. Magnus The Martyr,200000000000,E09000001,Lower Thames Street City Of London,,,Billingsgate,E05009291,-0.08133981513502138,533136.000122197,51.50860969662582,180652.00012159348,City of London,Music venues (all),E09000001,11/27/2022
City And County Of The City Of London,,The Steelyard,95510144,E09000001,13-16 Allhallows Lane,City Of London,,Dowgate,E05009303,-0.08895602112429277,532605.000122197,51.50948952746184,180736.00012159348,City of London,Music venues (all),E09000001,11/27/2022
City And County Of The City Of London,,Revolution,100000000000,E09000001,City Of London ,,,Tower,E05009310,-0.07439059003020591,533612.000122197,51.51071721619676,180899.00012159348,City of London,Music venues (all),E09000001,11/27/2022
City And County Of The City Of London,,Cos Bar,100000000000,E09000001,148 Queen Victoria Street,City Of London,,Castle Baynard,E05009297,-0.10000016141271767,531832.000122197,51.51181846015142,180975.00012159348,City of London,Music venues (all),E09000001,11/27/2022
City And County Of The City Of London,www.yager-bar.com,Yager Bar,95506109,E09000001,42796 Old Change Court,City Of London,,Bread Street,E05009293,-0.09584139236763949,532120.000122197,51.512002826469164,181003.00012159348,City of London,Music venues (all),E09000001,11/27/2022
City And County Of The City Of London,www.thecockpit.org.uk,Cockpit,100000000000,E09000001,7 St. Andrew's Hill,City Of London,,Farringdon Within,E05009304,-0.0998692218655941,531840.000122197,51.512194069767034,181017.00012159348,City of London,Music venues (all),E09000001,11/27/2022
City And County Of The City Of London,www.ststephenwalbrook.net,St. Stephen Walbrook,200000000000,E09000001,39 Walbrook,City Of London,,Walbrook,E05009312,-0.08852515518664116,532627.000122197,51.51220757019968,181039.00012159348,City of London,Music venues (all),E09000001,11/27/2022
City And County Of The City Of London,www.madisonlondon.net/,Madison,10091783504,E09000001,1 New Change,City Of London,,Bread Street,E05009293,-0.09453335081235609,532208.000122197,51.51295288912389,181111.00012159348,City of London,Music venues (all),E09000001,11/27/2022
City And County Of The City Of London,,Pause Bar,10091780331,E09000001,80 Leadenhall Street,City Of London,,Aldgate,E05009289,-0.07702460181124733,533423.000122197,51.51285595420218,181132.00012159348,City of London,Music venues (all),E09000001,11/27/2022
City And County Of The City Of London,,Tipperary,100000000000,E09000001,66 Fleet Street,City Of London,,Castle Baynard,E05009297,-0.10602324871492282,531409.000122197,51.51359769358023,181162.00012159348,City of London,Music venues (all),E09000001,11/27/2022
City And County Of The City Of London,,Revolution,100000000000,E09000001,140 Leadenhall Street,City Of London,,Lime Street,E05009307,-0.08124462331637172,533129.000122197,51.51327582941683,181171.00012159348,City of London,Music venues (all),E09000001,11/27/2022
City And County Of The City Of London,,City Zebrano,200000000000,E09000001,18-22 Houndsditch,City Of London,,Aldgate,E05009289,-0.07595420261700667,533494.000122197,51.51397159373784,181258.00012159348,City of London,Music venues (all),E09000001,11/27/2022
City And County Of The City Of London,www.ballsbrothers.co.uk,Balls Brothers,95509801,E09000001,City Of London ,,,Aldgate,E05009289,-0.07860007667437391,533309.000122197,51.51446465583565,181308.00012159348,City of London,Music venues (all),E09000001,11/27/2022
City And County Of The City Of London,www.kanaloaclub.com,Kanaloa,95506679,E09000001,Shoe Lane City Of London,,,Castle Baynard,E05009297,-0.10480165114863836,531490.000122197,51.514900015689555,181309.00012159348,City of London,Music venues (all),E09000001,11/27/2022
City And County Of The City Of London,www.tokenhousemoorgate.co.uk,Tokenhouse,10091913571,E09000001,4 Moorgate,City Of London,,Coleman Street,E05009299,-0.08761464130639825,532683.000122197,51.514674962242616,181315.00012159348,City of London,Music venues (all),E09000001,11/27/2022
City And County Of The City Of London,,Balls Brothers Shoe Lane,95505742,E09000001,City Of London ,,,Castle Baynard,E05009297,-0.10494354280062045,531478.000122197,51.51564877657988,181392.00012159348,City of London,Music venues (all),E09000001,11/27/2022
City And County Of The City Of London,www.greshamcentre.com,St. Anne And St. Agnes Church,0,E09000001,Gresham Centre Gresham St,London,,Aldersgate,E05009288,-0.0946806265657043,532189.000122197,51.51598612604661,181448.00012159348,City of London,Music venues (all),E09000001,11/27/2022
City And County Of The City Of London,www.standrewholborn.org.uk,St. Andrew Holborn Church,10091906423,E09000001,5 St. Andrew Street,City Of London,,Farringdon Without,E05009305,-0.10487854185528388,531480.000122197,51.516520104239426,181489.00012159348,City of London,Music venues (all),E09000001,11/27/2022
City And County Of The City Of London,,Cinnamon Kitchen,95510984,E09000001,Unit 1 Western Courtyard,Devonshire Square,City Of London,Bishopsgate,E05009292,-0.07699334874032407,533414.000122197,51.516677731406006,181557.00012159348,City of London,Music venues (all),E09000001,11/27/2022
City And County Of The City Of London,,Old Bengal Bar,95509995,E09000001,Apartment 14 Tapestry Building,16,New Street,Bishopsgate,E05009292,-0.07827275461548189,533325.000122197,51.516761659170854,181564.00012159348,City of London,Music venues (all),E09000001,11/27/2022
City And County Of The City Of London,www.theastronomerpub.co.uk,Astronomer,95506101,E09000001,125 Middlesex Street,City Of London,,Bishopsgate,E05009292,-0.07719203085498783,533398.000122197,51.51743645321801,181641.00012159348,City of London,Music venues (all),E09000001,11/27/2022
City And County Of The City Of London,,Dirty Dicks Public House,200000000000,E09000001,202 Bishopsgate,City Of London,,Bishopsgate,E05009292,-0.0779801620901517,533343.000122197,51.517548302552896,181652.00012159348,City of London,Music venues (all),E09000001,11/27/2022
City And County Of The City Of London,www.barbican.org.uk,Barbican Centre,200000000000,E09000001,Silk Street Barbican,City Of London,,Coleman Street,E05009299,-0.09008471328786388,532498.000122197,51.51937390368272,181833.00012159348,City of London,Music venues (all),E09000001,11/27/2022
City And County Of The City Of London,www.gsmd.ac.uk/about_the_school/milton_court,"Milton Court, Guildhall School Of Music And Drama",10025504329,E09000001,City Of London ,,,Coleman Street,E05009299,-0.08983981034876616,532515.000122197,51.51936991500895,181833.00012159348,City of London,Music venues (all),E09000001,11/27/2022
City and County of the City of London,,City Bar & Kitchen,,E09000001,9 Stoney Street c/o White Kennet Lane,London,Aldgate East,Aldgate,E05009289,-0.07599705902548076,533489.0001221001,51.514664805975144,181335.00012210011,City of London,Pubs,E09000001,11/27/2022
City and County of the City of London,,Simmons,,E09000001,21 Widegate Street,London,Liverpool Street,Bishopsgate,E05009292,-0.07662227046047179,533437.0001221001,51.517615976063084,181662.00012210011,City of London,Pubs,E09000001,11/27/2022
City and County of the City of London,,Kings Stores,,E09000001,14 Widegate Street,Spitalfields,,Bishopsgate,E05009292,-0.07662227046047179,533437.0001221001,51.517615976063084,181662.00012210011,City of London,Pubs,E09000001,11/27/2022
City and County of the City of London,,Astronomer,,E09000001,125-129 Middlesex Street,London,Aldgate East,Bishopsgate,E05009292,-0.07719203085619127,533398.0001221001,51.51743645322258,181641.00012210011,City of London,Pubs,E09000001,11/27/2022
City and County of the City of London,,Williams Ale & Cider House,,E09000001,22-24 Artillery Lane,Spitalfields,,Bishopsgate,E05009292,-0.07669961464488516,533431.0001221001,51.51783309140503,181686.00012210011,City of London,Pubs,E09000001,11/27/2022
City and County of the City of London,,Duke Of Somerset,,E09000001,15 Little Somerset Street,London,Goodmans,Portsoken,E05009308,-0.07286451712836588,533710.0001221001,51.513408223618136,181201.00012210011,City of London,Pubs,E09000001,11/27/2022
City and County of the City of London,,Fable,,E09000001,52 Holborn Viaduct,London,Smithfield,Farringdon Within,E05009304,-0.10259690657537064,531638.0001221001,51.51661811500173,181504.00012210011,City of London,Pubs,E09000001,11/27/2022
City and County of the City of London,,Lord Raglan,,E09000001,61 St Martin's-le-Grand,London,Smithfield,Aldersgate,E05009288,-0.09495207175871728,532170.0001221001,51.516044497490256,181454.00012210011,City of London,Pubs,E09000001,11/27/2022
City and County of the City of London,,Viaduct Tavern,,E09000001,126 Newgate Street,London,Smithfield,Farringdon Within,E05009304,-0.0999811249923049,531822.0001221001,51.51573936004847,181411.00012210011,City of London,Pubs,E09000001,11/27/2022
City and County of the City of London,,Lamb & Trotter,,E09000001,6 Little Britain,London,Smithfield,Aldersgate,E05009288,-0.09647130199884768,532063.0001221001,51.51659978921739,181513.00012210011,City of London,Pubs,E09000001,11/27/2022
City and County of the City of London,,Lino,,E09000001,90 Bartholomew Close,Barbican,,Farringdon Within,E05009304,-0.09762423923704887,531980.0001221001,51.51764376739492,181627.00012210011,City of London,Pubs,E09000001,11/27/2022
City and County of the City of London,,Hand & Shears,,E09000001,1 Middle Street,London,Smithfield,Farringdon Within,E05009304,-0.09698003096585497,532021.0001221001,51.518919399539,181770.00012210011,City of London,Pubs,E09000001,11/27/2022
City and County of the City of London,,Rising Sun,,E09000001,38 Cloth Fair,London,Smithfield,Farringdon Within,E05009304,-0.098160396034956,531940.0001221001,51.518614777968104,181734.00012210011,City of London,Pubs,E09000001,11/27/2022
City and County of the City of London,,Butcher's Hook & Cleaver,,E09000001,60-63 West Smithfield,Smithfield,,Farringdon Within,E05009304,-0.0989495432953275,531886.0001221001,51.51835776507554,181704.00012210011,City of London,Pubs,E09000001,11/27/2022
City and County of the City of London,,St Barts Brewery,,E09000001,64-66 West Smithfield,London,Smithfield,Farringdon Within,E05009304,-0.0989495432953275,531886.0001221001,51.51835776507554,181704.00012210011,City of London,Pubs,E09000001,11/27/2022
City and County of the City of London,,Ask for Janice,,E09000001,50-52 Long Lane,London,Smithfield,Farringdon Within,E05009304,-0.09830071054822105,531930.0001221001,51.5187069892738,181744.00012210011,City of London,Pubs,E09000001,11/27/2022
City and County of the City of London,,Old Red Cow,,E09000001,71-72 Long Lane,London,Smithfield,Farringdon Within,E05009304,-0.09830071054822105,531930.0001221001,51.5187069892738,181744.00012210011,City of London,Pubs,E09000001,11/27/2022
City and County of the City of London,,Bishops Finger,,E09000001,9-10 West Smithfield,London,Smithfield,Farringdon Without,E05009305,-0.10032052181430574,531792.0001221001,51.51797526930716,181659.00012210011,City of London,Pubs,E09000001,11/27/2022
City and County of the City of London,,Bird of Smithfield,,E09000001,26 Smithfield Street,London,Smithfield,Farringdon Without,E05009305,-0.10093191787229171,531750.0001221001,51.517832280405905,181642.00012210011,City of London,Pubs,E09000001,11/27/2022
City and County of the City of London,,Shakespeare,,E09000001,2 Goswell Road,London,Farringdon,Cripplegate,E05009302,-0.09580054160894803,532094.0001221001,51.521967069282816,182111.00012210011,City of London,Pubs,E09000001,11/27/2022
City and County of the City of London,,Inn of Court,,E09000001,18 High Holborn,London,Hatton Garden,Farringdon Without,E05009305,-0.10859264104330296,531220.0001221001,51.517335525592614,181573.00012210011,City of London,Pubs,E09000001,11/27/2022
City and County of the City of London,,Chiswell Street Dining Rooms,,E09000001,56 Chiswell Street,London,Finsbury,Coleman Street,E05009299,-0.08909515931263237,532564.0001221001,51.520284124886636,181936.00012210011,City of London,Pubs,E09000001,11/27/2022
City and County of the City of London,,Jugged Hare,,E09000001,49 Chiswell Street,London,Finsbury,Coleman Street,E05009299,-0.08909515931263237,532564.0001221001,51.520284124886636,181936.00012210011,City of London,Pubs,E09000001,11/27/2022
City and County of the City of London,,Piccolino,,E09000001,11 Exchange Square,London,Shoreditch,Bishopsgate,E05009292,-0.08006692110168631,533192.0001221001,51.51968699003055,181886.00012210011,City of London,Pubs,E09000001,11/27/2022
City and County of the City of London,,Corney & Barrow,,E09000001,5 Exchange Square,London,Shoreditch,Bishopsgate,E05009292,-0.07873771889227278,533286.0001221001,51.51907164336493,181820.00012210011,City of London,Pubs,E09000001,11/27/2022
City and County of the City of London,,Salt Point Bar,,E09000001,2 Exchange Square,London,Shoreditch,Bishopsgate,E05009292,-0.07873771889227278,533286.0001221001,51.51907164336493,181820.00012210011,City of London,Pubs,E09000001,11/27/2022
City and County of the City of London,,Gow's,,E09000001,81 Old Broad Street,London,Liverpool Street,Broad Street,E05009295,-0.0818285082046156,533079.0001221001,51.516532077167525,181532.00012210011,City of London,Pubs,E09000001,11/27/2022
City and County of the City of London,,Lord Aberconway,,E09000001,73 Old Broad Street,London,Liverpool Street,Bishopsgate,E05009292,-0.08124318832350705,533120.0001221001,51.5163965912796,181518.00012210011,City of London,Pubs,E09000001,11/27/2022
City and County of the City of London,,Kings Arms,,E09000001,27 Wormwood Street,London,Liverpool Street,Bishopsgate,E05009292,-0.08109148407095677,533132.0001221001,51.515890466563185,181462.00012210011,City of London,Pubs,E09000001,11/27/2022
City and County of the City of London,,Beany Green,,E09000001,41 Broadgate Circle,London,Liverpool Street,Bishopsgate,E05009292,-0.08217715802533564,533050.0001221001,51.51818361055832,181715.00012210011,City of London,Pubs,E09000001,11/27/2022
City and County of the City of London,,Mrs Fogg's Maritime Club & Distillery,,E09000001,37 Broadgate Circle,London,Liverpool Street,Bishopsgate,E05009292,-0.08217715802533564,533050.0001221001,51.51818361055832,181715.00012210011,City of London,Pubs,E09000001,11/27/2022
City and County of the City of London,,Botanist,,E09000001,5 Broadgate Circle,London,Liverpool Street,Bishopsgate,E05009292,-0.08217715802533564,533050.0001221001,51.51818361055832,181715.00012210011,City of London,Pubs,E09000001,11/27/2022
City and County of the City of London,,Bangers,,E09000001,2 Wilson Street,London,Liverpool Street,Bishopsgate,E05009292,-0.08429372650647135,532902.0001221001,51.518586942392155,181756.00012210011,City of London,Pubs,E09000001,11/27/2022
City and County of the City of London,,Tank & Paddle,,E09000001,201 Bishopsgate,London,Liverpool Street,Bishopsgate,E05009292,-0.07765507624233554,533358.0001221001,51.52013313574054,181940.00012210011,City of London,Pubs,E09000001,11/27/2022
City and County of the City of London,,We Are Bar,,E09000001,155 Bishopsgate,London,Liverpool Street,Bishopsgate,E05009292,-0.07848365210620988,533306.0001221001,51.51825805540475,181730.00012210011,City of London,Pubs,E09000001,11/27/2022
City and County of the City of London,,All Bar One,,E09000001,175 Bishopsgate,London,Liverpool Street,Bishopsgate,E05009292,-0.07856967769691121,533301.0001221001,51.5179267010827,181693.00012210011,City of London,Pubs,E09000001,11/27/2022
City and County of the City of London,,Dirty Dicks,,E09000001,202-204 Bishopsgate,London,Liverpool Street,Bishopsgate,E05009292,-0.07811435122476063,533334.0001221001,51.51744257832611,181640.00012210011,City of London,Pubs,E09000001,11/27/2022
City and County of the City of London,,Boisdale,,E09000001,"Swedeland Court, 202 Bishopsgate",London,Liverpool Street,Bishopsgate,E05009292,-0.07811435122476063,533334.0001221001,51.51744257832611,181640.00012210011,City of London,Pubs,E09000001,11/27/2022
City and County of the City of London,,Woodin's Shades,,E09000001,212 Bishopsgate,London,Liverpool Street,Bishopsgate,E05009292,-0.07768221410368992,533363.0001221001,51.51777725310526,181678.00012210011,City of London,Pubs,E09000001,11/27/2022
City and County of the City of London,,Bull,,E09000001,4 Devonshire Row,London,Liverpool Street,Bishopsgate,E05009292,-0.0786055555619357,533303.0001221001,51.516389380289105,181522.00012210011,City of London,Pubs,E09000001,11/27/2022
City and County of the City of London,,Magpie,,E09000001,12 New Street,Liverpool Street,,Bishopsgate,E05009292,-0.07769768483136034,533365.0001221001,51.51672525332137,181561.00012210011,City of London,Pubs,E09000001,11/27/2022
City and County of the City of London,,Pittcue,,E09000001,"1 The Avenue, Devonshire Square",London,Liverpool Street,Bishopsgate,E05009292,-0.07655927244285962,533446.0001221001,51.516032065614205,181486.00012210011,City of London,Pubs,E09000001,11/27/2022
City and County of the City of London,,Bierschenke,,E09000001,"4 London Wall Buildings, Blomfield Street",London,Moorgate,Coleman Street,E05009299,-0.08372545460614725,532947.0001221001,51.51667101264113,181544.00012210011,City of London,Pubs,E09000001,11/27/2022
City and County of the City of London,,Globe,,E09000001,83 Moorgate,London,Moorgate,Coleman Street,E05009299,-0.08715021418988472,532708.0001221001,51.51715861748063,181592.00012210011,City of London,Pubs,E09000001,11/27/2022
City and County of the City of London,,Keats at the Globe,,E09000001,85 Moorgate,London,Moorgate,Coleman Street,E05009299,-0.08715021418988472,532708.0001221001,51.51715861748063,181592.00012210011,City of London,Pubs,E09000001,11/27/2022
City and County of the City of London,,Kitty Hawk,,E09000001,"11-13 South Pl, Finsbury Circus",London,Moorgate,Coleman Street,E05009299,-0.08463742891136049,532880.0001221001,51.51795401010793,181685.00012210011,City of London,Pubs,E09000001,11/27/2022
City and County of the City of London,,Red Lion,,E09000001,1 Eldon Street,London,Liverpool Street,Bishopsgate,E05009292,-0.08419319161399405,532910.0001221001,51.5182345493249,181717.00012210011,City of London,Pubs,E09000001,11/27/2022
City and County of the City of London,,Railway Tavern,,E09000001,15 Liverpool Street,London,Liverpool Street,Broad Street,E05009295,-0.08275357680181651,533013.0001221001,51.51715877013266,181600.00012210011,City of London,Pubs,E09000001,11/27/2022
City and County of the City of London,,Merchant of Bishopsgate,,E09000001,Liverpool St Station Concourse,London,Liverpool Street,Bishopsgate,E05009292,-0.08058569426925102,533161.0001221001,51.51797770171149,181695.00012210011,City of London,Pubs,E09000001,11/27/2022
City and County of the City of London,,Hamilton Hall,,E09000001,"Liverpool Street Station, Unit 32, The Concourse",Liverpool Street,,Bishopsgate,E05009292,-0.08058569426925102,533161.0001221001,51.51797770171149,181695.00012210011,City of London,Pubs,E09000001,11/27/2022
City and County of the City of London,,East way,,E09000001,"Andaz Hotel, 40 Liverpool Street",London,Liverpool Street,Bishopsgate,E05009292,-0.07991380700904441,533211.0001221001,51.51681552021799,181567.00012210011,City of London,Pubs,E09000001,11/27/2022
City and County of the City of London,,Lady Abercorns,,E09000001,"Andaz Hotel, 40 Liverpool Street",London,Liverpool Street,Bishopsgate,E05009292,-0.07991380700904441,533211.0001221001,51.51681552021799,181567.00012210011,City of London,Pubs,E09000001,11/27/2022
City and County of the City of London,,Otherist,,E09000001,111 Old Broad Street,London,Old Broad Street,Broad Street,E05009295,-0.08306740467203666,532998.0001221001,51.514834554336076,181341.00012210011,City of London,Pubs,E09000001,11/27/2022
City and County of the City of London,,Broadleaf,,E09000001,25 Old Broad Street,Liverpool Street,,Cornhill,E05009301,-0.08247908261537987,533039.0001221001,51.514770974332926,181335.00012210011,City of London,Pubs,E09000001,11/27/2022
City and County of the City of London,,Be at One,,E09000001,45 Old Broad Street,London,Old Broad Street,Cornhill,E05009301,-0.08161987964919841,533096.0001221001,51.515665277450005,181436.00012210011,City of London,Pubs,E09000001,11/27/2022
City and County of the City of London,,Phoenix,,E09000001,26 Throgmorton Street,London,Old Broad Street,Broad Street,E05009295,-0.08446721364700792,532902.0001221001,51.51445271489101,181296.00012210011,City of London,Pubs,E09000001,11/27/2022
City and County of the City of London,,Arbitrager,,E09000001,27a Throgmorton Street,London,Old Broad Street,Broad Street,E05009295,-0.08446721364700792,532902.0001221001,51.51445271489101,181296.00012210011,City of London,Pubs,E09000001,11/27/2022
City and County of the City of London,,Balls Brothers (Austin Friars),,E09000001,10-11 Austin Friars,London,Old Broad Street,Broad Street,E05009295,-0.08368649258992555,532954.0001221001,51.51519542340077,181380.00012210011,City of London,Pubs,E09000001,11/27/2022
City and County of the City of London,,Drift,,E09000001,"Heron Tower, 110 Bishopsgate",London,Old Broad Street,Bishopsgate,E05009292,-0.07959337736555322,533236.0001221001,51.51586594358845,181462.00012210011,City of London,Pubs,E09000001,11/27/2022
City and County of the City of London,,Gable,,E09000001,25 Moorgate,London,Bank,Coleman Street,E05009299,-0.08789304537315613,532662.0001221001,51.51525509298462,181379.00012210011,City of London,Pubs,E09000001,11/27/2022
City and County of the City of London,,Tokenhouse,,E09000001,4 Moorgate,London,Bank,Broad Street,E05009295,-0.0876439252204365,532680.0001221001,51.51500820336285,181352.00012210011,City of London,Pubs,E09000001,11/27/2022
City and County of the City of London,,Telegraph,,E09000001,11 Telegraph Street,London,Bank,Coleman Street,E05009299,-0.08670159608023649,532745.0001221001,51.51513673067395,181368.00012210011,City of London,Pubs,E09000001,11/27/2022
City and County of the City of London,,Browns Bar & Brasserie Old Jewry,,E09000001,8 Old Jewry,London,Bank,Walbrook,E05009312,-0.08924616353152715,532573.0001221001,51.51357735564606,181190.00012210011,City of London,Pubs,E09000001,11/27/2022
City and County of the City of London,,Brasserie Blanc,,E09000001,60 Threadneedle Street,London,Bank,Walbrook,E05009312,-0.08495944757011094,532870.0001221001,51.5137142841665,181213.00012210011,City of London,Pubs,E09000001,11/27/2022
City and County of the City of London,,El Vino (Masons Avenue),,E09000001,12-14 Mason's Avenue,London,Guildhall,Coleman Street,E05009299,-0.08870234502211698,532606.0001221001,51.5152053305299,181372.00012210011,City of London,Pubs,E09000001,11/27/2022
City and County of the City of London,,Dr Butlers Head,,E09000001,Mason's Avenue,London,Guildhall,Coleman Street,E05009299,-0.08870234502211698,532606.0001221001,51.5152053305299,181372.00012210011,City of London,Pubs,E09000001,11/27/2022
City and County of the City of London,,Davy's,,E09000001,25 Basinghall Street,London,Guild Hall,Bassishaw,E05009290,-0.08902097099917657,532582.0001221001,51.51585806282589,181444.00012210011,City of London,Pubs,E09000001,11/27/2022
City and County of the City of London,,Bottlescrue,,E09000001,33 Foster Lane,London,Guildhall,Cheap,E05009298,-0.0948828124255717,532179.0001221001,51.51459540262593,181293.00012210011,City of London,Pubs,E09000001,11/27/2022
City and County of the City of London,,Anthologist,,E09000001,58 Gresham Street,London,Guildhall,Walbrook,E05009312,-0.08955876903501646,532549.0001221001,51.51437388630553,181278.00012210011,City of London,Pubs,E09000001,11/27/2022
City and County of the City of London,,Slug & Lettuce,,E09000001,2 Love Lane,London,Guildhall,Bassishaw,E05009290,-0.09168087555465015,532398.0001221001,51.515676536351506,181419.00012210011,City of London,Pubs,E09000001,11/27/2022
City and County of the City of London,,City Boot,,E09000001,"3 Bastion Highwalk, 125 London Wall",London,Barbican,Bassishaw,E05009290,-0.09287290175331162,532311.0001221001,51.51716188472218,181582.00012210011,City of London,Pubs,E09000001,11/27/2022
City and County of the City of London,,London Wall (Bar & Kitchen),,E09000001,150 London Wall,London,Barbican,Aldersgate,E05009288,-0.09448217896942207,532199.0001221001,51.517286973661534,181593.00012210011,City of London,Pubs,E09000001,11/27/2022
City and County of the City of London,,Rack & Tenter,,E09000001,Tenter House 45 Moorfields,London,Moorgate,Coleman Street,E05009299,-0.08742081479489255,532686.0001221001,51.518269244541116,181715.00012210011,City of London,Pubs,E09000001,11/27/2022
City and County of the City of London,,Liberty Bounds,,E09000001,15 Trinity Square,Tower Hill,,Tower,E05009310,-0.07700468463377427,533435.0001221001,51.50922220193659,180728.00012210011,City of London,Pubs,E09000001,11/27/2022
City and County of the City of London,,Amber,,E09000001,"CityPoint, 1 Ropemaker Street",London,Moorgate,Coleman Street,E05009299,-0.08804573097800614,532641.0001221001,51.518837037858184,181777.00012210011,City of London,Pubs,E09000001,11/27/2022
City and County of the City of London,,Old Tea Warehouse,,E09000001,6-8 Creechurch Lane,London,Aldgate,Aldgate,E05009289,-0.07727213850207307,533405.0001221001,51.51313881543109,181163.00012210011,City of London,Pubs,E09000001,11/27/2022
City and County of the City of London,,Trinity Bell,,E09000001,20 Creechurch Lane,London,Aldgate,Aldgate,E05009289,-0.07727213850207307,533405.0001221001,51.51313881543109,181163.00012210011,City of London,Pubs,E09000001,11/27/2022
City and County of the City of London,,Adriatico,,E09000001,12-14 Mitre Street,London,Aldgate,Aldgate,E05009289,-0.07711787837686149,533415.0001221001,51.51337911396668,181190.00012210011,City of London,Pubs,E09000001,11/27/2022
City and County of the City of London,,Craft Beer Co.,,E09000001,29-31 Mitre Street,Aldgate,,Aldgate,E05009289,-0.07691014615544607,533430.0001221001,51.513177847814404,181168.00012210011,City of London,Pubs,E09000001,11/27/2022
City and County of the City of London,,Alchemist,,E09000001,6 Bevis Marks,London,Aldgate,Aldgate,E05009289,-0.07787947794283347,533359.0001221001,51.514461840690394,181309.00012210011,City of London,Pubs,E09000001,11/27/2022
City and County of the City of London,,All Bar One,,E09000001,104-107 Hounsditch,London,Aldgate,Bishopsgate,E05009292,-0.07750198049506703,533383.0001221001,51.51521111696127,181393.00012210011,City of London,Pubs,E09000001,11/27/2022
City and County of the City of London,,Alice,,E09000001,133 Houndsditch,London,Aldgate,Aldgate,E05009289,-0.07664563824098061,533444.0001221001,51.514666451507665,181334.00012210011,City of London,Pubs,E09000001,11/27/2022
City and County of the City of London,,Lion Bar & Kitchen,,E09000001,31 Houndsditch,London,Aldgate,Aldgate,E05009289,-0.07678171484898538,533435.0001221001,51.51451579162775,181317.00012210011,City of London,Pubs,E09000001,11/27/2022
City and County of the City of London,,City Zebrano,,E09000001,32-38 Duke Place,London,Aldgate,Aldgate,E05009289,-0.07611795152273745,533483.0001221001,51.5138483695084,181244.00012210011,City of London,Pubs,E09000001,11/27/2022
City and County of the City of London,,Slug & Lettuce,,E09000001,25 St Mary Axe,London,Aldgate,Lime Street,E05009307,-0.07891092265776596,533287.0001221001,51.51461364637685,181324.00012210011,City of London,Pubs,E09000001,11/27/2022
City and County of the City of London,,Sterling,,E09000001,30 St Mary Axe,London,Aldgate,Aldgate,E05009289,-0.07885134856520735,533293.0001221001,51.513974123327564,181253.00012210011,City of London,Pubs,E09000001,11/27/2022
City and County of the City of London,,Balls Brothers,,E09000001,38 St Mary Axe,London,Aldgate,Aldgate,E05009289,-0.07860007667557696,533309.0001221001,51.51446465584024,181308.00012210011,City of London,Pubs,E09000001,11/27/2022
City and County of the City of London,,Fen,,E09000001,Fenchchurch Street Station Concourse,London,Fenchurch Street,Tower,E05009310,-0.07749565288262736,533395.0001221001,51.511253818530875,180953.00012210011,City of London,Pubs,E09000001,11/27/2022
City and County of the City of London,,East India Arms,,E09000001,67 Fenchurch Street,London,Fenchurch Street,Aldgate,E05009289,-0.07714736285260644,533417.0001221001,51.51199457910248,181036.00012210011,City of London,Pubs,E09000001,11/27/2022
City and County of the City of London,,Corney & Barrow,,E09000001,25 Fenchurch Ave,London,Fenchurch Street,Aldgate,E05009289,-0.07938034141289373,533261.0001221001,51.51236393625904,181073.00012210011,City of London,Pubs,E09000001,11/27/2022
City and County of the City of London,,Wine Lodge,,E09000001,145 Fenchurch Street,London,Fenchurch Street,Langbourn,E05009306,-0.08090128022057536,533159.0001221001,51.51115671005937,180936.00012210011,City of London,Pubs,E09000001,11/27/2022
City and County of the City of London,,Factory House,,E09000001,37 Leadenhall Street,London,Fenchurch Street,Langbourn,E05009306,-0.08115837582738077,533139.0001221001,51.51189839422039,181018.00012210011,City of London,Pubs,E09000001,11/27/2022
City and County of the City of London,,One Under Lime,,E09000001,1 Leadenhall Place,London,Fenchurch Street,Lime Street,E05009307,-0.08124069377094806,533132.0001221001,51.512340428598655,181067.00012210011,City of London,Pubs,E09000001,11/27/2022
City and County of the City of London,,Hoop & Grapes,,E09000001,47 Aldgate High Street,Tower Hill,,Portsoken,E05009308,-0.07266436480643493,533723.0001221001,51.51371071765898,181235.00012210011,City of London,Pubs,E09000001,11/27/2022
City and County of the City of London,,Slug & Lettuce,,E09000001,"Clare House, 30-33 Minories",London,Tower Hill,Tower,E05009310,-0.0737534223710892,533653.0001221001,51.51181296833565,181022.00012210011,City of London,Pubs,E09000001,11/27/2022
City and County of the City of London,,Three Lords,,E09000001,27 Minories,London,Tower Hill,Tower,E05009310,-0.0737534223710892,533653.0001221001,51.51181296833565,181022.00012210011,City of London,Pubs,E09000001,11/27/2022
City and County of the City of London,,Jamies,,E09000001,119-121 The Minories,London,Tower Hill,Tower,E05009310,-0.07388912843028553,533646.0001221001,51.51098778331648,180930.00012210011,City of London,Pubs,E09000001,11/27/2022
City and County of the City of London,,Minories,,E09000001,64-73 Minories,London,Tower Hill,Tower,E05009310,-0.07316064856997868,533699.0001221001,51.51014840149642,180838.00012210011,City of London,Pubs,E09000001,11/27/2022
City and County of the City of London,,Dirty Martini,,E09000001,124-127 Minories,London,Tower Hill,Tower,E05009310,-0.07429772428421713,533615.0001221001,51.51189385686118,181030.00012210011,City of London,Pubs,E09000001,11/27/2022
City and County of the City of London,,Chamberlain,,E09000001,130-135  Minories,London,Tower Hill,Tower,E05009310,-0.07418931936676612,533623.0001221001,51.511730191304125,181012.00012210011,City of London,Pubs,E09000001,11/27/2022
City and County of the City of London,,Crutched Friar,,E09000001,38 Crutched Friars,London,Tower Hill,Tower,E05009310,-0.07716889622081854,533419.0001221001,51.51079877976721,180903.00012210011,City of London,Pubs,E09000001,11/27/2022
City and County of the City of London,,Habit,,E09000001,65 Crutched Friars,London,Tower Hill,Tower,E05009310,-0.07716889622081854,533419.0001221001,51.51079877976721,180903.00012210011,City of London,Pubs,E09000001,11/27/2022
City and County of the City of London,,Cheshire Cheese,,E09000001,48-50 Crutched Friars,Tower Hill,Tower Hill,Tower,E05009310,-0.0770532917692489,533427.0001221001,51.51080587776346,180904.00012210011,City of London,Pubs,E09000001,11/27/2022
City and County of the City of London,,Isis Bar & Lounge,,E09000001,"Grange City Hotel, 8-14 Cooper's Row",London,Tower Hill,Tower,E05009310,-0.07495988891731223,533574.0001221001,51.510204932555574,180841.00012210011,City of London,Pubs,E09000001,11/27/2022
City and County of the City of London,,Three Tuns,,E09000001,36 Jewry Street,London,Tower Hill,Tower,E05009310,-0.07527148397435678,533547.0001221001,51.51204474777098,181045.00012210011,City of London,Pubs,E09000001,11/27/2022
City and County of the City of London,,Missouri Angel,,E09000001,14 Crosswall,London,Tower Hill,Tower,E05009310,-0.07412488598066855,533629.0001221001,51.51120750255548,180954.00012210011,City of London,Pubs,E09000001,11/27/2022
City and County of the City of London,,Revolution,,E09000001,1 America Square,London,Tower Hill,Tower,E05009310,-0.07462748562852078,533595.0001221001,51.51090997222729,180920.00012210011,City of London,Pubs,E09000001,11/27/2022
City and County of the City of London,,Natural Kitchen (Trinity Square),,E09000001,7 Pepys St,London,Tower Hill,Tower,E05009310,-0.07666703734102884,533455.0001221001,51.51039483000321,180859.00012210011,City of London,Pubs,E09000001,11/27/2022
City and County of the City of London,,Draft House Seething,,E09000001,14-15 Seething Lane,London,Tower Hill,Tower,E05009310,-0.07777108267959838,533381.0001221001,51.50950457622968,180758.00012210011,City of London,Pubs,E09000001,11/27/2022
City and County of the City of London,,Hung Drawn & Quartered,,E09000001,26-27 Great Tower Street,London,Lower Thames Street,Tower,E05009310,-0.07941410404062439,533268.0001221001,51.50916275857295,180717.00012210011,City of London,Pubs,E09000001,11/27/2022
City and County of the City of London,,BrewDog Tower Hill,,E09000001,21 Great Tower Street,City of London,,Tower,E05009310,-0.07955548554168414,533258.0001221001,51.50922802944442,180724.00012210011,City of London,Pubs,E09000001,11/27/2022
City and County of the City of London,,All Bar One,,E09000001,16 Byward Street,London,Lower Thames Street,Tower,E05009310,-0.07752431876689643,533399.0001221001,51.509203741212836,180725.00012210011,City of London,Pubs,E09000001,11/27/2022
City and County of the City of London,,Bodeans,,E09000001,16 Byward Street,London,Lower Thames Street,Tower,E05009310,-0.07752431876689643,533399.0001221001,51.509203741212836,180725.00012210011,City of London,Pubs,E09000001,11/27/2022
City and County of the City of London,,Monument,,E09000001,18 Fish Street Hill,London,Lower Thames Street,Bridge,E05009294,-0.0846867305918209,532901.0001221001,51.509563772435186,180752.00012210011,City of London,Pubs,E09000001,11/27/2022
City and County of the City of London,,Tank & Paddle,,E09000001,"Minster Court, 3 Mincing Lane",London,Lower Thames Street,Billingsgate,E05009291,-0.07956055472390085,533254.0001221001,51.51047822654218,180863.00012210011,City of London,Pubs,E09000001,11/27/2022
City and County of the City of London,,Balls Brothers (Mark Lane),,E09000001,"2 Minster Court, Mark Lane",London,Lower Thames Street,Billingsgate,E05009291,-0.07917049935356368,533282.0001221001,51.510157061149265,180828.00012210011,City of London,Pubs,E09000001,11/27/2022
City and County of the City of London,,Davy's,,E09000001,"Unit 8, Plantation Place, Mincing Lane",London,Lower Thames Street,Billingsgate,E05009291,-0.08005252985908974,533220.0001221001,51.51043232069164,180857.00012210011,City of London,Pubs,E09000001,11/27/2022
City and County of the City of London,,Camino,,E09000001,15 Mincing Lane,London,Lower Thames Street,Billingsgate,E05009291,-0.08005252985908974,533220.0001221001,51.51043232069164,180857.00012210011,City of London,Pubs,E09000001,11/27/2022
City and County of the City of London,,Mas Q Menos,,E09000001,70 Mark Lane,London,Tower Hill,Tower,E05009310,-0.07801301309041957,533360.0001221001,51.51094752217726,180918.00012210011,City of London,Pubs,E09000001,11/27/2022
City and County of the City of London,,Roma,,E09000001,14 New London Street,London,Fenchurch Street,Tower,E05009310,-0.07784811900280021,533372.0001221001,51.510755953301604,180897.00012210011,City of London,Pubs,E09000001,11/27/2022
City and County of the City of London,,Windsor,,E09000001,2 New London Street,London,Fenchurch Street,Tower,E05009310,-0.07784811900280021,533372.0001221001,51.510755953301604,180897.00012210011,City of London,Pubs,E09000001,11/27/2022
City and County of the City of London,,Ship,,E09000001,3 Hart Street,London,Lower Thames Street,Tower,E05009310,-0.07834044739313696,533339.0001221001,51.510359308948686,180852.00012210011,City of London,Pubs,E09000001,11/27/2022
City and County of the City of London,,Balls Brothers (Minster Exchange),,E09000001,"1 Minster Pavement, Minster Court, Mincing Lane",London,Lower Thames Street,Billingsgate,E05009291,-0.07910230034252716,533286.0001221001,51.51040776556435,180856.00012210011,City of London,Pubs,E09000001,11/27/2022
City and County of the City of London,,Britannia,,E09000001,20 Monument Street,London,Lower Thames Street,Bridge,E05009294,-0.08418866203345762,532936.0001221001,51.50941173843702,180736.00012210011,City of London,Pubs,E09000001,11/27/2022
City and County of the City of London,,Hydrant,,E09000001,Equitable House 1 Monument Street,London,Lower Thames Street,Candlewick,E05009296,-0.0847057347196187,532899.0001221001,51.50979791696608,180778.00012210011,City of London,Pubs,E09000001,11/27/2022
City and County of the City of London,,Walrus & Carpenter,,E09000001,45 Monument Street,London,Lower Thames Street,Billingsgate,E05009291,-0.08252051179499559,533053.0001221001,51.5089797603238,180691.00012210011,City of London,Pubs,E09000001,11/27/2022
City and County of the City of London,,Steam Wine Bar,,E09000001,1 St Georges Lane,London,Lower Thames Street,Bridge,E05009294,-0.08314832630468905,533007.0001221001,51.509817437745426,180783.00012210011,City of London,Pubs,E09000001,11/27/2022
City and County of the City of London,,Jamies,,E09000001,2 St Mary at Hill,London,Lower Thames Street,Billingsgate,E05009291,-0.08209873863369883,533081.0001221001,51.50941355047272,180740.00012210011,City of London,Pubs,E09000001,11/27/2022
City and County of the City of London,,Ship,,E09000001,11 Talbot Court,City of London,,Bridge,E05009294,-0.08319015789729117,533002.0001221001,51.51053761126405,180863.00012210011,City of London,Pubs,E09000001,11/27/2022
City and County of the City of London,,Folly,,E09000001,1 Gracechurch Street,London,Gracechurch Street,Cornhill,E05009301,-0.08281454182391276,533022.0001221001,51.512617990849975,181095.00012210011,City of London,Pubs,E09000001,11/27/2022
City and County of the City of London,,New Moon,,E09000001,88 Gracechurch Street,London,Gracechurch Street,Langbourn,E05009306,-0.08256697322148741,533040.0001221001,51.51233514097585,181064.00012210011,City of London,Pubs,E09000001,11/27/2022
City and County of the City of London,,Crosse Keys,,E09000001,7-12 Gracechurch Street,City of London,,Langbourn,E05009306,-0.08307374683807116,533005.0001221001,51.51228047070217,181057.00012210011,City of London,Pubs,E09000001,11/27/2022
City and County of the City of London,,Lamb Tavern,,E09000001,10-12 Leadenhall Market,London,Gracechurch Street,Langbourn,E05009306,-0.0818236411483501,533092.0001221001,51.51218808023402,181049.00012210011,City of London,Pubs,E09000001,11/27/2022
City and County of the City of London,,Old Toms Bar,,E09000001,10-12 Leadenhall Market,London,Gracechurch Street,Langbourn,E05009306,-0.0818236411483501,533092.0001221001,51.51218808023402,181049.00012210011,City of London,Pubs,E09000001,11/27/2022
City and County of the City of London,,Swan,,E09000001,Ship Tavern Passage,City of London,,Langbourn,E05009306,-0.08263698213812522,533037.0001221001,51.51169773864496,180993.00012210011,City of London,Pubs,E09000001,11/27/2022
City and County of the City of London,,Cock & Woolpack,,E09000001,6 Finch Lane,London,Gracechurch Street,Cornhill,E05009301,-0.08414587750141166,532928.0001221001,51.51317936584155,181155.00012210011,City of London,Pubs,E09000001,11/27/2022
City and County of the City of London,,Silk & Grain,,E09000001,33 Cornhill,London,Gracechurch Street,Walbrook,E05009312,-0.08554901846777457,532832.0001221001,51.51271662563601,181101.00012210011,City of London,Pubs,E09000001,11/27/2022
City and County of the City of London,,Forge,,E09000001,24 Cornhill,London,,Walbrook,E05009312,-0.08554901846777457,532832.0001221001,51.51271662563601,181101.00012210011,City of London,Pubs,E09000001,11/27/2022
City and County of the City of London,,Pitcher & Piano,,E09000001,28 Cornhill,London,Gracechurch Street,Walbrook,E05009312,-0.08554901846777457,532832.0001221001,51.51271662563601,181101.00012210011,City of London,Pubs,E09000001,11/27/2022
City and County of the City of London,,Counting House,,E09000001,50 Cornhill,London,Gracechurch Street,Cornhill,E05009301,-0.08322508488039967,532993.0001221001,51.51279558070273,181114.00012210011,City of London,Pubs,E09000001,11/27/2022
City and County of the City of London,,Revolution,,E09000001,140-144 Leadenhall Street,London,Gracechurch Street,Lime Street,E05009307,-0.08146786004817831,533114.0001221001,51.513108603025785,181152.00012210011,City of London,Pubs,E09000001,11/27/2022
City and County of the City of London,,Simpsons Tavern,,E09000001,38 1/2 Cornhill,London,Gracechurch Street,Cornhill,E05009301,-0.08440311610634595,532912.0001221001,51.512545021339896,181084.00012210011,City of London,Pubs,E09000001,11/27/2022
City and County of the City of London,,Jamaica Wine House,,E09000001,St Michaels Alley - Cornhill,London,Gracechurch Street,Cornhill,E05009301,-0.0840437741068764,532937.0001221001,51.51252116366449,181082.00012210011,City of London,Pubs,E09000001,11/27/2022
City and County of the City of London,,Editors Tap,,E09000001,5-11 Fetter Lane,London,Fleet Street,Castle Baynard,E05009297,-0.10791258545074077,531276.0001221001,51.51426673673685,181233.00012210011,City of London,Pubs,E09000001,11/27/2022
City and County of the City of London,,Draft House Chancery,,E09000001,"1 Plough Place, Fetter Lane",London,Fleet Street,Castle Baynard,E05009297,-0.10704468305474105,531331.0001221001,51.516078428707615,181436.00012210011,City of London,Pubs,E09000001,11/27/2022
City and County of the City of London,,White Swan,,E09000001,108 Fetter Lane,London,Fleet Street,Farringdon Without,E05009305,-0.1078249203843868,531278.0001221001,51.515686308923534,181391.00012210011,City of London,Pubs,E09000001,11/27/2022
City and County of the City of London,,26 Furnival Street,,E09000001,26 Furnival Street,London,Fleet Street,Farringdon Without,E05009305,-0.10869643699876418,531216.0001221001,51.51622199530795,181449.00012210011,City of London,Pubs,E09000001,11/27/2022
City and County of the City of London,,Olde Cheshire Cheese,,E09000001,145 Fleet Street,Fleet Street,,Castle Baynard,E05009297,-0.10575464760020561,531427.0001221001,51.51381819500421,181187.00012210011,City of London,Pubs,E09000001,11/27/2022
City and County of the City of London,,Old Bank Of England,,E09000001,194 Fleet  Street,London,Aldwych,Farringdon Without,E05009305,-0.1093304145884532,531180.0001221001,51.513444206687694,181139.00012210011,City of London,Pubs,E09000001,11/27/2022
City and County of the City of London,,Refinery New Street Square,,E09000001,12 New Street Square,London,Fleet Street,Castle Baynard,E05009297,-0.10682774941602247,531348.0001221001,51.515400407910455,181361.00012210011,City of London,Pubs,E09000001,11/27/2022
City and County of the City of London,,Kanaloa,,E09000001,"18 Wine Office Court, Hill House, Shoe Lane",London,Fleet Street,Castle Baynard,E05009297,-0.10494354280182668,531478.0001221001,51.51564877658446,181392.00012210011,City of London,Pubs,E09000001,11/27/2022
City and County of the City of London,,Balls Brothers (Shoe Lane),,E09000001,83 Shoe Lane,London,Fleet Street,Castle Baynard,E05009297,-0.10494354280182668,531478.0001221001,51.51564877658446,181392.00012210011,City of London,Pubs,E09000001,11/27/2022
City and County of the City of London,,White Haus,,E09000001,17 Farringdon Street,Farringdon,,Farringdon Within,E05009304,-0.10275788142977502,531631.0001221001,51.51517275121334,181343.00012210011,City of London,Pubs,E09000001,11/27/2022
City and County of the City of London,,Harrild & Sons,,E09000001,26 Farringdon Street,London,Fleet Street,Farringdon Within,E05009304,-0.10275788142977502,531631.0001221001,51.51517275121334,181343.00012210011,City of London,Pubs,E09000001,11/27/2022
City and County of the City of London,,Hoop & Grapes,,E09000001,80 Farringdon Street,Fleet Street,,Farringdon Within,E05009304,-0.10331982799012521,531593.0001221001,51.51483109103794,181304.00012210011,City of London,Pubs,E09000001,11/27/2022
City and County of the City of London,,Union,,E09000001,35 Old Bailey,London,St Paul’s,Farringdon Within,E05009304,-0.1009310639257004,531760.0001221001,51.51438772054598,181259.00012210011,City of London,Pubs,E09000001,11/27/2022
City and County of the City of London,,Olde London,,E09000001,42 Ludgate Hill,London,St Paul’s,Farringdon Within,E05009304,-0.10020539578047878,531813.0001221001,51.5134676137043,181158.00012210011,City of London,Pubs,E09000001,11/27/2022
City and County of the City of London,,All Bar One,,E09000001,44-46 Ludgate Hll,London,St Paul’s,Farringdon Within,E05009304,-0.10020539578047878,531813.0001221001,51.5134676137043,181158.00012210011,City of London,Pubs,E09000001,11/27/2022
City and County of the City of London,,Saint,,E09000001,"Rose Street, Paternoster Square",London,St Paul’s,Bread Street,E05009293,-0.0982147706118654,531948.0001221001,51.51454156106492,181281.00012210011,City of London,Pubs,E09000001,11/27/2022
City and County of the City of London,,Happenstance,,E09000001,10 Paternoster Square,London,St Paul’s,Bread Street,E05009293,-0.09748800155497891,531999.0001221001,51.51434090723419,181260.00012210011,City of London,Pubs,E09000001,11/27/2022
City and County of the City of London,,Paternoster Chop House,,E09000001,"Warwick Court, 3 Paternoster Square",London,St Paul’s,Bread Street,E05009293,-0.09748800155497891,531999.0001221001,51.51434090723419,181260.00012210011,City of London,Pubs,E09000001,11/27/2022
City and County of the City of London,,Paternoster,,E09000001,2-4 Queens Head Passage,London,St Paul’s,Bread Street,E05009293,-0.09686186299949179,532042.0001221001,51.51449263238547,181278.00012210011,City of London,Pubs,E09000001,11/27/2022
City and County of the City of London,,Magpie & Stump,,E09000001,18 Old Bailey,London,St Paul’s,Farringdon Within,E05009304,-0.10087553324888673,531761.0001221001,51.515376116676215,181369.00012210011,City of London,Pubs,E09000001,11/27/2022
City and County of the City of London,,Jamies,,E09000001,47 Ludgate Hill,London,St Paul’s,Farringdon Within,E05009304,-0.10098696547106567,531759.0001221001,51.51339033666437,181148.00012210011,City of London,Pubs,E09000001,11/27/2022
City and County of the City of London,,Fleet Place,,E09000001,1 Fleet Place,London,St Paul’s,Farringdon Within,E05009304,-0.10198603661254611,531683.0001221001,51.515708870810975,181404.00012210011,City of London,Pubs,E09000001,11/27/2022
City and County of the City of London,,Little Fable,,E09000001,3 Fleet Place,London,St Paul’s,Farringdon Within,E05009304,-0.10241681297708385,531656.0001221001,51.51470855964523,181292.00012210011,City of London,Pubs,E09000001,11/27/2022
City and County of the City of London,,Dion,,E09000001,"Paternoster House, 65 St Pauls Churchyard",London,St Paul’s,Bread Street,E05009293,-0.0966845542043357,532056.0001221001,51.51390517076707,181213.00012210011,City of London,Pubs,E09000001,11/27/2022
City and County of the City of London,,Vinyl Bar,,E09000001,2-3 Old Change Court,London,St Paul’s,Bread Street,E05009293,-0.09584139236884491,532120.0001221001,51.51200282647374,181003.00012210011,City of London,Pubs,E09000001,11/27/2022
City and County of the City of London,,Bread Street Kitchen & Bar,,E09000001,10 Bread Strreet,London,St Paul’s,Bread Street,E05009293,-0.09337150114544694,532289.0001221001,51.51281708805591,181098.00012210011,City of London,Pubs,E09000001,11/27/2022
City and County of the City of London,,Popworld,,E09000001,17 Watling Street,London,St Paul’s,Cordwainer,E05009300,-0.09294876597803707,532319.0001221001,51.51258537406876,181073.00012210011,City of London,Pubs,E09000001,11/27/2022
City and County of the City of London,,Pavilion End,,E09000001,23 Watling Street,London,St Paul’s,Cordwainer,E05009300,-0.09236120879537524,532360.0001221001,51.51250386877715,181065.00012210011,City of London,Pubs,E09000001,11/27/2022
City and County of the City of London,,Juno Rooms,,E09000001,67-69 Watling Street,London,St Paul’s,Cordwainer,E05009300,-0.0916846009434772,532407.0001221001,51.5124838667009,181064.00012210011,City of London,Pubs,E09000001,11/27/2022
City and County of the City of London,,Olde Watling,,E09000001,29 Watling Street,London,St Paul’s,Cordwainer,E05009300,-0.0917498588781783,532402.0001221001,51.512646813574506,181082.00012210011,City of London,Pubs,E09000001,11/27/2022
City and County of the City of London,,Williamsons Tavern,,E09000001,1 Groveland Court,London,St Paul’s,Cordwainer,E05009300,-0.09217747071575447,532372.0001221001,51.51276169435558,181094.00012210011,City of London,Pubs,E09000001,11/27/2022
City and County of the City of London,,Four Sisters Townhouse,,E09000001,"5 Groveland Court, Bow Lane",London,St Paul’s,Cordwainer,E05009300,-0.09217747071575447,532372.0001221001,51.51276169435558,181094.00012210011,City of London,Pubs,E09000001,11/27/2022
City and County of the City of London,,Fine Line,,E09000001,1 Bow Churchyard,London,St Paul’s,Cordwainer,E05009300,-0.092890675333753,532321.0001221001,51.51328593068492,181151.00012210011,City of London,Pubs,E09000001,11/27/2022
City and County of the City of London,,Golden Fleece,,E09000001,9 Queen Street,London,Mansion House,Cordwainer,E05009300,-0.09095162916874477,532457.0001221001,51.512777719491474,181098.00012210011,City of London,Pubs,E09000001,11/27/2022
City and County of the City of London,,Core Bar,,E09000001,"Aldermary House, 10-15 Queen Street,",London,Mansion House,Cordwainer,E05009300,-0.0910652335532815,532450.0001221001,51.512473786113866,181064.00012210011,City of London,Pubs,E09000001,11/27/2022
City and County of the City of London,,Sea Horse,,E09000001,64 Queen Victoria Street,London,Mansion House,Cordwainer,E05009300,-0.09196302663353745,532389.0001221001,51.51202972314757,181013.00012210011,City of London,Pubs,E09000001,11/27/2022
City and County of the City of London,,Sugar Loaf,,E09000001,65 Cannon Street,London,Mansion House,Cordwainer,E05009300,-0.0913238750478079,532434.0001221001,51.511803475351584,180989.00012210011,City of London,Pubs,E09000001,11/27/2022
City and County of the City of London,,Cannick Tapps,,E09000001,109 Cannon Street,London,Mansion House,Walbrook,E05009312,-0.08816813908777203,532655.0001221001,51.511095535802255,180916.00012210011,City of London,Pubs,E09000001,11/27/2022
City and County of the City of London,,Candlemaker,,E09000001,"Walbrook Building, 99 Cannon Street",London,Cannon Street,Walbrook,E05009312,-0.08868177173264638,532619.0001221001,51.51122082549679,180929.00012210011,City of London,Pubs,E09000001,11/27/2022
City and County of the City of London,,All Bar One,,E09000001,103 Cannon Street,London,Mansion House,Walbrook,E05009312,-0.08833985137620001,532643.0001221001,51.51112531597396,180919.00012210011,City of London,Pubs,E09000001,11/27/2022
City and County of the City of London,,Vintry,,E09000001,Sherborne La,London,Mansion House,Candlewick,E05009296,-0.08705182655095384,532733.0001221001,51.51090645234685,180897.00012210011,City of London,Pubs,E09000001,11/27/2022
City and County of the City of London,,Sir John Hawkshaw,,E09000001,London Cannon Street Station,Cannon Street,,Dowgate,E05009303,-0.08867252867865896,532621.0001221001,51.51075300690907,180877.00012210011,City of London,Pubs,E09000001,11/27/2022
City and County of the City of London,,Pelt Trader,,E09000001,"Arch 3, Dowgate Hill",Cannon Street,,Dowgate,E05009303,-0.08867252867865896,532621.0001221001,51.51075300690907,180877.00012210011,City of London,Pubs,E09000001,11/27/2022
City and County of the City of London,,Tappit Hen,,E09000001,21-23 St Swithens Lane,Bank,,Candlewick,E05009296,-0.08722175069071827,532720.0001221001,51.51132293047101,180943.00012210011,City of London,Pubs,E09000001,11/27/2022
City and County of the City of London,,Brigadiers,,E09000001,1-5 Bloomberg Arcade,Cannon Street,,Cordwainer,E05009300,-0.08984556119230777,532537.0001221001,51.51165349421064,180975.00012210011,City of London,Pubs,E09000001,11/27/2022
City and County of the City of London,,Bell,,E09000001,29 Bush Lane,London,Cannon Street,Dowgate,E05009303,-0.088014766515304,532668.0001221001,51.510283609861034,180826.00012210011,City of London,Pubs,E09000001,11/27/2022
City and County of the City of London,,Oyster Shed,,E09000001,1 Angel Lane,London,Cannon Street,Dowgate,E05009303,-0.08782835231573781,532684.0001221001,51.50922831713499,180709.00012210011,City of London,Pubs,E09000001,11/27/2022
City and County of the City of London,,Banker,,E09000001,Cousin Lane,London,Cannon Street,Dowgate,E05009303,-0.09013807170286262,532524.0001221001,51.50914004677469,180695.00012210011,City of London,Pubs,E09000001,11/27/2022
City and County of the City of London,,City Bar,,E09000001,The Steel Yard. 13-16 Allhallows Lane,London,Cannon Street,Dowgate,E05009303,-0.088956021125497,532605.0001221001,51.509489527466414,180736.00012210011,City of London,Pubs,E09000001,11/27/2022
City and County of the City of London,,Three Cranes,,E09000001,28 Garlick Hill,London,Blackfriars,Vintry,E05009311,-0.09215802938377993,532377.0001221001,51.51150227287731,180954.00012210011,City of London,Pubs,E09000001,11/27/2022
City and County of the City of London,,Samuel Pepys,,E09000001,"Stew Lane , High Timber Street",London,Blackfriars,Queenhithe,E05009309,-0.09448841136360124,532220.0001221001,51.50988533901751,180770.00012210011,City of London,Pubs,E09000001,11/27/2022
City and County of the City of London,,Northbank,,E09000001,1 St Paul’s Walk,London,Blackfriars,Queenhithe,E05009309,-0.0957180829354672,532134.0001221001,51.51012116055417,180794.00012210011,City of London,Pubs,E09000001,11/27/2022
City and County of the City of London,,Rudds,,E09000001,148 Queen Victoria Street,London,Blackfriars,Castle Baynard,E05009297,-0.09993113481174616,531837.0001221001,51.51174539296081,180967.00012210011,City of London,Pubs,E09000001,11/27/2022
City and County of the City of London,,Black Friar,,E09000001,174 Queen Victoria Street,Blackfriars,,Castle Baynard,E05009297,-0.10233257209099474,531673.0001221001,51.51083995035583,180862.00012210011,City of London,Pubs,E09000001,11/27/2022
City and County of the City of London,,Centre Page,,E09000001,29-33 Knightrider Street,London,Blackfriars,Castle Baynard,E05009297,-0.09695385551011404,532043.0001221001,51.5119399424574,180994.00012210011,City of London,Pubs,E09000001,11/27/2022
City and County of the City of London,,Cockpit,,E09000001,7 St Andrew's Hill,London,Blackfriars,Farringdon Within,E05009304,-0.09970067927826279,531851.0001221001,51.5124341659105,181044.00012210011,City of London,Pubs,E09000001,11/27/2022
City and County of the City of London,,Shaw's Booksellers,,E09000001,31-34 St Andrews Hill,London,Blackfriars,Castle Baynard,E05009297,-0.09990588428899014,531838.0001221001,51.51200579822466,180996.00012210011,City of London,Pubs,E09000001,11/27/2022
City and County of the City of London,,Rising Sun,,E09000001,61 Carter Lane,London,Blackfriars,Farringdon Within,E05009304,-0.09979365169584135,531844.0001221001,51.51262453803109,181065.00012210011,City of London,Pubs,E09000001,11/27/2022
City and County of the City of London,,Patch Bar,,E09000001,58-60 Carter Street,London,Blackfriars,Farringdon Within,E05009304,-0.10001775758290231,531828.0001221001,51.51278106034829,181082.00012210011,City of London,Pubs,E09000001,11/27/2022
City and County of the City of London,,Albion,,E09000001,2-4 New Bridge Street,London,Blackfriars,Castle Baynard,E05009297,-0.10296520580709442,531622.0001221001,51.513305437815724,181135.00012210011,City of London,Pubs,E09000001,11/27/2022
City and County of the City of London,,St Brides Tavern,,E09000001,1 Bridewell Place,London,Blackfriars,Castle Baynard,E05009297,-0.10309628240188569,531615.0001221001,51.51257907695589,181054.00012210011,City of London,Pubs,E09000001,11/27/2022
City and County of the City of London,,El Vino,,E09000001,30 New Bridge Street,London,Blackfriars,Farringdon Within,E05009304,-0.1024534949319358,531661.0001221001,51.51209201713687,181001.00012210011,City of London,Pubs,E09000001,11/27/2022
City and County of the City of London,,Camino,,E09000001,33 Blackfriars Lane,London,Blackfriars,Farringdon Within,E05009304,-0.1016931141618227,531712.0001221001,51.512700269041424,181070.00012210011,City of London,Pubs,E09000001,11/27/2022
City and County of the City of London,,Jamies,,E09000001,36 Tudor Street,London,Fleet Street,Castle Baynard,E05009297,-0.10544866536176145,531455.0001221001,51.51146592458239,180926.00012210011,City of London,Pubs,E09000001,11/27/2022
City and County of the City of London,,Olde Cock Tavern,,E09000001,22 Fleet Street,London,Temple,Farringdon Without,E05009305,-0.10886102782339213,531213.0001221001,51.51329274077352,181123.00012210011,City of London,Pubs,E09000001,11/27/2022
City and County of the City of London,,Punch Tavern,,E09000001,99 Fleet Street,London,Temple,Castle Baynard,E05009297,-0.10325724022573927,531601.0001221001,51.513561982199754,181163.00012210011,City of London,Pubs,E09000001,11/27/2022
City and County of the City of London,,Old Bell,,E09000001,95 Fleet Street,London,Temple,Castle Baynard,E05009297,-0.10386222241335487,531559.0001221001,51.513571765664736,181163.00012210011,City of London,Pubs,E09000001,11/27/2022
City and County of the City of London,,Tipperary,,E09000001,66 Fleet Street,London,Temple,Castle Baynard,E05009297,-0.10602324871612905,531409.0001221001,51.5135976935848,181162.00012210011,City of London,Pubs,E09000001,11/27/2022
City and County of the City of London,,Hack & Hop,,E09000001,35 Whitefriars Street,London,Fleet Street,Castle Baynard,E05009297,-0.10572523189988493,531430.0001221001,51.51348495700709,181150.00012210011,City of London,Pubs,E09000001,11/27/2022
City and County of the City of London,,Crown & Sugar Loaf,,E09000001,26 Bride Lane,London,Temple,Castle Baynard,E05009297,-0.10340763071661078,531591.0001221001,51.5134115234414,181146.00012210011,City of London,Pubs,E09000001,11/27/2022
City and County of the City of London,,Harrow,,E09000001,22 Whitefriars Street,London,Fleet Street,Castle Baynard,E05009297,-0.1051653846490393,531472.0001221001,51.51238768779086,181029.00012210011,City of London,Pubs,E09000001,11/27/2022
City and County of the City of London,,Pregnant Man,,E09000001,40 Chancery Lane,Chancery Lane,,Farringdon Without,E05009305,-0.1105943097105444,531085.0001221001,51.51599177365065,181420.00012210011,City of London,Pubs,E09000001,11/27/2022
City and County of the City of London,http://www.holmes-wood.com,The Holmes Wood Consultancy Limited,200000000000,E09000001,1 Monkwell Square,,,Cripplegate,E05009302,-0.09297085608316066,532302.7200927958,51.5176742239998,181638.79010009766,City of London,Set and exhibition building,E09000001,11/27/2022
City of London,https://www.fablablondon.org,FabLab London,100022934179,E09000001,1 Frederick?s Place,,,Cheap,E05009298,-0.08961352789050107,532547.0001221001,51.51375421935043,181209.00012210011,City of London,Textile design,E09000001,11/27/2022
City and County of the City of London,http://www.sbf.org.uk/venue-hire/bridewell-theatre/,Bridewell Theatre,95511225,E09000001,14 Bride Ln, Fleet St,NA,Castle Baynard,E05009297,-0.10660338919514775,531256.1807636346,51.51401961793313,181261.83096171508,City of London,Theatres,E09000001,11/27/2022
City and County of the City of London,https://www.barbican.org.uk/hire/venue-hire/venues/milton-court-concert-hall,Milton Court,95511391,E09000001,1 Milton Street,NA,NA,Cripplegate,E05009302,-0.09268289830907035,532202.9121104548,51.52054718619129,182012.64555071894,City of London,Theatres,E09000001,11/27/2022
City and County of the City of London,https://www.cityoflondonschool.org.uk/school-life/drama/winterflood-theatre,Winterflood Theatre,100023000000,E09000001,City of London School, Queen Victoria Street,NA,Castle Baynard,E05009297,-0.10094509503775877,531655.8462033257,51.51153824416853,180996.12707579066,City of London,Theatres,E09000001,11/27/2022
City and County of the City of London,http://londontheatreworkshop.co.uk/,London Theatre Workshop,200000000000,E09000001,88 Gracechurch Street Leadenhall Market,NA,NA,Cornhill,E05009301,-0.08576441669209044,532703.7000459081,51.51334896595911,181224.88174840284,City of London,Theatres,E09000001,11/27/2022
