borough_name,website,site_name,os_addressbase_uprn,borough_code,address1,address2,address3,ward_2018_name,ward_2018_code,longitude,easting,latitude,northing,BOROUGH,Cultural Venue Type,gss_code,runtime
Croydon,http://www.spurgeons.ac.uk/,Spurgeon's College,100023000000,E09000008,189 South Norwood Hill,,,Thornton Heath,E05011486,-0.08620250362051099,532984.0190699238,51.40643281567134,169337.341730293,Croydon,Archives,E09000008,11/27/2022
Croydon,https://www.ageuk.org.uk/,Age Concern,200001000000,E09000008,National Old People's Welfare Council ,Astral House ,1268 London Road,Norbury & Pollards Hill,E05011472,-0.12052153085368081,530596.6525512959,51.406835526311106,169320.3596263519,Croydon,Archives,E09000008,11/27/2022
Croydon,www.turf-projects.com,,200000000000,E09000008,"46/47 Trinity Court (Ground Floor),","Whitgift Shopping Centre,",,Fairfield,E05011468,-0.0990104138512229,532180.1841605377,51.37635390109545,165970.14209868602,Croydon,Artists workspaces,E09000008,11/27/2022
Croydon,https://fairfield.co.uk/,Fairfield Halls ,100022917675,E09000008,Park Ln,,,Fairfield,E05011468,-0.09577807383074295,532416.1482631542,51.3725243869017,165550.2287229956,Croydon,Arts centres,E09000008,11/27/2022
Croydon,,David Lean Cinema,200001222331,E09000008,,Katherine St,,Fairfield,E05011468,-0.09740406003535503,532417.0001221001,51.37163655625374,165393.00012210011,Croydon,Cinemas,E09000008,11/27/2022
Croydon,,Vue Croydon,010001004802,E09000008,,14 High St,,Fairfield,E05011468,-0.09948180925774962,532270.0001221001,51.37247073348183,165482.00012210011,Croydon,Cinemas,E09000008,11/27/2022
Croydon,,Vue Croydon Purley Way,100022906148,E09000008,Valley Park Leisure Complex,21 Hesterman Way,,Broad Green,E05011465,-0.1229244685812439,530624.0001221001,51.377597443985955,166010.00012210011,Croydon,Cinemas,E09000008,11/27/2022
Croydon,,The Eagle Community Centre,100022902578,E09000008,52 Tamworth Road,Croydon,NA,Broad Green,E05000149,-0.10368260097368151,531974.0001221001,51.37374398241961,165616.00012210011,Croydon,Community centres,E09000008,11/27/2022
Croydon,https://coulsdoncommunitycentre.co.uk/,Coulsdon Community Centre,200001205739,E09000008,Chipstead Valley Road,Croydon,NA,Coulsdon West,E05000151,-0.14612375152127183,529173.0001221001,51.319498382534256,159509.00012210011,Croydon,Community centres,E09000008,11/27/2022
Croydon,http://shirleycca.com/,Shirley Community Centre,200001209094,E09000008,28 Shrublands Avenue,Croydon,NA,Shirley,E05000163,-0.029181674169054445,537174.0001221001,51.36853889515169,165174.00012210011,Croydon,Community centres,E09000008,11/27/2022
Croydon,http://www.selsdonhall.co.uk/,Selsdon Community Centre,10001005673,E09000008,132 Addington Road,Croydon,NA,Selsdon and Ballards,E05000162,-0.06087049840259986,535047.0001221001,51.34186137619068,162149.00012210011,Croydon,Community centres,E09000008,11/27/2022
Croydon,,Kenley Memorial Home,10014051997,E09000008,92 Godstone Road,Croydon,NA,Kenley,E05000156,-0.09784377552753282,532522.0001221001,51.32461498014396,160164.00012210011,Croydon,Community centres,E09000008,11/27/2022
Croydon,,Polish Community Centre,100023260702,E09000008,6 Oliver Grove,Croydon,NA,South Norwood,E05000164,-0.07575149254076448,533846.0001221001,51.39830923101562,168398.00012210011,Croydon,Community centres,E09000008,11/27/2022
Croydon,,Forestdale Residents Association,100023534438,E09000008,1 Bardolph Avenue,Croydon,NA,Heathfield,E05000155,-0.040674599841900805,536441.0001221001,51.34603115723535,162650.00012210011,Croydon,Community centres,E09000008,11/27/2022
Croydon,,Stanley Halls,100023536211,E09000008,South Norwood Hill,Croydon,NA,South Norwood,E05000164,-0.07372191667241054,533983.0001221001,51.399732872447665,168560.00012210011,Croydon,Community centres,E09000008,11/27/2022
Croydon,https://www.facebook.com/pages/Croydon-Irish-Centre/268144163317357,Croydon Irish Centre,200001206471,E09000008,29 Broadcoombe,Croydon,NA,Heathfield,E05000155,-0.05000396746533526,535780.0001221001,51.349883358297824,163061.00012210011,Croydon,Community centres,E09000008,11/27/2022
Croydon,,Phoenix Community Centre,200001210656,E09000008,66 Westow Street,Croydon,NA,Upper Norwood,E05000166,-0.08046508429702295,533464.0001221001,51.41690471482933,170457.00012210011,Croydon,Community centres,E09000008,11/27/2022
Croydon,https://www.sanderstead-parish.org.uk/halls,Sanderstead Parish Halls,200001212654,E09000008,Purley Oaks Road,Croydon,NA,Sanderstead,E05000160,-0.09292228319311309,532807.0001221001,51.34462718871125,162398.00012210011,Croydon,Community centres,E09000008,11/27/2022
Croydon,https://www.3va.org.uk/sites/default/files/AmicusHorizon%20Free%20Community%20Space%20Poster.pdf,Whytecliffe Community Space,200001215573,E09000008,Whytecliffe Community Space,Whytecliffe Road South,Purley,Purley,E05000159,-0.11178469141096321,531511.0001221001,51.33852923359895,161686.00012210011,Croydon,Community centres,E09000008,11/27/2022
Croydon,http://matthewsyard.com,Matthews Yard,10090382144,E09000008,Matthews Yard,1 Matthews Yard,Off Surrey Street,Fairfield,E05011468,-0.09951642784834049,532270.0001221001,51.371634872541,165389.00012210011,Croydon,Creative co-working desk space,E09000008,11/27/2022
Croydon,http://www.harrispurley.org.uk,Harris Academy Purley,100022910696,E09000008,Kendra Hall Road,,,Purley Oaks & Riddlesdown,E05011477,-0.1093161602539145,531529.4222823388,51.35324715448375,163382.67538138083,Croydon,Dance performance venues,E09000008,11/27/2022
Croydon,https://fairfield.co.uk,Fairfield Hall (closed for refurbishment),,,71 Park Lane,,,,,-0.09577807383074295,532416.1482631542,51.3725243869017,165550.2287229956,Croydon,Dance performance venues,E09000008,11/27/2022
Croydon,http://www.matthewsyard.com/venue/theatre-utopia/,Theatre Utopia,10090382144,E09000008,1 Matthews Yard,,,Fairfield,E05011468,-0.10109493638912355,532047.230527503,51.372161063868425,165500.23737080558,Croydon,Dance performance venues,E09000008,11/27/2022
Croydon,http://www.antennastudios.co.uk,Antenna Studios,10090383277,E09000008,1 Bewardine Road,,,Crystal Palace & Upper Norwood,E05011467,-0.0832284037954456,533156.9812106132,51.418065613337966,170636.0175579104,Croydon,Dance rehearsal studios,E09000008,11/27/2022
Croydon,http://croydondanceacademy.com,The Croydon Dance Academy,,,68-74 Church Street,,,,,-0.10370062726075861,531861.267505215,51.37377700756415,165675.19629164512,Croydon,Dance rehearsal studios,E09000008,11/27/2022
Croydon,http://www.harrispurley.org.uk,Harris Academy Purley,100022910696,E09000008,Kendra Hall Road,,,Purley Oaks & Riddlesdown,E05011477,-0.1093161602539145,531529.4222823388,51.35324715448375,163382.67538138083,Croydon,Dance rehearsal studios,E09000008,11/27/2022
Croydon,https://fairfield.co.uk,Fairfield Hall (closed for refurbishment),,,71 Park Lane,,,,,-0.09577807383074295,532416.1482631542,51.3725243869017,165550.2287229956,Croydon,Dance rehearsal studios,E09000008,11/27/2022
Croydon,http://www.matthewsyard.com/venue/theatre-utopia/,Theatre Utopia,10090382144,E09000008,1 Matthews Yard,,,Fairfield,E05011468,-0.10109493638912355,532047.230527503,51.372161063868425,165500.23737080558,Croydon,Dance rehearsal studios,E09000008,11/27/2022
Croydon,http://www.pewterhooter.com,Pewterhooter Limited,10001008182,E09000008,16 South End,Croydon,,Fairfield,E05011468,-0.09771636963898334,532411.0001221001,51.36618239323503,164786.00012210011,Croydon,Jewellery design,E09000008,11/27/2022
Croydon,,Sole of London Ltd,200001186406,E09000008,D S House,306 High Street,,Fairfield,E05011468,-0.097824393239765,532400.0001221001,51.36738931686354,164920.00012210011,Croydon,Jewellery design,E09000008,11/27/2022
Croydon,http://www.unique-rings.co.uk,Unique Rings Ltd,10091905646,E09000008,Progress House,404 Brighton Road,,South Croydon,E05011484,-0.09902645431202833,532368.0001221001,51.34946617923156,162925.00012210011,Croydon,Jewellery design,E09000008,11/27/2022
Croydon,,Bradmore Green,200001206439,E09000008,Bradmore Way,Coulsdon,,Old Coulsdon,E05011474,-0.1224049401972604,530861.0001221001,51.307032707199774,158165.00012210011,Croydon,Libraries,E09000008,11/27/2022
Croydon,,Coulsdon,100023534265,E09000008,Brighton Road,Coulsdon,,Coulsdon Town,E05011466,-0.137096790433257,529802.0001221001,51.31947202964364,159522.00012210011,Croydon,Libraries,E09000008,11/27/2022
Croydon,,Purley,200001215992,E09000008,Banstead Road,Purley,,Purley & Woodcote,E05011476,-0.11709401162238918,531141.0001221001,51.338614721070485,161686.00012210011,Croydon,Libraries,E09000008,11/27/2022
Croydon,,Sanderstead,200001205396,E09000008,Farm Fields,South Croydon,,Sanderstead,E05011478,-0.08395529727640097,533444.0001221001,51.34028968819036,161932.00012210011,Croydon,Libraries,E09000008,11/27/2022
Croydon,,New Addington,100023534498,E09000008,Central Parade,Croydon,,New Addington South,E05011471,-0.014765878040715304,538262.0001221001,51.340396323261224,162072.00012210011,Croydon,Libraries,E09000008,11/27/2022
Croydon,,Selsdon,10014054952,E09000008,Addington Road,South Croydon,,Selsdon Vale & Forestdale,E05011481,-0.06076701242176913,535054.0001221001,51.34193161356677,162157.00012210011,Croydon,Libraries,E09000008,11/27/2022
Croydon,,Croydon central library,100022917682,E09000008,Katharine Street,Croydon,,Fairfield,E05011468,-0.09793181334586268,532381.0001221001,51.37138430716383,165364.00012210011,Croydon,Libraries,E09000008,11/27/2022
Croydon,,Shirley,100022908481,E09000008,Wickham Road,Croydon,,Shirly South,E05011483,-0.043548173564480784,536156.0001221001,51.37465273225755,165827.00012210011,Croydon,Libraries,E09000008,11/27/2022
Croydon,,Ashburton,10014052814,E09000008,Shirley Road,Croydon,,Addiscombe East,E05011462,-0.06153670583075942,534881.0001221001,51.38255158470818,166672.00012210011,Croydon,Libraries,E09000008,11/27/2022
Croydon,,Broad Green,10000104509,E09000008,Canterbury Road,Croydon,,Broad Green,E05011465,-0.11555575914506366,531116.0001221001,51.38485402043681,166830.00012210011,Croydon,Libraries,E09000008,11/27/2022
Croydon,,Thornton Heath,200001206453,E09000008,Brigstock Road,Thornton Heath,,Bensham Manor,E05011464,-0.103997406361376,531887.0001221001,51.396377400149674,168132.00012210011,Croydon,Libraries,E09000008,11/27/2022
Croydon,,South Norwood,200001210571,E09000008,Lawrence Road,,,South Norwood,E05011485,-0.07712418634832761,533755.0001221001,51.39677584391663,168225.00012210011,Croydon,Libraries,E09000008,11/27/2022
Croydon,,Norbury,100023319420,E09000008,Beatrice Avenue,,,Norbury & Pollards Hill,E05011472,-0.11905284858474778,530815.0001221001,51.40507418218729,169072.00012210011,Croydon,Libraries,E09000008,11/27/2022
Croydon,https://www.foxumbrellas.com,Fox Umbrellas Limited,1.00023E+11,E09000008,240A Wickham Road,,,Heathfield,E05000155,-0.04574412692919908,536005.0001221001,51.37404183209142,165755.00012210011,Croydon,Making and manufacturing,E09000008,11/27/2022
Croydon,http://www.museumofcroydon.com/,Museum of Croydon,100022917682,E09000008,Central Library,Croydon Clocktower,Katharine Street,Fairfield,E05011468,-0.09793181334586268,532381.0001221001,51.37138430716383,165364.00012210011,Croydon,Museums and public galleries,E09000008,11/27/2022
Croydon,,J/fly Publishing Ltd,100000000000,E09000008,33 The Ridge,Croydon,,Coulsdon Town,E05011466,-0.13323264605445959,530053.000122197,51.32591301924704,160245.00012159348,Croydon,Music (office based businesses),E09000008,11/27/2022
Croydon,,Dance Party Records Ltd,100000000000,E09000008,78 Warham Road,Croydon,,Waddon,E05011487,-0.10337012668517624,532029.000122197,51.36218189971924,164331.00012159348,Croydon,Music (office based businesses),E09000008,11/27/2022
Croydon,,The World Is Yours Records Ltd,100000000000,E09000008,35 Prince Road,Croydon,,South Norwood,E05011485,-0.08440236593271054,533253.000122197,51.3953211608914,168050.00012159348,Croydon,Music (office based businesses),E09000008,11/27/2022
Croydon,,Black Am I Records Ltd,100000000000,E09000008,16 Penge Road,Croydon,,South Norwood,E05011485,-0.0693451926912877,534283.000122197,51.401234744410175,168735.00012159348,Croydon,Music (office based businesses),E09000008,11/27/2022
Croydon,,Mrlr Ltd,100000000000,E09000008,9 Hamilton Road,Croydon,,Thornton Heath,E05011486,-0.09395119912718684,532566.000122197,51.403211535185996,168910.00012159348,Croydon,Music (office based businesses),E09000008,11/27/2022
Croydon,,Grape Records Music Ltd,100000000000,E09000008,88 Queen Mary Road,Croydon,,Crystal Palace & Upper Norwood,E05011467,-0.1017714944591345,531971.000122197,51.420966213744826,170870.00012159348,Croydon,Music (office based businesses),E09000008,11/27/2022
Croydon,http://piratestudios.co.uk,Pirate Studios - Croydon Production Studios,,,"Unit 8, New South Quarter, Purley Way",,,,,-0.11422706865750488,531240.8561275974,51.37352068915209,165572.24538249522,Croydon,Music recording studios,E09000008,11/27/2022
Croydon,http://piratestudios.co.uk,Pirate Studios - Croydon DJ Studios,,,"Unit 8, New South Quarter",Purley Way,,,,-0.11422704236674013,531240.8493995965,51.37352368133475,165572.57812449336,Croydon,Music rehearsal studios,E09000008,11/27/2022
Croydon,www.screamstudios.net,Scream Studios,100000000000,E09000008,20a South End,Croydon,,Fairfield,E05011468,-0.09772046727812453,532411.000122197,51.36608352795992,164775.00012159348,Croydon,Music rehearsal studios,E09000008,11/27/2022
Croydon,www.antennastudios.co.uk,Antenna Studios,10090383277,E09000008,Bowyers Yard Haynes Lane,Croydon,,Crystal Palace & Upper Norwood,E05011467,-0.08164651174864841,533380.000122197,51.417544631126724,170526.00012159348,Croydon,Music rehearsal studios,E09000008,11/27/2022
Croydon,,Earl Of Eldon,100000000000,E09000008,63 Brighton Road,Croydon,,South Croydon,E05011484,-0.09594522821591386,532555.000122197,51.35900353733978,163991.00012159348,Croydon,Music venues (all),E09000008,11/27/2022
Croydon,,Scream Lounge,100000000000,E09000008,20 South End,Croydon,,Fairfield,E05011468,-0.09772046727812453,532411.000122197,51.36608352795992,164775.00012159348,Croydon,Music venues (all),E09000008,11/27/2022
Croydon,www.royalstandardcroydon.co.uk,Royal Standard,100000000000,E09000008,1 Sheldon Street,Croydon,,Fairfield,E05011468,-0.10001153299102929,532242.000122197,51.369394456113554,165139.00012159348,Croydon,Music venues (all),E09000008,11/27/2022
Croydon,,The Soulful Cellar,200000000000,E09000008,90 High Street,Croydon,,Fairfield,E05011468,-0.09875170962792135,532328.000122197,51.3699765984302,165206.00012159348,Croydon,Music venues (all),E09000008,11/27/2022
Croydon,www.shippub.co.uk,Ship,200000000000,E09000008,47 High Street,Croydon,,Fairfield,E05011468,-0.09848699749884317,532342.000122197,51.37151024035408,165377.00012159348,Croydon,Music venues (all),E09000008,11/27/2022
Croydon,,Matthews Yard,10090382144,E09000008,1 Matthews Yard,Croydon,,Fairfield,E05011468,-0.09951642784713824,532270.000122197,51.371634872536426,165389.00012159348,Croydon,Music venues (all),E09000008,11/27/2022
Croydon,,Tiger Tiger,10014052022,E09000008,16 High Street,Croydon,,Fairfield,E05011468,-0.09920896958873064,532289.000122197,51.37246630638366,165482.00012159348,Croydon,Music venues (all),E09000008,11/27/2022
Croydon,,Project B,10090380116,E09000008,1 Bell Hill,Croydon,,Fairfield,E05011468,-0.09957844966639204,532262.000122197,51.372912997151616,165531.00012159348,Croydon,Music venues (all),E09000008,11/27/2022
Croydon,,Boxpark Croydon,10093049119,E09000008,Boxpark Croydon 99,George Street,Croydon,Fairfield,E05011468,-0.09211761373814116,532777.000122197,51.374365629802334,165706.00012159348,Croydon,Music venues (all),E09000008,11/27/2022
Croydon,www.theovaltavern.co.uk,Oval Tavern,100000000000,E09000008,131 Oval Road,Croydon,,Addiscombe West,E05011463,-0.08603939479436525,533190.000122197,51.37780103705135,166099.00012159348,Croydon,Music venues (all),E09000008,11/27/2022
Croydon,www.buildersarmscroydon.co.uk,Builders Arms,100000000000,E09000008,65 Leslie Park Road,Croydon,,Addiscombe West,E05011463,-0.08426534518235256,533310.000122197,51.37898620052631,166234.00012159348,Croydon,Music venues (all),E09000008,11/27/2022
Croydon,www.thewhitehartse19.co.uk,The White Hart,100000000000,E09000008,96 Church Road,Croydon,,Crystal Palace & Upper Norwood,E05011467,-0.0797974293437279,533511.000122197,51.41670490695405,170436.00012159348,Croydon,Music venues (all),E09000008,11/27/2022
Croydon,,Numidie Bar And Bistro,100000000000,E09000008,48 Westow Hill,Croydon,,Crystal Palace & Upper Norwood,E05011467,-0.07939535712186051,533532.000122197,51.419090655515134,170702.00012159348,Croydon,Music venues (all),E09000008,11/27/2022
Croydon,www.raprops.com,Robert Allsopp,1.00023E+11,E09000008,4 Woodside Ave,,,Woodside,E05000169,-0.06480689917862842,534629.0001221001,51.39088895367964,167593.00012210011,Croydon,Prop and costume making,E09000008,11/27/2022
Croydon,https://www.foxumbrellas.com,Fox Umbrellas Limited,1.00023E+11,E09000008,240A Wickham Road,,,Heathfield,E05000155,-0.04574412692919908,536005.0001221001,51.37404183209142,165755.00012210011,Croydon,Prop and costume making,E09000008,11/27/2022
Croydon,,Man on the Moon,,E09000008,"112 Headley Drive, New Addington",Croydon,,New Addington North,E05011470,-0.016464178378757435,538110.0001221001,51.351613543780736,163316.00012210011,Croydon,Pubs,E09000008,11/27/2022
Croydon,,Keg & Grill,,E09000008,1 South End,Croydon,,South Croydon,E05011484,-0.09716294059798888,532449.0001221001,51.36636227368397,164807.00012210011,Croydon,Pubs,E09000008,11/27/2022
Croydon,,Joker,,E09000008,73 South End,Croydon,,South Croydon,E05011484,-0.09714257261890803,532454.0001221001,51.3651207979905,164669.00012210011,Croydon,Pubs,E09000008,11/27/2022
Croydon,,Obia Bar & Grill,,E09000008,49c South End,Croydon,,South Croydon,E05011484,-0.09714257261890803,532454.0001221001,51.3651207979905,164669.00012210011,Croydon,Pubs,E09000008,11/27/2022
Croydon,,Surrey Cricketers,,E09000008,23 West Street,Croydon,,Fairfield,E05011468,-0.09900608802473779,532317.0001221001,51.36765133375529,164947.00012210011,Croydon,Pubs,E09000008,11/27/2022
Croydon,,Apatura Lounge Restaurant,,E09000008,14 South End,Croydon,,Fairfield,E05011468,-0.09758809419184937,532419.0001221001,51.36650408673627,164822.00012210011,Croydon,Pubs,E09000008,11/27/2022
Croydon,,Scream Lounge,,E09000008,20 South End,Croydon,,Fairfield,E05011468,-0.09771095197980939,532412.0001221001,51.36596645400432,164762.00012210011,Croydon,Pubs,E09000008,11/27/2022
Croydon,,Treehouse,,E09000008,78 South End,Croydon,,Fairfield,E05011468,-0.09767045381416219,532417.0001221001,51.365210316861365,164678.00012210011,Croydon,Pubs,E09000008,11/27/2022
Croydon,,Skylark,,E09000008,34-36 South End,Croydon,,Fairfield,E05011468,-0.09767045381416219,532417.0001221001,51.365210316861365,164678.00012210011,Croydon,Pubs,E09000008,11/27/2022
Croydon,,Matthews Yard,,E09000008,1 Matthews Yard,Croydon,,Fairfield,E05011468,-0.09951642784834049,532270.0001221001,51.371634872541,165389.00012210011,Croydon,Pubs,E09000008,11/27/2022
Croydon,,Milan Bar,,E09000008,16 High Street,Croydon,,Fairfield,E05011468,-0.09920896958993289,532289.0001221001,51.37246630638823,165482.00012210011,Croydon,Pubs,E09000008,11/27/2022
Croydon,,Slug & Lettuce,,E09000008,10 Park Lane,Croydon,,Fairfield,E05011468,-0.09572714587060013,532529.0001221001,51.37326416500585,165577.00012210011,Croydon,Pubs,E09000008,11/27/2022
Croydon,,George,,E09000008,17-21 George Street,Croydon,,Fairfield,E05011468,-0.09699178550829847,532440.0001221001,51.37360849369561,165613.00012210011,Croydon,Pubs,E09000008,11/27/2022
Croydon,,Cronx,,E09000008,"Units 3 & 4, Boxpark Croydon, 99 George Street",Croydon,,Fairfield,E05011468,-0.09309898510388641,532709.0001221001,51.37426469042389,165693.00012210011,Croydon,Pubs,E09000008,11/27/2022
Croydon,,Beatbox,,E09000008,"Units 22-26, Ground Floor, Boxpark Croydon",Croydon,,Fairfield,E05011468,-0.09309898510388641,532709.0001221001,51.37426469042389,165693.00012210011,Croydon,Pubs,E09000008,11/27/2022
Croydon,,Green Dragon,,E09000008,58 High Street,Croydon,,Fairfield,E05011468,-0.09895837281817604,532312.0001221001,51.370537567951644,165268.00012210011,Croydon,Pubs,E09000008,11/27/2022
Croydon,,Memory Box,,E09000008,80-88 High Street,Croydon,,Fairfield,E05011468,-0.09895837281817604,532312.0001221001,51.370537567951644,165268.00012210011,Croydon,Pubs,E09000008,11/27/2022
Croydon,,Crown & Pepper,,E09000008,242 High Street,Croydon,,Fairfield,E05011468,-0.09828671524520169,532365.0001221001,51.36836815415396,165028.00012210011,Croydon,Pubs,E09000008,11/27/2022
Croydon,,South Beats,,E09000008,282 High Street,Croydon,,Fairfield,E05011468,-0.09787623928169997,532396.0001221001,51.3675250658095,164935.00012210011,Croydon,Pubs,E09000008,11/27/2022
Croydon,,Spreadeagle,,E09000008,39-41 Katharine Street,Croydon,,Fairfield,E05011468,-0.0976619905634286,532398.0001221001,51.37200049721405,165433.00012210011,Croydon,Pubs,E09000008,11/27/2022
Croydon,,Ship,,E09000008,47 High Street,Croydon,,Fairfield,E05011468,-0.09848699750004501,532342.0001221001,51.37151024035866,165377.00012210011,Croydon,Pubs,E09000008,11/27/2022
Croydon,,Dog & Bull,,E09000008,24 Surrey Street,Croydon,,Fairfield,E05011468,-0.09999073541036843,532235.0001221001,51.37232609517295,165465.00012210011,Croydon,Pubs,E09000008,11/27/2022
Croydon,,Market Tavern,,E09000008,1-4 Surrey Street,Croydon,,Fairfield,E05011468,-0.09999073541036843,532235.0001221001,51.37232609517295,165465.00012210011,Croydon,Pubs,E09000008,11/27/2022
Croydon,,Art & Craft CR0,,E09000008,46 Surrey Street,Croydon,,Fairfield,E05011468,-0.09926954726962481,532286.0001221001,51.37204458117182,165435.00012210011,Croydon,Pubs,E09000008,11/27/2022
Croydon,,Mr Fox,,E09000008,34 Surrey Street,Croydon,,Fairfield,E05011468,-0.09926954726962481,532286.0001221001,51.37204458117182,165435.00012210011,Croydon,Pubs,E09000008,11/27/2022
Croydon,,Royal Standard,,E09000008,1 Sheldon Street,Croydon,,Fairfield,E05011468,-0.10039044823764223,532216.0001221001,51.36926569485987,165124.00012210011,Croydon,Pubs,E09000008,11/27/2022
Croydon,,Bulls Head,,E09000008,39 Laud Street,Croydon,,Fairfield,E05011468,-0.09940488956172615,532285.0001221001,51.369123794295504,165110.00012210011,Croydon,Pubs,E09000008,11/27/2022
Croydon,,Bishop's Wine Bar,,E09000008,1129 Whitgift Centre,Croydon,,Fairfield,E05011468,-0.09873655073419113,532315.0001221001,51.37485098763334,165748.00012210011,Croydon,Pubs,E09000008,11/27/2022
Croydon,,Luna,,E09000008,18 High Street,Croydon,,Fairfield,E05011468,-0.09897160107271723,532304.0001221001,51.372993088016834,165541.00012210011,Croydon,Pubs,E09000008,11/27/2022
Croydon,,Dice,,E09000008,36 High Street,Croydon,,Fairfield,E05011468,-0.09898681843595974,532306.0001221001,51.37193206756915,165423.00012210011,Croydon,Pubs,E09000008,11/27/2022
Croydon,,Alchemy,,E09000008,28-30 St George's Walk,Croydon,,Fairfield,E05011468,-0.09648094957343833,532479.0001221001,51.37241301279114,165481.00012210011,Croydon,Pubs,E09000008,11/27/2022
Croydon,,Windmill,,E09000008,224 St James's Road,Croydon,,Fairfield,E05011468,-0.09178430610947516,532781.0001221001,51.3809976196436,166444.00012210011,Croydon,Pubs,E09000008,11/27/2022
Croydon,,Two Brewers,,E09000008,221 Gloucester Road,Croydon,,Selhurst,E05011479,-0.08824943516496986,533008.0001221001,51.387532431581725,167177.00012210011,Croydon,Pubs,E09000008,11/27/2022
Croydon,,Bedford Tavern,,E09000008,16 Sydenham Road,Croydon,,Fairfield,E05011468,-0.09285897826429204,532710.0001221001,51.379693033736714,166297.00012210011,Croydon,Pubs,E09000008,11/27/2022
Croydon,,Olde Clock Tower,,E09000008,35 Whitehorse Road,Croydon,,Selhurst,E05011479,-0.09616640864657759,532466.0001221001,51.38449555020062,166825.00012210011,Croydon,Pubs,E09000008,11/27/2022
Croydon,,Pawson's Arms,,E09000008,69 Pawson's Road,Croydon,,Selhurst,E05011479,-0.09443742355962295,532563.0001221001,51.392552842308255,167724.00012210011,Croydon,Pubs,E09000008,11/27/2022
Croydon,,Lion Inn,,E09000008,182 Pawson's Road,Croydon,,Bensham Manor,E05011464,-0.09742333023236008,532359.0001221001,51.39127029340524,167576.00012210011,Croydon,Pubs,E09000008,11/27/2022
Croydon,,Phoenix,,E09000008,12 Station Road,Croydon,,Fairfield,E05011468,-0.09995135080704194,532221.0001221001,51.378135442551645,166111.00012210011,Croydon,Pubs,E09000008,11/27/2022
Croydon,,Old Fox & Hounds,,E09000008,1 London Road,Croydon,,Fairfield,E05011468,-0.10215018965612105,532068.0001221001,51.37813511210698,166107.00012210011,Croydon,Pubs,E09000008,11/27/2022
Croydon,,Saints & Sinners,,E09000008,482 London Road,Croydon,,West Thornton,E05011488,-0.10920118816054723,531552.0001221001,51.38698208177818,167078.00012210011,Croydon,Pubs,E09000008,11/27/2022
Croydon,,Golden Lion,,E09000008,144 Stanley Road,Croydon,,West Thornton,E05011488,-0.11466760054086196,531174.0001221001,51.38617979984965,166979.00012210011,Croydon,Pubs,E09000008,11/27/2022
Croydon,,Wandle Arms,,E09000008,90 Waddon New Road,Croydon,,Waddon,E05011487,-0.1067101602092538,531764.0001221001,51.37350515471911,165584.00012210011,Croydon,Pubs,E09000008,11/27/2022
Croydon,,Waddon,,E09000008,2 Stafford Road,Croydon,,Waddon,E05011487,-0.11527860094039676,531189.0001221001,51.3660615785176,164741.00012210011,Croydon,Pubs,E09000008,11/27/2022
Croydon,,Hare & Hounds,,E09000008,325 Purley Way,Croydon,,Waddon,E05011487,-0.11556300203092343,531153.0001221001,51.37173223425914,165371.00012210011,Croydon,Pubs,E09000008,11/27/2022
Croydon,,Frankie & Benny's,,E09000008,Valley Leisure Park Purley Way,Croydon,,Broad Green,E05011465,-0.1217239444170443,530710.0001221001,51.37673278739149,165916.00012210011,Croydon,Pubs,E09000008,11/27/2022
Croydon,,Beach Road Cafe Bar,,E09000008,23 Hesterman Way,Croydon,,Broad Green,E05011465,-0.1229244685812439,530624.0001221001,51.377597443985955,166010.00012210011,Croydon,Pubs,E09000008,11/27/2022
Croydon,,Cricketers Inn,,E09000008,"36 Addington Village Road, Addington",Croydon,,Selsdon & Addington Village,E05011480,-0.028424216589638632,537258.0001221001,51.35807525164485,164012.00012210011,Croydon,Pubs,E09000008,11/27/2022
Croydon,,Surprise,,E09000008,107 Upper Shirley Road,Croydon,,Shirly South,E05011483,-0.05186774629259112,535599.0001221001,51.36722756696832,164986.00012210011,Croydon,Pubs,E09000008,11/27/2022
Croydon,,Coombe Lodge,,E09000008,104 Coombe Road,Croydon,,South Croydon,E05011484,-0.0699468847131491,534356.0001221001,51.362004653107505,164372.00012210011,Croydon,Pubs,E09000008,11/27/2022
Croydon,,Orchard,,E09000008,112 Cherry Orchard Road,Croydon,,Addiscombe West,E05011463,-0.0880237830322622,533053.0001221001,51.377428722218546,166054.00012210011,Croydon,Pubs,E09000008,11/27/2022
Croydon,,Oval Tavern,,E09000008,131 Oval Road,Croydon,,Addiscombe West,E05011463,-0.08692481861811491,533129.0001221001,51.37759065566114,166074.00012210011,Croydon,Pubs,E09000008,11/27/2022
Croydon,,Porter & Sorter,,E09000008,Station Road,Croydon,,Addiscombe West,E05011463,-0.09026142966152181,532903.0001221001,51.37545960729291,165831.00012210011,Croydon,Pubs,E09000008,11/27/2022
Croydon,,Alma Tavern,,E09000008,127-129 Lower Addiscombe Road,Croydon,,Addiscombe West,E05011463,-0.08035365154164033,533582.0001221001,51.3790480766909,166248.00012210011,Croydon,Pubs,E09000008,11/27/2022
Croydon,,Cricketers,,E09000008,107 Addiscombe Road,Croydon,,Addiscombe West,E05011463,-0.08220185172805358,533466.0001221001,51.37471635388096,165763.00012210011,Croydon,Pubs,E09000008,11/27/2022
Croydon,,Builders Arms,,E09000008,65 Leslie Park Road,Croydon,,Addiscombe West,E05011463,-0.08524945705525501,533242.0001221001,51.3788224145571,166214.00012210011,Croydon,Pubs,E09000008,11/27/2022
Croydon,,Claret & Ale,,E09000008,"5 Bingham Corner, Lower Addiscombe Road",Addiscombe,,Addiscombe East,E05011462,-0.0718567544549768,534172.0001221001,51.379466142790584,166310.00012210011,Croydon,Pubs,E09000008,11/27/2022
Croydon,,Cricketers,,E09000008,47 Shirley Road,Addiscombe,,Shirley North,E05011482,-0.06116812267940573,534911.0001221001,51.381070498013116,166508.00012210011,Croydon,Pubs,E09000008,11/27/2022
Croydon,,Orchard,,E09000008,116 Orchard Way,Croydon,,Shirley North,E05011482,-0.03858006537384021,536469.0001221001,51.38565007261516,167059.00012210011,Croydon,Pubs,E09000008,11/27/2022
Croydon,,Crown,,E09000008,"28 Wickham Road, Shirley",Croydon,,Shirley North,E05011482,-0.052996740924284906,535503.0001221001,51.37312831597516,165640.00012210011,Croydon,Pubs,E09000008,11/27/2022
Croydon,,Shirley Inn,,E09000008,158 Wickham Road,Croydon,,Shirley North,E05011482,-0.048931836964370826,535784.0001221001,51.373762199188405,165718.00012210011,Croydon,Pubs,E09000008,11/27/2022
Croydon,,Forestdale Arms,,E09000008,"Forestdale Centre, Featherbed Lane",Croydon,,Selsdon Vale & Forestdale,E05011481,-0.03644043676731642,536723.0001221001,51.35034026784271,163137.00012210011,Croydon,Pubs,E09000008,11/27/2022
Croydon,,Randall Tavern,,E09000008,"Fieldway, New Addington",Croydon,,New Addington North,E05011470,-0.018608590735156878,537953.0001221001,51.35417713323066,163597.00012210011,Croydon,Pubs,E09000008,11/27/2022
Croydon,,Toby Carvery,,E09000008,"415 Brighton Road, Croydon",South Croydon,,South Croydon,E05011484,-0.09586594495824459,532572.0001221001,51.35502698160167,163549.00012210011,Croydon,Pubs,E09000008,11/27/2022
Croydon,,Purley Arms,,E09000008,345 Brighton Road,South Croydon,,South Croydon,E05011484,-0.0972508699211794,532488.0001221001,51.35072346187518,163068.00012210011,Croydon,Pubs,E09000008,11/27/2022
Croydon,,Whelan's,,E09000008,13 Selsdon Road,South Croydon,,South Croydon,E05011484,-0.09510753965602257,532604.0001221001,51.362227688645376,164351.00012210011,Croydon,Pubs,E09000008,11/27/2022
Croydon,,Crown & Sceptre,,E09000008,32 Junction Road,South Croydon,,South Croydon,E05011484,-0.094956174201944,532624.0001221001,51.35895147906233,163987.00012210011,Croydon,Pubs,E09000008,11/27/2022
Croydon,,Croham Arms,,E09000008,1 Croham Road,South Croydon,,South Croydon,E05011484,-0.09337281720650731,532726.0001221001,51.36179474152224,164306.00012210011,Croydon,Pubs,E09000008,11/27/2022
Croydon,,Sir Julian Huxley,,E09000008,152 Addington Road,Selsdon,,Selsdon Vale & Forestdale,E05011481,-0.060314734568258366,535082.0001221001,51.34312030881045,162290.00012210011,Croydon,Pubs,E09000008,11/27/2022
Croydon,,Golden Ark,,E09000008,186 Addington Road,Selsdon,,Selsdon Vale & Forestdale,E05011481,-0.060314734568258366,535082.0001221001,51.34312030881045,162290.00012210011,Croydon,Pubs,E09000008,11/27/2022
Croydon,,Fox,,E09000008,Coulsdon Corner Fox Lane,Coulsdon,,Old Coulsdon,E05011474,-0.10727087728347702,531949.0001221001,51.29542075360529,156901.00012210011,Croydon,Pubs,E09000008,11/27/2022
Croydon,,Tudor Rose,,E09000008,270 Coulsdon Road,Coulsdon,,Old Coulsdon,E05011474,-0.11750926659973933,531210.0001221001,51.304291907909494,157869.00012210011,Croydon,Pubs,E09000008,11/27/2022
Croydon,,Coulsdon Manor Hotel,,E09000008,Coulsdon Court Road,Coulsdon,,Old Coulsdon,E05011474,-0.12350058773908727,530757.0001221001,51.31675463413928,159244.00012210011,Croydon,Pubs,E09000008,11/27/2022
Croydon,,Pembroke,,E09000008,12-16 Chipstead Valley Road,Coulsdon,,Coulsdon Town,E05011466,-0.13762233547772804,529763.0001221001,51.32031681525807,159615.00012210011,Croydon,Pubs,E09000008,11/27/2022
Croydon,,Smugglers Inn,,E09000008,320 Chipstead Valley Road,Coulsdon,,Coulsdon Town,E05011466,-0.14861274217668854,529002.0001221001,51.31863838345335,159409.00012210011,Croydon,Pubs,E09000008,11/27/2022
Croydon,,Plough on the Pond,,E09000008,774 London Road,Thornton Heath,,West Thornton,E05011488,-0.11252521034484841,531301.0001221001,51.393879928860926,167839.00012210011,Croydon,Pubs,E09000008,11/27/2022
Croydon,,Railway Telegraph,,E09000008,19 Brigstock Road,Thornton Heath,,Bensham Manor,E05011464,-0.09997775986668893,532164.0001221001,51.39727461263879,168239.00012210011,Croydon,Pubs,E09000008,11/27/2022
Croydon,,Welcome Inn,,E09000008,300 Parchmore Road,Thornton Heath,,Thornton Heath,E05011486,-0.10291004217391797,531934.0001221001,51.40632487043525,169240.00012210011,Croydon,Pubs,E09000008,11/27/2022
Croydon,,Prince George,,E09000008,2 High Street,Thornton Heath,,Thornton Heath,E05011486,-0.09205196027563932,532714.0001221001,51.397712415977715,168302.00012210011,Croydon,Pubs,E09000008,11/27/2022
Croydon,,Elliotts,,E09000008,5 High Street,Purley,,Purley & Woodcote,E05011476,-0.1141233680543093,531350.0001221001,51.3378743950102,161609.00012210011,Croydon,Pubs,E09000008,11/27/2022
Croydon,,Jolly Farmers,,E09000008,7 Purley Road,Purley,,Purley & Woodcote,E05011476,-0.1146701513531932,531313.0001221001,51.33749646491159,161566.00012210011,Croydon,Pubs,E09000008,11/27/2022
Croydon,,Foxley Hatch,,E09000008,8-9 Russell Hill Road,Purley,,Purley & Woodcote,E05011476,-0.11605494758909668,531213.0001221001,51.33874191074738,161702.00012210011,Croydon,Pubs,E09000008,11/27/2022
Croydon,,Pear Tree,,E09000008,908 Brighton Road,Purley,,Purley & Woodcote,E05011476,-0.11407614360735835,531350.0001221001,51.339024843583914,161737.00012210011,Croydon,Pubs,E09000008,11/27/2022
Croydon,,Kenley Hotel,,E09000008,62 Godstone Road,Kenley,,Kenley,E05011469,-0.09889920738833415,532447.0001221001,51.32512678302251,160219.00012210011,Croydon,Pubs,E09000008,11/27/2022
Croydon,,Wattenden Arms,,E09000008,5 Old Lodge Lane,Kenley,,Kenley,E05011469,-0.10131348218963195,532331.0001221001,51.306989352533286,158198.00012210011,Croydon,Pubs,E09000008,11/27/2022
Croydon,,Whistler's Bar,,E09000008,Croydon Park Hotel 7 Altyre Road,Croydon,,Addiscombe West,E05011463,-0.08967899052183233,532952.0001221001,51.372536118944325,165507.00012210011,Croydon,Pubs,E09000008,11/27/2022
Croydon,,Domali Cafe Bar,,E09000008,38 Westow Street,Upper Norwood,,Crystal Palace & Upper Norwood,E05011467,-0.07982583635042181,533502.0001221001,51.41911569790631,170704.00012210011,Croydon,Pubs,E09000008,11/27/2022
Croydon,,Royal Albert,,E09000008,42 Westow Hill,Upper Norwood,,Crystal Palace & Upper Norwood,E05011467,-0.07982583635042181,533502.0001221001,51.41911569790631,170704.00012210011,Croydon,Pubs,E09000008,11/27/2022
Croydon,,Sparrowhawk,,E09000008,2 Westow Hill,Upper Norwood,,Crystal Palace & Upper Norwood,E05011467,-0.07982583635042181,533502.0001221001,51.41911569790631,170704.00012210011,Croydon,Pubs,E09000008,11/27/2022
Croydon,,Craft & Courage,,E09000008,28 Westow Hill,Upper Norwood,,Crystal Palace & Upper Norwood,E05011467,-0.07982583635042181,533502.0001221001,51.41911569790631,170704.00012210011,Croydon,Pubs,E09000008,11/27/2022
Croydon,,Cocktail Embassy,,E09000008,76 Westow Hill,Upper Norwood,,Crystal Palace & Upper Norwood,E05011467,-0.07777180318676863,533645.0001221001,51.41904604624101,170700.00012210011,Croydon,Pubs,E09000008,11/27/2022
Croydon,,White Hart,,E09000008,96 Church Road,Upper Norwood,,Crystal Palace & Upper Norwood,E05011467,-0.07925812230850857,533547.0001221001,51.41721770571029,170494.00012210011,Croydon,Pubs,E09000008,11/27/2022
Croydon,,Queens Bar,,E09000008,"Queens Hotel, 122 Church Road",Upper Norwood,London,Crystal Palace & Upper Norwood,E05011467,-0.0815430586108849,533395.0001221001,51.414862799338486,170228.00012210011,Croydon,Pubs,E09000008,11/27/2022
Croydon,,Beulah Spa,,E09000008,41 Beulah Hill,Upper Norwood,,Crystal Palace & Upper Norwood,E05011467,-0.09129123634352514,532721.0001221001,51.41356500910888,170066.00012210011,Croydon,Pubs,E09000008,11/27/2022
Croydon,,Conquering Hero,,E09000008,262 Beulah Hill,Upper Norwood,,Crystal Palace & Upper Norwood,E05011467,-0.10446871502942162,531785.0001221001,51.42044327049301,170807.00012210011,Croydon,Pubs,E09000008,11/27/2022
Croydon,,Postal Order,,E09000008,33 Westow Street,Upper Norwood,,Crystal Palace & Upper Norwood,E05011467,-0.08034526162974795,533471.0001221001,51.417361433257334,170508.00012210011,Croydon,Pubs,E09000008,11/27/2022
Croydon,,Albert Tavern,,E09000008,65 Harrington Road,South Norwood,,Woodside,E05011489,-0.06533880741851306,534575.0001221001,51.3966807532186,168236.00012210011,Croydon,Pubs,E09000008,11/27/2022
Croydon,,Portland Arms,,E09000008,152 Portland Road,South Norwood,,Woodside,E05011489,-0.06593425266367732,534542.0001221001,51.393812568866146,167916.00012210011,Croydon,Pubs,E09000008,11/27/2022
Croydon,,Gold Coast,,E09000008,224 Portland Road,South Norwood,,Woodside,E05011489,-0.06515267257268775,534602.0001221001,51.391892977222234,167704.00012210011,Croydon,Pubs,E09000008,11/27/2022
Croydon,,Cherry Tree,,E09000008,32 Station Road,South Norwood,,South Norwood,E05011485,-0.07395883088850579,533975.0001221001,51.39683177474231,168237.00012210011,Croydon,Pubs,E09000008,11/27/2022
Croydon,,Joiners Arms,,E09000008,52 Woodside Green,South Norwood,,Woodside,E05011489,-0.06890960425455252,534357.0001221001,51.38631584979428,167077.00012210011,Croydon,Pubs,E09000008,11/27/2022
Croydon,,Holmesdale,,E09000008,1 Selhurst Road,South Norwood,,Selhurst,E05011479,-0.08819735656792269,533008.0001221001,51.38878171748658,167316.00012210011,Croydon,Pubs,E09000008,11/27/2022
Croydon,,South Norwood Conservative Club,,E09000008,10 South Norwood Hill,South Norwood,London,South Norwood,E05011485,-0.07398925030375247,533964.0001221001,51.39987217420344,168575.00012210011,Croydon,Pubs,E09000008,11/27/2022
Croydon,,Jolly Sailor,,E09000008,64 High Street,South Norwood,,South Norwood,E05011485,-0.07345567206261665,534005.0001221001,51.39854131515541,168428.00012210011,Croydon,Pubs,E09000008,11/27/2022
Croydon,,Shelverdine Goathouse,,E09000008,7-9 High Street,South Norwood,,South Norwood,E05011485,-0.07478580056233111,533914.0001221001,51.39802355282124,168368.00012210011,Croydon,Pubs,E09000008,11/27/2022
Croydon,,Albion,,E09000008,26 High Street,South Norwood,,South Norwood,E05011485,-0.07267869904822184,534056.0001221001,51.39958080916646,168545.00012210011,Croydon,Pubs,E09000008,11/27/2022
Croydon,,Clifton Arms,,E09000008,21 Clifton Road,South Norwood,,South Norwood,E05011485,-0.08440133695241826,533252.0001221001,51.395689888925304,168091.00012210011,Croydon,Pubs,E09000008,11/27/2022
Croydon,,Craft Beer Cabin,,E09000008,210A Selhurst Road,South Norwood,,South Norwood,E05011485,-0.07602664131152657,533830.0001221001,51.39723449575122,168278.00012210011,Croydon,Pubs,E09000008,11/27/2022
Croydon,,Victory Club,,E09000008,227 Selhurst Road,South Norwood,,South Norwood,E05011485,-0.07877530939612906,533640.0001221001,51.39682991289247,168228.00012210011,Croydon,Pubs,E09000008,11/27/2022
Croydon,,Moon Under Water,,E09000008,1327 London Road,Norbury,,Norbury & Pollards Hill,E05011472,-0.11995556857903243,530748.0001221001,51.40655464712139,169235.00012210011,Croydon,Pubs,E09000008,11/27/2022
Croydon,,Norbury,,E09000008,1300 London Road,Norbury,,Norbury & Pollards Hill,E05011472,-0.11997838687337128,530743.0001221001,51.407751178018316,169368.00012210011,Croydon,Pubs,E09000008,11/27/2022
Croydon,,Purley,0,E09000008,,,,Purley Oaks & Riddlesdown,E05011477,-0.10992841576698205,531630.7324828953,51.34186024215012,162059.69592289627,Croydon,Skate Parks,E09000008,11/27/2022
Croydon,,South-Norwood,0,E09000008,,,,South Norwood,E05011485,-0.07765258465712713,533723.1472777948,51.395095881650654,168037.24450679868,Croydon,Skate Parks,E09000008,11/27/2022
Croydon,,Wandle-Park,0,E09000008,,,,Waddon,E05011487,-0.11250741235408757,531360.030517593,51.37369396483531,165594.59112549573,Croydon,Skate Parks,E09000008,11/27/2022
Croydon,http://www.matthewsyard.com/,Theatre Utopia,10090382144,E09000008,1 Matthews Yard, Croydon,NA,Fairfield,E05011468,-0.10269837582561578,531934.1401838278,51.3726881079965,165555.94190876378,Croydon,Theatres,E09000008,11/27/2022
Croydon,https://en.wikipedia.org/wiki/Ashcroft_Theatre,Ashcroft Theatre (Fairfield Halls),100023000000,E09000008,Park Lane,NA,NA,Fairfield,E05011468,-0.09738291688166564,532302.9563383604,51.37305114926197,165605.89368591597,Croydon,Theatres,E09000008,11/27/2022
Croydon,http://www.southlondontheatre.co.uk/,South London Theatre,100024000000,E09000008,The Old Fire Station, 2A Norwood High Street,NA,South Norwood,E05011485,-0.07717903059696904,533627.5091073987,51.400919102494306,168740.7762694927,Croydon,Theatres,E09000008,11/27/2022
