borough_name,website,site_name,os_addressbase_uprn,borough_code,address1,address2,address3,ward_2018_name,ward_2018_code,longitude,easting,latitude,northing,BOROUGH,Cultural Venue Type,gss_code,runtime
Greenwich,https://www.greenwichheritage.org/visit/greenwich-heritage-centre,Greenwich Heritage Centre,10010229615,E09000011,Artillery Square Royal Arsenal,,,Woolwich Riverside,E05000230,0.06942240055540518,543528.586116379,51.49430804526589,179400.98373037792,Greenwich,Archives,E09000011,11/27/2022
Greenwich,https://www.rmg.co.uk/research-collections/caird-library,National Maritime Museum: The Caird Library and Archive,10010243516,E09000011,Park Row ,Romney Road ,,Greenwich West,E05000222,-0.005215640688933796,538389.4370892163,51.480940880886635,177771.03641309228,Greenwich,Archives,E09000011,11/27/2022
Greenwich,https://www.gre.ac.uk/,University of Greenwich,100023000000,E09000011,Dreadnought Library Old Royal Naval College Park Row,,,Greenwich West,E05000222,-0.00639741437805922,538301.2702322197,51.48296791947644,177994.16156371043,Greenwich,Archives,E09000011,11/27/2022
Lewisham,https://www.trinitylaban.ac.uk/student-life/facilities/faculty-of-dance/laban-library-archive,Trinity Laban Conservatoire of Music and Dance: Laban Archive,100024000000,E09000023,Laban Creekside,,,New Cross,E05000449,-0.019007985149250492,537433.8729597077,51.48032533091159,177676.5973387747,Greenwich,Archives,E09000011,11/27/2022
Greenwich,www.spacestudios.org.uk,Azof,100023227586,E09000011,Azof Street,Greenwich,,Peninsula,E05000225,0.00793434348362516,539277.7023272302,51.48899702185057,178691.66073155135,Greenwich,Artists workspaces,E09000011,11/27/2022
Greenwich,artfix.org.uk,,100000000000,E09000011,51 Powis street,,,Woolwich Riverside,E05000230,0.0665014211373603,543335.4744603722,51.49125055201966,179055.33777597063,Greenwich,Artists workspaces,E09000011,11/27/2022
Greenwich,,,10010244186,E09000011,"2, Commonwealth Buildings",Woolwich Church St,,Woolwich Riverside,E05000230,0.046945644053961746,541973.4318403734,51.4928050628354,179190.02517277695,Greenwich,Artists workspaces,E09000011,11/27/2022
Greenwich,https://www.thames-sidestudios.co.uk/,Thames-side studios,10010229623,E09000011,5 Harrington Way,Woolwich,,Woolwich Riverside,E05000230,0.04396507067591265,541761.7067982499,51.49437649646916,179358.94974009023,Greenwich,Artists workspaces,E09000011,11/27/2022
Greenwich,www.arthub.org.uk,Art Hub HQ,100000000000,E09000011,"Unit 2b, Bldg 28, ",34 Bowater Rd,,Woolwich Riverside,E05000230,0.039912482507605776,541479.8788737084,51.49456696362816,179372.27977697353,Greenwich,Artists workspaces,E09000011,11/27/2022
Greenwich,,Greenwich Picturehouse,200001082727,E09000011,,180 Greenwhich Rd,,Greenwich West,E05000222,-0.008078420370164877,538309.0001221001,51.47892292931554,177487.00012210011,Greenwich,Cinemas,E09000011,11/27/2022
Greenwich,,Odeon Greenwich,010010223864,E09000011,,Bugsby Way,,Peninsula,E05000225,0.014369974777136297,539833.4801024944,51.490060828952956,178768.05010989308,Greenwich,Cinemas,E09000011,11/27/2022
Greenwich,www.cineworld.co.uk,Cineworld The O2 Greenwich,010010224824,E09000011,,The O2,Peninsula Square,Peninsula,E05000225,0.0061320437949981274,539223.7200927958,51.50251280959514,180136.86010739952,Greenwich,Cinemas,E09000011,11/27/2022
Greenwich,http://www.rmg.co.uk/royal-observatory#,Royal Observatory,10010200750,E09000011,Blackheath Avenue,NA,NA,Greenwich West,E05000222,0.000744053983955919,538927.8900756985,51.476830938629526,177271.1000976935,Greenwich,Commercial galleries,E09000011,11/27/2022
Greenwich,http://www.paulmcgallery.com/#,Paul McPherson Gallery,100020981999,E09000011,77 Lassell Street,NA,NA,Peninsula,E05000225,0.003458820167393555,539094.0001221001,51.48418554558121,178094.00012210011,Greenwich,Commercial galleries,E09000011,11/27/2022
Greenwich,http://www.greenwich-printmakers.org.uk/#,Greenwich Printmakers Gallery,100023537574,E09000011,1a Greenwich Market,NA,NA,Greenwich West,E05000222,-0.007576419179712834,538338.0001221001,51.48085704947805,177703.00012210011,Greenwich,Commercial galleries,E09000011,11/27/2022
Greenwich,http://www.oldroyalnavalcollege.org/#,Old Royal Naval College,200002800648,E09000011,2 Cutty Sark Gardens,NA,NA,Greenwich West,E05000222,-0.0071853985177340535,538360.6101073995,51.48235586708259,177870.3900756985,Greenwich,Commercial galleries,E09000011,11/27/2022
Greenwich,http://www.glyndon.org.uk/slade.htm,Slade Centre,100023243258,E09000011,Erindale,Greenwich,NA,Shooters Hill,E05000227,0.08665909241179041,544888.5601195991,51.478260367111,177596.57012939453,Greenwich,Community centres,E09000011,11/27/2022
Greenwich,https://www.greenwichheritage.org/whats-on/detail/community-groups-at-charlton-house,Charlton House,10010233503,E09000011,Charlton Road,Greenwich,NA,Charlton,E05000216,0.03873053348857271,541555.0501098931,51.48015803297103,177713.80010989308,Greenwich,Community centres,E09000011,11/27/2022
Greenwich,,St Marys Community Centre,100023282442,E09000011,180 Eltham High Street,Greenwich,NA,Eltham South,E05000219,0.05868991453755549,543034.8601073995,51.45005809024685,174405.86010739952,Greenwich,Community centres,E09000011,11/27/2022
Greenwich,http://www.glyndon.org.uk/invicta.htm,Invicta Hall,100023242554,E09000011,26 Strandfield Close,Greenwich,NA,Plumstead,E05000226,0.09512394344501161,545451.0001221001,51.486198751353136,178496.00012210011,Greenwich,Community centres,E09000011,11/27/2022
Greenwich,,Knee Hill Community Hall,10010224800,E09000011,4 Knee Hill,Greenwich,NA,Abbey Wood,E05000214,0.12266254374826922,547354.0001221001,51.488876146771524,178848.7700805962,Greenwich,Community centres,E09000011,11/27/2022
Greenwich,,Anstridge Community Hall,10010224653,E09000011,79 Anstridge Road,Greenwich,NA,Eltham South,E05000219,0.08426945945370869,544820.7700805962,51.447260551483815,174145.0800780952,Greenwich,Community centres,E09000011,11/27/2022
Greenwich,,Orchard Community Hall,10010220228,E09000011,120 Lewisham Road,Greenwich,NA,Greenwich West,E05000222,-0.011895464898762037,538075.5001221001,51.46848661228132,176319.40008549392,Greenwich,Community centres,E09000011,11/27/2022
Greenwich,,Triangle Community Centre,10010216516,E09000011,Armitage Road,Greenwich,NA,Peninsula,E05000225,0.010047640962591723,539544.0001221001,51.48660900711887,178376.00012210011,Greenwich,Community centres,E09000011,11/27/2022
Greenwich,,Coldharbour Hall,10010214625,E09000011,William Barefoot Drive,Greenwich,NA,Coldharbour and New Eltham,E05000217,0.05994179505565901,543183.4100952,51.43036654472471,172218.87011719495,Greenwich,Community centres,E09000011,11/27/2022
Greenwich,,Flintmill Meeting Rooms,10010206087,E09000011,72 Flintmill Crescent,Greenwich,NA,Kidbrooke with Hornfair,E05000223,0.04754926081110308,542217.7901000977,51.46392273561961,175925.73010249436,Greenwich,Community centres,E09000011,11/27/2022
Greenwich,https://www.royalgreenwich.gov.uk/info/200164/about_the_royal_borough/327/woolwich_town_hall,Woolwich Public Hall,10010240402,E09000011,Wellington Street,Greenwich,NA,Woolwich Riverside,E05000230,0.06622287955965825,543435.2301024944,51.489241556069494,178777.29010009766,Greenwich,Community centres,E09000011,11/27/2022
Greenwich,,Barnfield HUb,10010244209,E09000011,Barnfield Gardens,Greenwich,NA,Woolwich Common,E05000229,0.07347767534707202,543967.870117195,51.48001277732143,177765.41009519994,Greenwich,Community centres,E09000011,11/27/2022
Greenwich,http://www.stmarys-eltham.co.uk/,Flintmill Hall,10010256224,E09000011,72 Flintmill Crescent,Greenwich,NA,Kidbrooke with Hornfair,E05000223,0.047461117080913794,542211.5501098931,51.46396079027909,175929.79010009766,Greenwich,Community centres,E09000011,11/27/2022
Greenwich,,Woolwich Common Community Centre,10010202523,E09000011,15-16 Leslie Smith Square,Greenwich,NA,Woolwich Common,E05000229,0.06404937085268886,543314.0001221001,51.47978873609566,177722.00012210011,Greenwich,Community centres,E09000011,11/27/2022
Greenwich,,Lionel Road Community Hall,10010199361,E09000011,540 Westhorne Avenue,Greenwich,NA,Eltham West,E05000220,0.04136840645506036,541817.6000976935,51.45454266708653,174870.80010989308,Greenwich,Community centres,E09000011,11/27/2022
Greenwich,https://www.greenwichwest.org.uk/,Greenwich West Community and Arts Centre,100023537391,E09000011,141 Greenwich High Road,Greenwich,NA,Greenwich West,E05000222,-0.014495557992505898,537870.0001221001,51.476756369727816,177234.00012210011,Greenwich,Community centres,E09000011,11/27/2022
Greenwich,http://www.hornpark.org.uk/,Horn Park Community Centre,100023233132,E09000011,96 Sibthorpe Road,Greenwich,NA,Middle Park and Sutcliffe,E05000224,0.028254588539977296,540932.0001221001,51.446308930301605,173930.00012210011,Greenwich,Community centres,E09000011,11/27/2022
Greenwich,not a CC,Progress Hall,100023282371,E09000011,Admiral Seymour Road,Greenwich,NA,Eltham North,E05000218,0.05315549306296137,542625.0001221001,51.458196946394544,175300.00012210011,Greenwich,Community centres,E09000011,11/27/2022
Greenwich,,Charlton Community Centre,100023280263,E09000011,54-56 The Village,Greenwich,NA,Charlton,E05000216,0.04010295789939331,541646.5401000977,51.48138186897365,177852.53009029478,Greenwich,Community centres,E09000011,11/27/2022
Greenwich,,C2K Community Centre,100023249607,E09000011,2 Penmon Road,Greenwich,NA,Abbey Wood,E05000214,0.11069444686164437,546511.1000976935,51.49267026676776,179246.6000976935,Greenwich,Community centres,E09000011,11/27/2022
Greenwich,http://www.glyndon.org.uk/glyndon.htm,Glyndon Community Centre,100023246121,E09000011,75 Raglan Road,Greenwich,NA,Glyndon,E05000221,0.07923108954462622,544348.7800902948,51.48587901842383,178428.99011229724,Greenwich,Community centres,E09000011,11/27/2022
Greenwich,,Middle Park Community Centre and the Joan Currie Hall,100023284034,E09000011,150 Middle Park Avenue,Greenwich,NA,Middle Park and Sutcliffe,E05000224,0.04050653469887042,541786.7200927958,51.44518526982854,173828.7100829929,Greenwich,Community centres,E09000011,11/27/2022
Greenwich,https://clockhousecc.org.uk/,Clockhouse Community Centre,100023245372,E09000011,Defiance Walk,Greenwich,NA,Woolwich Riverside,E05000230,0.054809081895484196,542630.0001221001,51.49339682741297,179217.00012210011,Greenwich,Community centres,E09000011,11/27/2022
Greenwich,http://www.onespacekidbrooke.org.uk/,One Space Kidbrooke,10010255690,E09000011,Kidbrooke Park Road,Greenwich,NA,Eltham West,E05000220,0.028851996685782484,540935.0001221001,51.4588090151915,175321.00012210011,Greenwich,Community centres,E09000011,11/27/2022
Greenwich,,New Charlton Community Centre,100023280304,E09000011,New Charlton Community Centre,217 Maryon Road,London,Woolwich Riverside,E05000230,0.04871440905836513,542222.0001221001,51.48857487669148,178669.00012210011,Greenwich,Community centres,E09000011,11/27/2022
Greenwich,,Mycenae House,100023269082,E09000011,Mycenae House,90 Mycenae Road,London,Blackheath Westcombe,E05000215,0.01758782990050599,540090.3500976935,51.47912572421631,177558.3500976935,Greenwich,Community centres,E09000011,11/27/2022
Greenwich,,Shrewsbury House,100023243765,E09000011,Shrewsbury House,Bushmoor Crescent,London,Shooters Hill,E05000227,0.07459831123376008,544067.7401122972,51.4730093080993,176988.92010499537,Greenwich,Community centres,E09000011,11/27/2022
Greenwich,artfix.org.uk,Artfix,100023245973,E09000011,,51 Powis Street,,Woolwich Riverside,E05000230,0.06810239312745862,543561.0001221001,51.49073476031538,178947.00012210011,Greenwich,Creative co-working desk space,E09000011,11/27/2022
Greenwich,http://www.crixusproductions.co.uk/index.php/studio/,Crixus Productions,10010260156,E09000011,Crixus Studios,Woolwich Church Street,,,,0.051976041110438194,542437.0001221001,51.49223228050801,179082.00012210011,Greenwich,Creative workspaces,E09000011,11/27/2022
Greenwich,,Greenwich Theatre,10010200382,E09000011,3 Crooms Hill,,,Greenwich West,E05000222,-0.007621807575506635,538226.8760123327,51.47946415067321,177602.30699869693,Greenwich,Dance performance venues,E09000011,11/27/2022
Greenwich,https://www.theo2.co.uk,The O2 Arena,10010228254,E09000011,Peninsula Square,,,Peninsula,E05000225,0.003185639402138716,538905.7966629581,51.502920543654774,180230.6082976504,Greenwich,Dance performance venues,E09000011,11/27/2022
Greenwich,http://www.glypt.co.uk/tramshed/tramshedhistory/,The Tramshed,100023246054,E09000011,51-53 Woolwich New Road,,,Woolwich Common,E05000229,0.0680210852899668,543446.4500886544,51.48949713383379,178863.3803113274,Greenwich,Dance performance venues,E09000011,11/27/2022
Lewisham,https://www.trinitylaban.ac.uk/whats-on/dance-events,Trinity Laban / Laban Theatre,,,71 Creekside,,,,,-0.020503156279156446,537330.8960859162,51.48005383168382,177643.60596698715,Greenwich,Dance performance venues,E09000011,11/27/2022
Greenwich,www.greenwichdance.org.uk,Greenwich Dance,100023227774,E09000011,33-35 Royal Hill,,,Greenwich West,E05000222,-0.010739099717940903,538014.7092924543,51.47806301570587,177440.64501393418,Greenwich,Dance performance venues,E09000011,11/27/2022
Greenwich,https://www.trinitylaban.ac.uk/whats-on/our-venues/king-charles-court,"King Charles Court, Old Royal Naval College (Trinity Laban)",10010216996,E09000011,King William Walk,,,Greenwich West,E05000222,-0.00717147166226471,538245.6681657546,51.483587017337925,178061.5277673204,Greenwich,Dance performance venues,E09000011,11/27/2022
Greenwich,http://www.better.org.uk/leisure-centre/london/greenwich/academy-performing-arts,Academy Performing Arts,10010214484,E09000011,Artillery Square Royal Arsenal,,,Woolwich Riverside,E05000230,0.06876239665393408,543483.4456292064,51.49409738883982,179376.268983908,Greenwich,Dance rehearsal studios,E09000011,11/27/2022
Greenwich,http://www.mpacollege.co.uk,Millenium Performing Arts,10010230583,E09000011,29 Thomas Street,,,Woolwich Riverside,E05000230,0.06569461350077058,543281.0857205254,51.49073886733496,178996.87061167776,Greenwich,Dance rehearsal studios,E09000011,11/27/2022
Greenwich,,OMJ24 CREATIVE SPACE,100023647167,E09000011,71-73 Nathan Way,Room E,,Thamesmead Moorings,E05000228,0.09291216434098626,545164.0821643327,51.49261665344933,179259.30323919258,Greenwich,Dance rehearsal studios,E09000011,11/27/2022
Greenwich,http://hangarartstrust.org/space-hire/,Hangar Art Trust,10010240206,E09000011,4 Harrington Way,"Unit 7a, Mellish Industrial Estate",,Woolwich Riverside,E05000230,0.04396507067591265,541761.7067982499,51.49437649646916,179358.94974009023,Greenwich,Dance rehearsal studios,E09000011,11/27/2022
Greenwich,http://www.glypt.co.uk/tramshed/tramshedhistory/,The Tramshed,100023246054,E09000011,51-53 Woolwich New Road,,,Woolwich Common,E05000229,0.0680210852899668,543446.4500886544,51.48949713383379,178863.3803113274,Greenwich,Dance rehearsal studios,E09000011,11/27/2022
Lewisham,https://www.trinitylaban.ac.uk/whats-on/dance-events,Trinity Laban / Laban Theatre,,,71 Creekside,,,,,-0.020503156279156446,537330.8960859162,51.48005383168382,177643.60596698715,Greenwich,Dance rehearsal studios,E09000011,11/27/2022
Greenwich,www.greenwichdance.org.uk,Greenwich Dance,100023227774,E09000011,33-35 Royal Hill,,,Greenwich West,E05000222,-0.010739099717940903,538014.7092924543,51.47806301570587,177440.64501393418,Greenwich,Dance rehearsal studios,E09000011,11/27/2022
Greenwich,https://www.trinitylaban.ac.uk/whats-on/our-venues/king-charles-court,"King Charles Court, Old Royal Naval College (Trinity Laban)",10010216996,E09000011,King William Walk,,,Greenwich West,E05000222,-0.00717147166226471,538245.6681657546,51.483587017337925,178061.5277673204,Greenwich,Dance rehearsal studios,E09000011,11/27/2022
Greenwich,http://www.angelinastudio.co.uk/,Angelina Studio Ltd,10010244019,E09000011,25-27  Passey Place,,,Eltham South,E05000219,0.05436576712949622,542621.5431885393,51.45012476151551,174459.48149675602,Greenwich,Fashion and design,E09000011,11/27/2022
Greenwich,http://www.ffgm.co.uk/,FFGM,1.00024E+11,E09000011,Unit H Commonwealth Studios,2 Church Street ,,Woolwich Riverside,E05000230,0.04766863058025842,542022.8228304652,51.493057363515085,179219.47802418732,Greenwich,Fashion and design,E09000011,11/27/2022
Greenwich,,Rose and Crown ,,E09000011,1 Crooms Hill,Greenwich,,Greenwich West,E05000222,-0.009305334709248724,538110.7214768984,51.47922821875077,177572.89603144693,Greenwich,LGBT+ night time venues,E09000011,11/27/2022
Greenwich,http://www.georgedragon.com/,The George & Dragon,,E09000011,2 Blackheath Hill,,,Greenwich West,E05000222,-0.016543764921481238,537625.8953520403,51.47336229871826,176907.09366331442,Greenwich,LGBT+ night time venues,E09000011,11/27/2022
Greenwich,,Coldharbour Library,10010224659,E09000011,William Barefoot Drive,Eltham,,Coldharbour and New Eltham,E05000217,0.058915382605098064,543113.8400878981,51.42980096879223,172153.98010249436,Greenwich,Libraries,E09000011,11/27/2022
Greenwich,,New Eltham Library,10010197970,E09000011,Southwood Road,Eltham,,Coldharbour and New Eltham,E05000217,0.07289786404361596,544062.9801024944,51.43700852799315,172982.7700805962,Greenwich,Libraries,E09000011,11/27/2022
Greenwich,,Eltham Centre Library,100023282187,E09000011,Eltham High Street,Eltham,,Eltham North,E05000218,0.059504080224144405,543090.0001221001,51.45051272723563,174458.00012210011,Greenwich,Libraries,E09000011,11/27/2022
Greenwich,,Blackheath Library,100023268277,E09000011,Old Dover Road,Blackheath,,Blackheath Westcombe,E05000215,0.023154289682497123,540485.0001221001,51.47646341285181,177273.00012210011,Greenwich,Libraries,E09000011,11/27/2022
Greenwich,,West Greenwich Library,10010200468,E09000011,Greenwich High Road,Greenwich,,Greenwich West,E05000222,-0.009682215108510571,538202.0001221001,51.47748418682305,177324.00012210011,Greenwich,Libraries,E09000011,11/27/2022
Greenwich,,Charlton Library,100023280005,E09000011,Charlton Road,Charlton,,Charlton,E05000216,0.03877864558956827,541559.0001221001,51.47996113129719,177692.00012210011,Greenwich,Libraries,E09000011,11/27/2022
Greenwich,,Greenwich Centre Library,10010254284,E09000011,Lambarde Square,Greenwich,,Peninsula,E05000225,0.00997827621431382,539543.8601073995,51.485077838231504,178205.62011719495,Greenwich,Libraries,E09000011,11/27/2022
Greenwich,,Plumstead Library,100023243067,E09000011,Plumstead High Street,Plumstead,,Plumstead,E05000226,0.0978883613268866,545644.0001221001,51.48585251737696,178463.00012210011,Greenwich,Libraries,E09000011,11/27/2022
Greenwich,,Woolwich Library,10010239328,E09000011,Love Lane,Woolwich,,Woolwich Common,E05000229,0.0670213381123869,543492.1801147982,51.4887552149852,178724.78009029478,Greenwich,Libraries,E09000011,11/27/2022
Greenwich,,Abbey Wood Library,10010232562,E09000011,Eynsham Drive,Abbey Wood,,Abbey Wood,E05000214,0.11180059336574943,546586.0401000977,51.49324187552629,179312.37011719495,Greenwich,Libraries,E09000011,11/27/2022
Greenwich,,Thamesmere Library,10010224992,E09000011,Thamesmere Drive,Thamesmead,,Thamesmead Moorings,E05000228,0.11079509767090803,546471.4301147982,51.50721775817244,180864.29010009766,Greenwich,Libraries,E09000011,11/27/2022
Greenwich,https://www.creativenature.info/,Creative Nature,10010245468,E09000011,Creative Nature,Tw08 Thames-Side Studios,Harrington Way,Woolwich Riverside,E05000230,0.044292164093743557,541782.935219518,51.49485064823137,179412.29754989053,Greenwich,Makerspaces,E09000011,11/27/2022
Greenwich,http://www.greenwich-printmakers.co.uk/,Greenwich Printmakers Association,100024000000,E09000011,Greenwich Printmakers Association,1a Greenwich Market,,Greenwich West,E05000222,-0.009169155428510399,538113.6955429983,51.48137273170626,177811.5746552166,Greenwich,Makerspaces,E09000011,11/27/2022
Greenwich,http://londonsculptureworkshop.org/,London Sculpture Workshop,10010245033,E09000011,London Sculpture Workshop,Unit Zero,Harrington Way,Woolwich Riverside,E05000230,0.042593180845434356,541666.5970967456,51.4943456434752,179352.86213757226,Greenwich,Makerspaces,E09000011,11/27/2022
Greenwich,http://www.mazehillpottery.co.uk/,Maze Hill Pottery,10010237788,E09000011,Maze Hill Pottery,The Old Ticket Office,Woodlands Park Road,Peninsula,E05000225,0.005857177299561544,539152.1085720531,51.48289728239836,178009.55633634405,Greenwich,Makerspaces,E09000011,11/27/2022
Greenwich,http://www.thamesbarrier-printstudio.co.uk/,Thames Barrier Print Studio,10010229620,E09000011,Thames Barrier Print Studio,"Thames Barrier Print Studio, Second Floor Studios & Arts",Unit 4 Harrington Way,Woolwich Riverside,E05000230,0.04345794351091912,541724.7683870288,51.494939294084006,179420.53631734452,Greenwich,Makerspaces,E09000011,11/27/2022
Greenwich,https://paye.net/portfolio/,Paye Stonework and Restoration Ltd,10010196896,E09000011,Stationmasters House,Mottingham Station Approach ,,Coldharbour and New Eltham,E05000217,0.05194938457188431,542600.0001221001,51.43933094187331,173200.00012210011,Greenwich,Making and manufacturing,E09000011,11/27/2022
Greenwich,https://www.jamm.co.uk/index.shtml,Jamm Print and Production Ltd,1.00023E+11,E09000011,Commonwealth Buildings,1a Woolwich Church Street,,Woolwich Riverside,E05000230,0.049290200891790995,542249.8201293945,51.492476850807385,179103.9700927958,Greenwich,Making and manufacturing,E09000011,11/27/2022
Greenwich,http://nicholasalexander.co.uk/about/,Nicholas Alexander Ltd,10010244339,E09000011,Dockyard Industrial Estate,Block 4 Woolwich Church St,,Woolwich Riverside,E05000230,0.05292398355364302,542502.4401244968,51.49234600609168,179096.49011229724,Greenwich,Making and manufacturing,E09000011,11/27/2022
Greenwich,http://www.bubblehouse.co.uk/,Bubble House Limited,1.00023E+11,E09000011,Unit 62 Westminster Industrial Estate,37 Bowater Road,,Woolwich Riverside,E05000230,0.04189876009841921,541733.7000731975,51.49347551267655,179200.67010499537,Greenwich,Making and manufacturing,E09000011,11/27/2022
Greenwich,https://helix3d.co.uk/,Helix 3D Ltd,1.00023E+11,E09000011,The Old Turbine Factory,138-140  Nathan Way,,Thamesmead Moorings,E05000228,0.1014394265169826,545863.0001221001,51.494468009214756,179428.00012210011,Greenwich,Making and manufacturing,E09000011,11/27/2022
Greenwich,http://www.rmg.co.uk/,Royal Museums Greenwich,10010231322,E09000011,Park Row,Greenwich,NA,Greenwich West,E05000222,-0.002131999263578617,538716.6500854939,51.48063722226006,177688.86010739952,Greenwich,Museums and public galleries,E09000011,11/27/2022
Greenwich,http://www.english-heritage.org.uk/elthampalace,Eltham Palace,10010235842,E09000011,Court Yard,NA,NA,Eltham South,E05000219,0.04953884482941139,542410.3001098931,51.44646434339617,173988.45007319748,Greenwich,Museums and public galleries,E09000011,11/27/2022
Greenwich,http://www.rmg.co.uk/national-maritime-museum#,National Maritime Museum,10010243516,E09000011,Romney Road,NA,NA,Greenwich West,E05000222,-0.0036224085077582614,538613.8201293945,51.48042508638326,177662.45007319748,Greenwich,Museums and public galleries,E09000011,11/27/2022
Greenwich,http://www.english-heritage.org.uk/visit/places/rangers-house-the-wernher-collection/,Rangerʼs House,100023227777,E09000011,Chesterfield Walk,Lewisham,NA,Greenwich West,E05000222,-1.7074300933569245e-05,538887.0001221001,51.47289476204796,176832.00012210011,Greenwich,Museums and public galleries,E09000011,11/27/2022
Greenwich,https://www.thefanmuseum.org.uk/,Fan Museum,100023227937,E09000011,12 Crooms Hill,NA,NA,Greenwich West,E05000222,-0.006612863157723859,538412.1400756985,51.478464429456714,177438.79010009766,Greenwich,Museums and public galleries,E09000011,11/27/2022
Greenwich,www.​ornc.​org,The Old Royal Naval College,100023228558,E09000011,King William Walk,Greenwich,NA,Greenwich West,E05000222,-0.004804324832548703,538525.620117195,51.482452343944644,177885.62011719495,Greenwich,Museums and public galleries,E09000011,11/27/2022
Greenwich,http://www.rmg.co.uk/cuttysark,Clipper Ship Cutty Sark,200002800647,E09000011,King William Walk,Greenwich,NA,Greenwich West,E05000222,-0.00789999240986706,538311.1801147982,51.48229651190074,177862.44012449682,Greenwich,Museums and public galleries,E09000011,11/27/2022
Greenwich,,Defigo Management Group Ltd,100000000000,E09000011,22 Bill Hamling Close,Greenwich,,Coldharbour And New Eltham,E05000217,0.053240344661618866,542699.0001222938,51.436349342659504,172871.00012149662,Greenwich,Music (office based businesses),E09000011,11/27/2022
Greenwich,,Aztec Records Ltd,100000000000,E09000011,131 Paston Crescent,Greenwich,,Middle Park And Sutcliffe,E05000224,0.029061002835188005,540994.000122197,51.44437028887221,173716.00012149662,Greenwich,Music (office based businesses),E09000011,11/27/2022
Greenwich,,Suspect Records Ltd,100000000000,E09000011,71 Blackheath Road,Greenwich,,Greenwich West,E05000222,-0.015375557110134549,537821.000122197,51.47274207013048,176786.00012149662,Greenwich,Music (office based businesses),E09000011,11/27/2022
Greenwich,,Lit Management Ltd,100000000000,E09000011,237 Westcombe Hill,Greenwich,,Blackheath Westcombe,E05000215,0.020923241171436194,540326.000122197,51.47779700142151,177417.00012149662,Greenwich,Music (office based businesses),E09000011,11/27/2022
Greenwich,,Therapy Records Ltd,100000000000,E09000011,45 Vernham Road,Greenwich,,Woolwich Common,E05000229,0.07535681872186385,544101.0001222938,51.47916639091923,177675.00012149662,Greenwich,Music (office based businesses),E09000011,11/27/2022
Greenwich,www.soundperformance.co.uk,Sound Performance Ltd,10010244063,E09000011,Greenwich ,,,Greenwich West,E05000222,-0.016043133237860455,537749.000122197,51.481252461312195,177731.00012149662,Greenwich,Music (office based businesses),E09000011,11/27/2022
Greenwich,,Amber Records Ltd,100000000000,E09000011,94 Chestnut Rise,Greenwich,,Glyndon,E05000221,0.08812626639610752,544978.0001222938,51.48217742587516,178035.00012139976,Greenwich,Music (office based businesses),E09000011,11/27/2022
Greenwich,,V Records Ltd,10010227348,E09000011,2 Helen Street,Greenwich,,Woolwich Common,E05000229,0.07134467030640347,543792.0001222938,51.488842779092245,178743.00012149662,Greenwich,Music (office based businesses),E09000011,11/27/2022
,http://piratestudios.co.uk,Pirate Studios - Greenwich Production Studios,,,22 Bugsby's Way,,,,,0.029856389414907897,540908.6116601974,51.489997133422264,178790.66616029292,Greenwich,Music recording studios,E09000011,11/27/2022
,http://piratestudios.co.uk,Pirate Studios - Greenwich Rehearsal Studios,,,22 Bugsby's Way,,,,,0.02985785425104954,540908.7193751931,51.489995175198246,178790.4512493983,Greenwich,Music rehearsal studios,E09000011,11/27/2022
Greenwich,www.abbeymusicstudios.co.uk,Abbey Music Studios,10010234363,E09000011,Goldie Leigh Hospital Lodge Hill,Greenwich,,Abbey Wood,E05000214,0.11760343336654293,547040.0001222938,51.47732259620101,177554.00012139976,Greenwich,Music rehearsal studios,E09000011,11/27/2022
Greenwich,www.elthamgpo.com,Eltham Gpo,100000000000,E09000011,4 Passey Place,Greenwich,,Eltham South,E05000219,0.05534181645296188,542803.0001222938,51.449821314140365,174373.00012149662,Greenwich,Music venues (all),E09000011,11/27/2022
Greenwich,,The Red Lion,10010201622,E09000011,6 Red Lion Place,Greenwich,,Shooters Hill,E05000227,0.0618441695624158,543191.0001222938,51.470177144410926,176649.00012149662,Greenwich,Music venues (all),E09000011,11/27/2022
Greenwich,,Long Pond,100000000000,E09000011,110 Westmount Road,Greenwich,,Eltham North,E05000218,0.06122397710056839,543191.0001222938,51.45641844957983,175118.00012149662,Greenwich,Music venues (all),E09000011,11/27/2022
Greenwich,www.blackheathhalls.com,Blackheath Halls,100000000000,E09000011,23 Lee Road,Lewisham,,Blackheath Westcombe,E05000215,0.011221900221628672,539695.000122197,51.46386157882878,175849.00012149662,Greenwich,Music venues (all),E09000011,11/27/2022
Greenwich,,Bull Hotel,100000000000,E09000011,151 Shooters Hill,Greenwich,,Shooters Hill,E05000227,0.06820361798492895,543637.0001222938,51.46877899091203,176506.00012149662,Greenwich,Music venues (all),E09000011,11/27/2022
Greenwich,www.britishoakblackheath.com,British Oak,100000000000,E09000011,109 Old Dover Road,Greenwich,,Kidbrooke With Hornfair,E05000223,0.027756469489024698,540807.000122197,51.47566439323026,177193.00012149662,Greenwich,Music venues (all),E09000011,11/27/2022
Greenwich,www.oliversjazzbar.co.uk,Olivers Jazz Bar,10010246216,E09000011,9 Nevada Street,Greenwich,,Greenwich West,E05000222,-0.006384295518765232,538426.000122197,51.47912796961092,177513.00012149662,Greenwich,Music venues (all),E09000011,11/27/2022
Greenwich,www.thedukedeptford.com,The Duke,100000000000,E09000011,125 Creek Road,Greenwich,,Greenwich West,E05000222,-0.0188047643502304,537559.000122197,51.48067859538678,177662.00012149662,Greenwich,Music venues (all),E09000011,11/27/2022
Greenwich,www.the-coach-and-horses.co.uk,The Coach And Horses,10010200567,E09000011,13 Greenwich Market,Greenwich,,Greenwich West,E05000222,-0.007450798136394263,538347.000122197,51.480764976929315,177693.00012149662,Greenwich,Music venues (all),E09000011,11/27/2022
Greenwich,www.admiralhardy.co.uk,Admiral Hardy,100000000000,E09000011,7 College Approach,Greenwich,,Greenwich West,E05000222,-0.00785987475124323,538317.000122197,51.48129356658768,177751.00012149662,Greenwich,Music venues (all),E09000011,11/27/2022
Greenwich,,Old Mill,10010194001,E09000011,1 Old Mill Road,Greenwich,,Glyndon,E05000221,0.08567591874633808,544811.0001222938,51.48119574489661,177921.00012139976,Greenwich,Music venues (all),E09000011,11/27/2022
Greenwich,https:/www.trinitylaban.ac.uk/whats-on,Trinity Laban Faculty Of Music,0,E09000011,King Charles Court Old Royal Naval College,London,,Greenwich West,E05000222,-0.005358978140720215,538485.3565064967,51.483032489557154,177949.07611029595,Greenwich,Music venues (all),E09000011,11/27/2022
Greenwich,www.peltonarms.com,Pelton Arms,10010201122,E09000011,23-25 Pelton Road,Greenwich,,Peninsula,E05000225,0.0041587519390564156,539136.000122197,51.486350072554785,178336.00012149662,Greenwich,Music venues (all),E09000011,11/27/2022
Greenwich,www.studio338.co.uk/,Studio 338,100000000000,E09000011,338 Tunnel Avenue,Greenwich,,Peninsula,E05000225,0.006378926130508696,539264.000122197,51.49491912345394,179293.00012149662,Greenwich,Music venues (all),E09000011,11/27/2022
Greenwich,www.theo2.co.uk,The O2,10010224811,E09000011,Unit 6 Peninsula Square,Greenwich,,Peninsula,E05000225,0.006379516498071449,539244.000122197,51.50149354179613,180024.00012149662,Greenwich,Music venues (all),E09000011,11/27/2022
Greenwich,https://www.theo2.co.uk/events/venue/indigo-at-the-o2,Indigo At The O?,0,E09000011,The O2 Peninsula Square,London,,Peninsula,E05000225,0.007731553343484755,539336.140930295,51.50204517762753,180087.90887399763,Greenwich,Music venues (all),E09000011,11/27/2022
Greenwich,www.oliversjazzbar.co.uk,Olivers Jazz Bar,10010246216,E09000011,9 Nevada Street,Greenwich,,Greenwich West,E05000222,-0.006384295518765232,538426.000122197,51.47912796961092,177513.00012149662,Greenwich,Music venues (grassroots),E09000011,11/27/2022
Greenwich,,Greenwich Park ,,E09000011,Greenwich,,,Greenwich West,E05000222,0.00013000161638051385,538885.6834716946,51.47668999948748,177254.26428219676,Greenwich,Outdoor spaces for cultural use,E09000011,11/27/2022
Greenwich,,Black Boy,,E09000011,Southspring,Sidcup,Avery Hill,Eltham South,E05000219,0.08639133001100892,544977.0001221001,51.44447893291986,173840.00012210011,Greenwich,Pubs,E09000011,11/27/2022
Greenwich,,Meantime Brewery Tasting Rooms,,E09000011,"Lawrence Trading Estate, Blackwall Lane",Greenwich,East Greenwich,Peninsula,E05000225,0.009573022276976212,539504.0001221001,51.48891954703291,178632.00012210011,Greenwich,Pubs,E09000011,11/27/2022
Greenwich,,Pilot Inn,,E09000011,68 River Way,Greenwich,North Greenwich,Peninsula,E05000225,0.012079487898091209,539657.0001221001,51.495783766850415,179400.00012210011,Greenwich,Pubs,E09000011,11/27/2022
Greenwich,,Greenwich Yacht Club,,E09000011,"Pear Tree Wharf, 1 Pear Tree Way",Greenwich,,Peninsula,E05000225,0.02019717874212203,540223.0001221001,51.49493367129624,179321.00012210011,Greenwich,Pubs,E09000011,11/27/2022
Greenwich,,Beer Box,,E09000011,"Peninsula Square, Greenwich Peninsula",Greenwich,North Greenwich,Peninsula,E05000225,0.0055644572330771636,539188.0001221001,51.50130962348427,180002.00012210011,Greenwich,Pubs,E09000011,11/27/2022
Greenwich,,All Bar One,,E09000011,"Unit 2, The O2,",Greenwich,North Greenwich,Peninsula,E05000225,0.0055644572330771636,539188.0001221001,51.50130962348427,180002.00012210011,Greenwich,Pubs,E09000011,11/27/2022
Greenwich,,Angerstein Hotel,,E09000011,108 Woolwich Road,Greenwich,East Greenwich,Peninsula,E05000225,0.017942671375537553,540095.0001221001,51.48564595474793,178284.00012210011,Greenwich,Pubs,E09000011,11/27/2022
Greenwich,,Thai Tiger,,E09000011,1 Woolwich Road,Greenwich,East Greenwich,Peninsula,E05000225,0.01001680769166671,539544.0001221001,51.48590802193792,178298.00012210011,Greenwich,Pubs,E09000011,11/27/2022
Greenwich,,River Ale House,,E09000011,131 Woolwich Road,Greenwich,East Greenwich,Peninsula,E05000225,0.016016582511269556,539961.0001221001,51.48574204782879,178291.00012210011,Greenwich,Pubs,E09000011,11/27/2022
Greenwich,,George & Dragon,,E09000011,2 Blackheath Hill,Greenwich,London,Greenwich West,E05000222,-0.013448821120409385,537956.0001221001,51.47234069121156,176745.00012210011,Greenwich,Pubs,E09000011,11/27/2022
Greenwich,,Old Rose & Crown,,E09000011,1 Crooms Hill,Greenwich,London,Greenwich West,E05000222,-0.006093643107494077,538449.0001221001,51.47819666955084,177410.00012210011,Greenwich,Pubs,E09000011,11/27/2022
Greenwich,,Belushi's,,E09000011,189 Greenwich High Road,Greenwich,London,Greenwich West,E05000222,-0.013129822403749047,537964.0001221001,51.47703002455465,177267.00012210011,Greenwich,Pubs,E09000011,11/27/2022
Greenwich,,North Pole,,E09000011,131 Greenwich High Road,Greenwich,London,Greenwich West,E05000222,-0.013129822403749047,537964.0001221001,51.47703002455465,177267.00012210011,Greenwich,Pubs,E09000011,11/27/2022
Greenwich,,Davy's Wine Vaults,,E09000011,161 Greenwich High Road,Greenwich,London,Greenwich West,E05000222,-0.013129822403749047,537964.0001221001,51.47703002455465,177267.00012210011,Greenwich,Pubs,E09000011,11/27/2022
Greenwich,,Elements,,E09000011,"Novotel Hotel, 173-185 Greenwich High Road",Greenwich,London,Greenwich West,E05000222,-0.013129822403749047,537964.0001221001,51.47703002455465,177267.00012210011,Greenwich,Pubs,E09000011,11/27/2022
Greenwich,,Thyme,,E09000011,"Premier Inn, 43-81 Greenwich High Road",Greenwich,,Greenwich West,E05000222,-0.018941648647714623,537568.0001221001,51.47452918836126,176978.00012210011,Greenwich,Pubs,E09000011,11/27/2022
Greenwich,,Guildford Arms,,E09000011,55 Guildford Grove,Greenwich,London,Greenwich West,E05000222,-0.014644215348058934,537869.0001221001,51.47366503689258,176890.00012210011,Greenwich,Pubs,E09000011,11/27/2022
Greenwich,,Bar 57,,E09000011,57 Greenwich High Road,Greenwich,London,Greenwich West,E05000222,-0.016812091996353758,537715.0001221001,51.47481695659199,177014.00012210011,Greenwich,Pubs,E09000011,11/27/2022
Greenwich,,Mitre Hotel,,E09000011,291 Greenwich High Road,Greenwich,London,Greenwich West,E05000222,-0.008161448308894082,538301.0001221001,51.47966182784016,177569.00012210011,Greenwich,Pubs,E09000011,11/27/2022
Greenwich,,Lost Hour,,E09000011,217 Greenwich High Road,Greenwich,London,Greenwich West,E05000222,-0.009785443445294187,538192.0001221001,51.47842128973308,177428.00012210011,Greenwich,Pubs,E09000011,11/27/2022
Greenwich,,Graduate,,E09000011,107-109 Blackheath Road,Greenwich,London,Greenwich West,E05000222,-0.013720624958918645,537936.0001221001,51.47271404094291,176786.00012210011,Greenwich,Pubs,E09000011,11/27/2022
Greenwich,,Greenwich Union,,E09000011,56 Royal Hill,Greenwich,London,Greenwich West,E05000222,-0.008233691394594246,538307.0001221001,51.476020584188255,177164.00012210011,Greenwich,Pubs,E09000011,11/27/2022
Greenwich,,Prince of Greenwich,,E09000011,72 Royal Hill,Greenwich,London,Greenwich West,E05000222,-0.008233691394594246,538307.0001221001,51.476020584188255,177164.00012210011,Greenwich,Pubs,E09000011,11/27/2022
Greenwich,,Richard I,,E09000011,52-54 Royal Hill,Greenwich,London,Greenwich West,E05000222,-0.008233691394594246,538307.0001221001,51.476020584188255,177164.00012210011,Greenwich,Pubs,E09000011,11/27/2022
Greenwich,,Morden Arms,,E09000011,1 Brand Street,Greenwich,London,Greenwich West,E05000222,-0.009949126809799409,538189.0001221001,51.475653991963135,177120.00012210011,Greenwich,Pubs,E09000011,11/27/2022
Greenwich,,Ashburnham Arms,,E09000011,25 Ashburnham Grove,Greenwich,London,Greenwich West,E05000222,-0.0146883147768954,537861.0001221001,51.47530264667754,177072.00012210011,Greenwich,Pubs,E09000011,11/27/2022
Greenwich,,Royal Standard,,E09000011,67 Pelton Road,Greenwich,East Greenwich,Peninsula,E05000225,0.005352142484351238,539220.0001221001,51.4859699155317,178296.00012210011,Greenwich,Pubs,E09000011,11/27/2022
Greenwich,,Gipsy Moth,,E09000011,60 Greenwich Church Street,Greenwich,London,Greenwich West,E05000222,-0.008224799919985228,538292.0001221001,51.481182848315306,177738.00012210011,Greenwich,Pubs,E09000011,11/27/2022
Greenwich,,Spanish Galleon,,E09000011,48 Greenwich Church Street,Greenwich,London,Greenwich West,E05000222,-0.008224799919985228,538292.0001221001,51.481182848315306,177738.00012210011,Greenwich,Pubs,E09000011,11/27/2022
Greenwich,,Vanbrugh,,E09000011,91 Colomb Street,Greenwich,East Greenwich,Peninsula,E05000225,0.009031045933339444,539484.0001221001,51.48314584405062,177989.00012210011,Greenwich,Pubs,E09000011,11/27/2022
Greenwich,,Sail Loft,,E09000011,11 Victoria Parade,Greenwich,,Greenwich West,E05000222,-0.013196122406655353,537943.0001221001,51.4824633714435,177871.00012210011,Greenwich,Pubs,E09000011,11/27/2022
Greenwich,,Coach & Horses,,E09000011,13 Greenwich Market,Greenwich,London,Greenwich West,E05000222,-0.007370212613084794,538352.0001221001,51.480961469815014,177715.00012210011,Greenwich,Pubs,E09000011,11/27/2022
Greenwich,,Greenwich Tavern,,E09000011,1 King William Walk,Greenwich,London,Greenwich West,E05000222,-0.006135475833277346,538441.0001221001,51.479879213537416,177597.00012210011,Greenwich,Pubs,E09000011,11/27/2022
Greenwich,,Kings Arms,,E09000011,16 King William Walk,Greenwich,London,Greenwich West,E05000222,-0.006135475833277346,538441.0001221001,51.479879213537416,177597.00012210011,Greenwich,Pubs,E09000011,11/27/2022
Greenwich,,Old Brewery,,E09000011,"The Pepys Building, The Old Royal Naval College",Greenwich,London,Greenwich West,E05000222,-0.007428940068338886,538344.0001221001,51.48225756821596,177859.00012210011,Greenwich,Pubs,E09000011,11/27/2022
Greenwich,,Plume of Feathers,,E09000011,19 Park Vista,Greenwich,London,Peninsula,E05000225,0.0009813102262204994,538930.0001221001,51.48155671052053,177797.00012210011,Greenwich,Pubs,E09000011,11/27/2022
Greenwich,,Yacht,,E09000011,5-7 Crane Street,Greenwich,London,Peninsula,E05000225,-0.001900930497620311,538722.0001221001,51.48416009635896,178081.00012210011,Greenwich,Pubs,E09000011,11/27/2022
Greenwich,,Trafalgar Tavern,,E09000011,Park Row,Greenwich,London,Peninsula,E05000225,-0.0026401411632823897,538671.0001221001,51.48405577370026,178068.00012210011,Greenwich,Pubs,E09000011,11/27/2022
Greenwich,,Star & Garter,,E09000011,60 Old Woolwich Road,Greenwich,East Greenwich,Peninsula,E05000225,0.00110374585315674,538932.0001221001,51.48369513575501,178035.00012210011,Greenwich,Pubs,E09000011,11/27/2022
Greenwich,,Cutty Sark,,E09000011,4-6 Ballast Quay,Greenwich,East Greenwich,Peninsula,E05000225,0.0016363328301623181,538962.0001221001,51.48598844602905,178291.00012210011,Greenwich,Pubs,E09000011,11/27/2022
Greenwich,,Pelton Arms,,E09000011,23-25 Pelton Road,Greenwich,East Greenwich,Peninsula,E05000225,0.004400310618147718,539153.0001221001,51.486273992890474,178328.00012210011,Greenwich,Pubs,E09000011,11/27/2022
Greenwich,,Gate Clock,,E09000011,210 Creek Road,Greenwich,London,Greenwich West,E05000222,-0.011150558682748083,538089.0001221001,51.48114258169459,177728.00012210011,Greenwich,Pubs,E09000011,11/27/2022
Greenwich,,Thirsty Dragon,,E09000011,166 Trafalgar Road,Greenwich,East Greenwich,Peninsula,E05000225,0.0057417726977343824,539252.0001221001,51.48434437299495,178116.00012210011,Greenwich,Pubs,E09000011,11/27/2022
Greenwich,,Crown,,E09000011,176 Trafalgar Road,Greenwich,East Greenwich,Peninsula,E05000225,0.0057417726977343824,539252.0001221001,51.48434437299495,178116.00012210011,Greenwich,Pubs,E09000011,11/27/2022
Greenwich,,Hardy's Free House,,E09000011,92 Trafalgar Road,Greenwich,East Greenwich,Peninsula,E05000225,0.003125423853138314,539073.0001221001,51.48348073532121,178015.00012210011,Greenwich,Pubs,E09000011,11/27/2022
Greenwich,,Ship,,E09000011,205 Plumstead Common Road,Plumstead,Plumstead Common,Glyndon,E05000221,0.08108034643900154,544494.0001221001,51.480548912685535,177840.00012210011,Greenwich,Pubs,E09000011,11/27/2022
Greenwich,,Volunteer,,E09000011,130-132 Plumstead High Street,Plumstead,London,Plumstead,E05000226,0.0940629267472752,545376.0001221001,51.486622432413284,178541.00012210011,Greenwich,Pubs,E09000011,11/27/2022
Greenwich,,Plume of Feathers,,E09000011,282 Plumstead High Street,Plumstead,London,Plumstead,E05000226,0.10255668134230966,545971.0001221001,51.484932454289435,178370.00012210011,Greenwich,Pubs,E09000011,11/27/2022
Greenwich,,Old Mill,,E09000011,1 Old Mill Road,Plumstead,Plumstead Common,Glyndon,E05000221,0.08759712115201397,544945.0001221001,51.48099965890511,177903.00012210011,Greenwich,Pubs,E09000011,11/27/2022
Greenwich,,Who'd 'a' Thought It,,E09000011,7 Timbercroft Lane,Plumstead,Plumstead Common,Shooters Hill,E05000227,0.08862900966788981,545025.0001221001,51.47836406136131,177612.00012210011,Greenwich,Pubs,E09000011,11/27/2022
Greenwich,,Fox & Hounds,,E09000011,57 Plumstead Common Road,Plumstead,Plumstead Common,Woolwich Common,E05000229,0.0713707696957283,543816.0001221001,51.48179114356118,177959.00012210011,Greenwich,Pubs,E09000011,11/27/2022
Greenwich,,Bull,,E09000011,151 Shooters Hill,Woolwich,Shooters Hill,Shooters Hill,E05000227,0.07200983856146169,543903.0001221001,51.468244091552975,176454.00012210011,Greenwich,Pubs,E09000011,11/27/2022
Greenwich,,Red Lion,,E09000011,6 Red Lion Place,Woolwich,Shooters Hill,Shooters Hill,E05000227,0.06184416955987334,543191.0001221001,51.470177144416404,176649.00012210011,Greenwich,Pubs,E09000011,11/27/2022
Greenwich,,Lord Herbert,,E09000011,47 Herbert Road,Plumstead,London,Woolwich Common,E05000229,0.07110331075275314,543805.0001221001,51.47938551695127,177691.00012210011,Greenwich,Pubs,E09000011,11/27/2022
Greenwich,,Fox under the Hill,,E09000011,286 Shooters Hill Road,Woolwich,Shooters Hill,Kidbrooke with Hornfair,E05000223,0.04267563116948214,541851.0001221001,51.473048996472784,176931.00012210011,Greenwich,Pubs,E09000011,11/27/2022
Greenwich,,George IV,,E09000011,120 Rectory Place,Woolwich,London,Woolwich Riverside,E05000230,0.06221758657821041,543155.0001221001,51.48994803055872,178848.00012210011,Greenwich,Pubs,E09000011,11/27/2022
Greenwich,,Albion,,E09000011,78 Woolwich Church Street,Woolwich,London,Woolwich Riverside,E05000230,0.05006351396814008,542306.0001221001,51.491672146427774,179016.00012210011,Greenwich,Pubs,E09000011,11/27/2022
Greenwich,,St Clair's,,E09000011,9 Warspite Road,Woolwich,London,Woolwich Riverside,E05000230,0.04637718072140614,542047.0001221001,51.49268089592498,179121.00012210011,Greenwich,Pubs,E09000011,11/27/2022
Greenwich,,Greyhound,,E09000011,20 Kingsman Parade,Woolwich,London,Woolwich Riverside,E05000230,0.05717654965421644,542799.0001221001,51.491898312968836,179055.00012210011,Greenwich,Pubs,E09000011,11/27/2022
Greenwich,,Woolwich Equitable,,E09000011,"Equitable House, 10 Woolwich New Road",Woolwich,London,Woolwich Riverside,E05000230,0.07019426381742283,543709.0001221001,51.48984342691174,178852.00012210011,Greenwich,Pubs,E09000011,11/27/2022
Greenwich,,Ordnance,,E09000011,18 Beresford Square,Woolwich,London,Woolwich Riverside,E05000230,0.07113674852186168,543773.0001221001,51.490294460496436,178904.00012210011,Greenwich,Pubs,E09000011,11/27/2022
Greenwich,,Beefeater,,E09000011,91 Beresford Street,Woolwich,London,Woolwich Riverside,E05000230,0.06792014678926202,543543.0001221001,51.492437809242084,179136.00012210011,Greenwich,Pubs,E09000011,11/27/2022
Greenwich,,Anglesea Arms,,E09000011,91 Woolwich New Road,Woolwich,London,Woolwich Common,E05000229,0.06845010872489649,543594.0001221001,51.487913555536906,178634.00012210011,Greenwich,Pubs,E09000011,11/27/2022
Greenwich,,Taproom SE18,,E09000011,15 Major Draper Street,Woolwich,London,Woolwich Riverside,E05000230,0.07247544571772889,543859.0001221001,51.49249228174391,179151.00012210011,Greenwich,Pubs,E09000011,11/27/2022
Greenwich,,Guard House,,E09000011,No. 1 Street,Woolwich,London,Woolwich Riverside,E05000230,0.07069847977429855,543738.0001221001,51.49175020970469,179065.00012210011,Greenwich,Pubs,E09000011,11/27/2022
Greenwich,,Dial Arch,,E09000011,"Dial Arch Buildings, No. 1 Street",Woolwich,London,Woolwich Riverside,E05000230,0.07069847977429855,543738.0001221001,51.49175020970469,179065.00012210011,Greenwich,Pubs,E09000011,11/27/2022
Greenwich,,Earl of Chatham,,E09000011,15 Thomas Street,Woolwich,London,Woolwich Riverside,E05000230,0.06766718630792738,543533.0001221001,51.49003192363582,178868.00012210011,Greenwich,Pubs,E09000011,11/27/2022
Greenwich,,Castle Tavern,,E09000011,179 Powis Street,Woolwich,London,Woolwich Riverside,E05000230,0.06476205342434703,543326.0001221001,51.491737987666916,179052.00012210011,Greenwich,Pubs,E09000011,11/27/2022
Greenwich,,Elephant & Castle,,E09000011,18 Green's End,Woolwich,London,Woolwich Riverside,E05000230,0.0698540678571234,543685.0001221001,51.489966353411305,178865.00012210011,Greenwich,Pubs,E09000011,11/27/2022
Greenwich,,Prince Albert (Rose's),,E09000011,47-49 Hare Street,Woolwich,London,Woolwich Riverside,E05000230,0.06516519063359566,543352.0001221001,51.492369449049086,179123.00012210011,Greenwich,Pubs,E09000011,11/27/2022
Greenwich,,Great Harry,,E09000011,7-9 Wellington Street,Woolwich,London,Woolwich Common,E05000229,0.06807805627914337,543564.0001221001,51.4892422130858,178781.00012210011,Greenwich,Pubs,E09000011,11/27/2022
Greenwich,,Bull Tavern,,E09000011,14 Vincent Road,Woolwich,London,Woolwich Common,E05000229,0.07117641094209935,543780.0001221001,51.48894468398371,178754.00012210011,Greenwich,Pubs,E09000011,11/27/2022
Greenwich,,Melbourne Arms,,E09000011,81 Sandy Hill Road,Plumstead,London,Woolwich Common,E05000229,0.07150288077324458,543820.0001221001,51.483434683526774,178142.00012210011,Greenwich,Pubs,E09000011,11/27/2022
Greenwich,,Lord Raglan,,E09000011,158 Burrage Road,Plumstead,London,Woolwich Common,E05000229,0.07482215542658084,544045.0001221001,51.48515676766423,178340.00012210011,Greenwich,Pubs,E09000011,11/27/2022
Greenwich,,Rose Inn,,E09000011,2 Waverley Road,Plumstead,London,Glyndon,E05000221,0.08164971917780077,544519.0001221001,51.48514366074739,178352.00012210011,Greenwich,Pubs,E09000011,11/27/2022
Greenwich,,Cutty Sark,,E09000011,14 Joyce Dawson Way,Thamesmead,London,Thamesmead Moorings,E05000228,0.10865394781811481,546325.0001221001,51.50655215387736,180786.00012210011,Greenwich,Pubs,E09000011,11/27/2022
Greenwich,,Birchwood,,E09000011,Grovebury Road,Abbey Wood,London,Abbey Wood,E05000214,0.11611509049196983,546873.0001221001,51.497127058654314,179753.00012210011,Greenwich,Pubs,E09000011,11/27/2022
Greenwich,,Abbey Arms,,E09000011,31 Wilton Road,Abbey Wood,London,Abbey Wood,E05000214,0.12273359583979261,547356.0001221001,51.489785313741265,178950.00012210011,Greenwich,Pubs,E09000011,11/27/2022
Greenwich,,Royal Standard,,E09000011,44 Vanburgh Park,Blackheath,Westcombe Park,Blackheath Westcombe,E05000215,0.018241201603025413,540144.0001221001,51.47642218739131,177259.00012210011,Greenwich,Pubs,E09000011,11/27/2022
Greenwich,,Charlton Park Rugby Football Club,,E09000011,60A Broad Walk,Kidbrooke,London,Kidbrooke with Hornfair,E05000223,0.03622791484636845,541427.0001221001,51.465381515988135,176066.00012210011,Greenwich,Pubs,E09000011,11/27/2022
Greenwich,,British Oak,,E09000011,109 Old Dover Road,Kidbrooke,London,Kidbrooke with Hornfair,E05000223,0.02772928146139676,540805.0001221001,51.47570083872988,177197.00012210011,Greenwich,Pubs,E09000011,11/27/2022
Greenwich,,Sun in the Sands,,E09000011,123 Shooters Hill Road,Kidbrooke,London,Kidbrooke with Hornfair,E05000223,0.02841255804348969,540855.0001221001,51.474870581710384,177106.00012210011,Greenwich,Pubs,E09000011,11/27/2022
Greenwich,,Rose of Denmark,,E09000011,296 Woolwich Road,Charlton,New Charlton,Peninsula,E05000225,0.02840488571084989,540818.0001221001,51.486706551211824,178422.00012210011,Greenwich,Pubs,E09000011,11/27/2022
Greenwich,,Anchor & Hope,,E09000011,2 Riverside Walk,Charlton,New Charlton,Peninsula,E05000225,0.030388580267665697,540936.0001221001,51.49309377754754,179136.00012210011,Greenwich,Pubs,E09000011,11/27/2022
Greenwich,,Royal Oak,,E09000011,54 Charlton Lane,Charlton,London,Charlton,E05000216,0.04076483141699348,541674.0001221001,51.487346464693275,178517.00012210011,Greenwich,Pubs,E09000011,11/27/2022
Greenwich,,Bugle Horn,,E09000011,6 The Village,Charlton,London,Charlton,E05000216,0.03903907517879334,541573.0001221001,51.48127869200345,177839.00012210011,Greenwich,Pubs,E09000011,11/27/2022
Greenwich,,White Swan,,E09000011,22 The Village,Charlton,London,Charlton,E05000216,0.03903907517879334,541573.0001221001,51.48127869200345,177839.00012210011,Greenwich,Pubs,E09000011,11/27/2022
Greenwich,,Duke,,E09000011,125 Creek Road,Deptford,London,Greenwich West,E05000222,-0.01958003877604878,537504.0001221001,51.48106943142965,177704.00012210011,Greenwich,Pubs,E09000011,11/27/2022
Greenwich,,Draughts,,E09000011,34 Eltham High Street,Eltham,London,Eltham South,E05000219,0.052530554696137655,542606.0001221001,51.45036524345735,174428.00012210011,Greenwich,Pubs,E09000011,11/27/2022
Greenwich,,Bankers Draft,,E09000011,80 Eltham High Street,Eltham,London,Eltham South,E05000219,0.05486006251705956,542769.0001221001,51.44999165122479,174391.00012210011,Greenwich,Pubs,E09000011,11/27/2022
Greenwich,,White Hart,,E09000011,2 Eltham High Street,Eltham,London,Eltham South,E05000219,0.05108753013965093,542505.0001221001,51.45060635851079,174452.00012210011,Greenwich,Pubs,E09000011,11/27/2022
Greenwich,,Rising Sun,,E09000011,189-191 Eltham High Street,Eltham,London,Eltham North,E05000218,0.060278337864886435,543144.0001221001,51.450445156025836,174452.00012210011,Greenwich,Pubs,E09000011,11/27/2022
Greenwich,,Long Pond,,E09000011,110 Westmount Road,Eltham,London,Eltham North,E05000218,0.06112468931164201,543183.0001221001,51.456770956563375,175157.00012210011,Greenwich,Pubs,E09000011,11/27/2022
Greenwich,,Beehive,,E09000011,356 Footscray Road,New Eltham,London,Eltham South,E05000219,0.07297583783091066,544065.0001221001,51.438088486997536,173103.00012210011,Greenwich,Pubs,E09000011,11/27/2022
Greenwich,,Farmhouse,,E09000011,52 Jason Walk,New Eltham,London,Coldharbour and New Eltham,E05000217,0.06055781201565014,543237.0001221001,51.42692121103053,171837.00012210011,Greenwich,Pubs,E09000011,11/27/2022
Greenwich,,Royal,,E09000011,185 Court Road,Mottingham,London,Coldharbour and New Eltham,E05000217,0.052654535443379925,542651.0001221001,51.43868902126405,173130.00012210011,Greenwich,Pubs,E09000011,11/27/2022
Greenwich,,Park Tavern,,E09000011,45 Passey Place,Eltham,London,Eltham South,E05000219,0.056076804260830254,542855.0001221001,51.44952061861698,174341.00012210011,Greenwich,Pubs,E09000011,11/27/2022
Greenwich,,Eltham GPO,,E09000011,4 Passey Place,Eltham,London,Eltham South,E05000219,0.055338437546246184,542804.0001221001,51.44942564301427,174329.00012210011,Greenwich,Pubs,E09000011,11/27/2022
Greenwich,,Rusty Bucket,,E09000011,11 Court Yard,Eltham,London,Eltham South,E05000219,0.0536904680786042,542689.0001221001,51.44958943949845,174344.00012210011,Greenwich,Pubs,E09000011,11/27/2022
Greenwich,,Tudor Barn,,E09000011,"Well Hall Pleasaunce, Well Hall Road",Eltham,Well Hall,Eltham North,E05000218,0.051306642304649853,542499.0001221001,51.457419870783546,175210.00012210011,Greenwich,Pubs,E09000011,11/27/2022
Greenwich,https://helix3d.co.uk/,Helix 3D Ltd,100000000000,E09000011,The Old Turbine Factory,138-140  Nathan Way,,Thamesmead Moorings,E05000228,0.1014394265169826,545863.0001221001,51.494468009214756,179428.00012210011,Greenwich,Set and exhibition building,E09000011,11/27/2022
Greenwich,http://s2events.co.uk,S2 Events,100000000000,E09000011,141-143  Nathan Way,,,Thamesmead Moorings,E05000228,0.10123195800277407,545845.0001221001,51.49559596145226,179553.00012210011,Greenwich,Set and exhibition building,E09000011,11/27/2022
Greenwich,,Woolwich,0,E09000011,,,,Woolwich Riverside,E05000230,0.06832805871455983,543567.0162963942,51.493804953871994,179288.80932619423,Greenwich,Skate Parks,E09000011,11/27/2022
Greenwich,www.glypt.co.uk,The Tramshed,100023246054,E09000011,51-53 Woolwich New Road,,,Woolwich Common,E05000229,0.0680210852899668,543446.4500886544,51.48949713383379,178863.3803113274,Greenwich,Theatre rehearsal studio,E09000011,11/27/2022
Greenwich,http://www.glypt.co.uk/,Greenwich & Lewisham Young People's Theatre,100023000000,E09000011,The Tramshed, 51-53 Woolwich New Road,NA,Woolwich Riverside,E05000230,0.0663930789412,543331.8397495545,51.490012927078496,178917.5325181157,Greenwich,Theatres,E09000011,11/27/2022
Greenwich,https://www.greenwichtheatre.org.uk/,Greenwich Theatre,10010200382,E09000011,Crooms Hill,NA,NA,Greenwich West,E05000222,-0.009243720086876964,538112.7188837732,51.479982816820986,177656.9066608037,Greenwich,Theatres,E09000011,11/27/2022
Greenwich,http://www.bobhopetheatre.co.uk/,Bob Hope Theatre,100023000000,E09000011,2 Wythfield Rd, Eltham,NA,Eltham South,E05000219,0.04888525884825754,542241.2339865477,51.45000019851771,174434.96866584546,Greenwich,Theatres,E09000011,11/27/2022
