borough_name,website,site_name,os_addressbase_uprn,borough_code,address1,address2,address3,ward_2018_name,ward_2018_code,longitude,easting,latitude,northing,BOROUGH,Cultural Venue Type,gss_code,runtime
Tower Hamlets,https://www.spab.org.uk/,Society for the Protection of Ancient Buildings,6001685,E09000030,37 Spital Square,,,Spitalfields & Banglatown,E05009333,-0.07846714827917907,533189.9124816293,51.52020003485407,181999.8360322207,Hackney,Archives,E09000012,11/27/2022
Tower Hamlets,http://www.thisisliveart.co.uk/resources/study-room/,Live Art Development Agency's Study Room,6077530,E09000030,White Building, Unit 7 Queen's Yard ,White Post Lane,Bow East,E05009319,-0.022112690097632323,537030.110317108,51.54298590870141,184637.27011714817,Hackney,Archives,E09000012,11/27/2022
Hackney,http://www.bpf.co.uk/,British Plastics Federation,10008338301,E09000012,5 - 6 Bath Place ,Rivington Street,,Hoxton East & Shoreditch,E05009377,-0.08272206340316252,532876.990304526,51.526312808735966,182671.70963354048,Hackney,Archives,E09000012,11/27/2022
Hackney,http://www.alpine-club.org.uk/ac2/ac-media/archive,Alpine Club Archives,10008348373,E09000012,55/56 Charlotte Road,,,Hoxton East & Shoreditch,E05009377,-0.08066262827919764,533020.9594431634,51.52591938983411,182631.7120352934,Hackney,Archives,E09000012,11/27/2022
Hackney,https://www.geffrye-museum.org.uk/,Geffrye Museum,100021000000,E09000012,Kingsland Road,,,Haggerston,E05009375,-0.07624406710106549,533310.9131653094,51.53155722087009,183266.55486024573,Hackney,Archives,E09000012,11/27/2022
Hackney,https://www.nspcc.org.uk/,National Society for the Prevention of Cruelty to Children,100023000000,E09000012,Library and Information Service Weston House 42 Curtain Road,,,Hoxton East & Shoreditch,E05009377,-0.0801269229761264,533065.4449335799,51.52340480570529,182353.1183846749,Hackney,Archives,E09000012,11/27/2022
Hackney,https://livability.org.uk/about-us/history-and-track-record/,Livability (Shaftesbury Society),100023000000,E09000012,50 Scrutton Street,,,Hoxton East & Shoreditch,E05009377,-0.08114908585344721,532994.9592976518,51.52326552439398,182335.77498100838,Hackney,Archives,E09000012,11/27/2022
Hackney,https://www.hackney.gov.uk/stoke-newington-library,"Hackney Public Libraries, Stoke Newington District Library",100023000000,E09000012, Church Street,Stoke Newington,,Clissold,E05009369,-0.08279582592299013,532768.9485594278,51.56161890191298,186596.8435713476,Hackney,Archives,E09000012,11/27/2022
Hackney,eatworkart.com,Netil House,100023015639,E09000012,Netil House,1 Westgate Street,,London Fields,E05009381,-0.05770595080742789,534578.651565061,51.53756412429039,183968.31210421876,Hackney,Artists workspaces,E09000012,11/27/2022
Hackney,http://www.standpointlondon.co.uk/,,10091816467,E09000012,45 Coronet Street,,,Hoxton East & Shoreditch,E05009377,-0.08182516380314092,532936.9794232905,51.52707149707812,182757.68901411985,Hackney,Artists workspaces,E09000012,11/27/2022
Tower Hamlets,https://www.unripebanana.co.uk,Unripe Banana,6023163,E09000030,"Unit 7, 268",Hackney Road,,Weavers,E05009335,-0.06895963320562752,533817.8081063883,51.53095176925747,183212.53401391703,Hackney,Artists workspaces,E09000012,11/27/2022
Hackney,www.hoxtonhall.co.uk,,100023135706,E09000012,130 Hoxton Street,,,Hoxton East & Shoreditch,E05009377,-0.07978283904772866,533064.9637829227,51.531750173675704,183281.56826424,Hackney,Artists workspaces,E09000012,11/27/2022
Hackney,www.spacestudios.org.uk,Sara Lane,100000000000,E09000012,60 Stanway Street,Hackney,,Hoxton East & Shoreditch,E05009377,-0.07892943163025179,533119.9557465187,51.533183988806535,183442.528587792,Hackney,Artists workspaces,E09000012,11/27/2022
Hackney,www.spacestudios.org.uk,Timber Wharf -Block C,100023546631,E09000012,238-240 Kingsland Road,Hackney,,Haggerston,E05009375,-0.07584196069354449,533326.1161224751,51.53589392288307,183749.42956558964,Hackney,Artists workspaces,E09000012,11/27/2022
Hackney,www.acme.org.uk,Orsman Road,10008242975,E09000012,15 Orsman Road,Hoxton,,Hoxton East & Shoreditch,E05009377,-0.07876129506914484,533122.9584710415,51.53614876850161,183772.45026944735,Hackney,Artists workspaces,E09000012,11/27/2022
Hackney,www.spacestudios.org.uk,Timber Wharf -Arches,10008324060,E09000012,238-240 Kingsland Road,Hackney,,Haggerston,E05009375,-0.0758566849218808,533324.3966155376,51.5361328259809,183775.9632708173,Hackney,Artists workspaces,E09000012,11/27/2022
Hackney,http://www.studiomanifold.org/about/,Studio Manifold,10008324060,E09000012,Ermine Mews,Laburnum Street,,Haggerston,E05009375,-0.0758566849218808,533324.3966155376,51.5361328259809,183775.9632708173,Hackney,Artists workspaces,E09000012,11/27/2022
Hackney,http://www.artworksproject.com/docs/info.html,Hertford Road Studios,10008225561,E09000012,32A Hertford Road,,,De Beauvoir,E05009371,-0.07856618856240037,533128.9595343748,51.53872642027063,184059.3812465027,Hackney,Artists workspaces,E09000012,11/27/2022
Hackney,www.spacestudios.org.uk,Triangle,100000000000,E09000012,129-131 Mare Street,Hackney,,London Fields,E05009381,-0.05755317799893572,534586.648930508,51.53844286320413,184066.28839817783,Hackney,Artists workspaces,E09000012,11/27/2022
Hackney,www.themillcoproject.co.uk,The Rose Lipman Building ,10091900721,E09000012,43 De Beauvoir Road ,,,De Beauvoir,E05009371,-0.08161328516228002,532917.0048105288,51.53896522011501,184080.39448048506,Hackney,Artists workspaces,E09000012,11/27/2022
Hackney,https://www.facebook.com/TERRACE.STUDIOS.GALLERY/,,10008320415,E09000012,4-17 Frederick Terrace,,,London Fields,E05009381,-0.07577738694187287,533319.9194611805,51.53954390934675,184155.34162510908,Hackney,Artists workspaces,E09000012,11/27/2022
Hackney,www.spacestudios.org.uk,Martello,100000000000,E09000012,10 Martello Street,Hackney,,London Fields,E05009381,-0.05859510376522764,534506.6634790152,51.54106796506199,184356.2211492975,Hackney,Artists workspaces,E09000012,11/27/2022
Tower Hamlets,https://www.motherx.co.uk/,Pearl & Coutts Studios,6210818,E09000030,9 Queens Yard ,White Post Lane,,Bow East,E05009319,-0.022349894946119577,537014.1140367191,51.542837027546334,184620.27261904354,Hackney,Artists workspaces,E09000012,11/27/2022
Tower Hamlets,www.arbeit.org.uk / www.arebyte.com,White Post Lane,6077533,E09000030,49 White Post Lane Unit 4,Hackney Wick,,Bow East,E05009319,-0.02350162746937539,536934.1322740427,51.54288339559912,184623.26682990347,Hackney,Artists workspaces,E09000012,11/27/2022
Hackney,www.spacestudios.org.uk,Victor House,10008339866,E09000012,282a Richmond Road,Hackney,,Hackney Central,E05009372,-0.05983132179991961,534412.6699469677,51.54387614364645,184666.15666563,Hackney,Artists workspaces,E09000012,11/27/2022
Hackney,https://mainyardstudios.co.uk,,10008337819,E09000012,90 Wallis Rd ,,,Hackney Wick,E05009374,-0.022729636245093623,536983.1204102921,51.544390167200106,184792.23486979294,Hackney,Artists workspaces,E09000012,11/27/2022
Hackney,cellprojects.org,,10008346528,E09000012,115 WALLIS ROAD,,,Hackney Wick,E05009374,-0.023869727284914263,536903.1385420929,51.54470611656815,184825.22289078496,Hackney,Artists workspaces,E09000012,11/27/2022
Hackney,www.arbeit.org.uk / www.arebyte.com,117 Wallis Road,10008336713,E09000012,117 Wallis road ,Hackney Wick,,Hackney Wick,E05009374,-0.023507873157731084,536928.1328179843,51.54473599781331,184829.22365991952,Hackney,Artists workspaces,E09000012,11/27/2022
Hackney,www.spacestudios.org.uk,Deborah House,10008342937,E09000012,Retreat Place,Hackney,,Homerton,E05009376,-0.049216113134236614,535144.5062339462,51.54523780214394,184837.1113948853,Hackney,Artists workspaces,E09000012,11/27/2022
Hackney,www.spacestudios.org.uk,Belsham,10091775557,E09000012,16 Belsham Street,Hackney,,Homerton,E05009376,-0.05174816820526809,534966.538087626,51.54606220356657,184924.08993978333,Hackney,Artists workspaces,E09000012,11/27/2022
Hackney,,"Francis Upritchard, Daniel Silver and Martino Gamper",10091775559,E09000012,Belsham Street,,,Homerton,E05009376,-0.05194081589765591,534952.008966207,51.54645856497838,184967.8012075962,Hackney,Artists workspaces,E09000012,11/27/2022
Hackney,www.sarabandefoundation.org,Sarabande Studios,10008307498,E09000012,22 Hertford Road,,,De Beauvoir,E05009371,-0.07882211926892611,533112.9623821105,51.538128120579174,183992.39860439597,Hackney,Artists workspaces,E09000012,11/27/2022
Hackney,www.asidebsidegallery.com,,10008305042,E09000012,352 Mare St,,,Hackney Central,E05009372,-0.0545334497755543,534769.5727964621,51.54737642419263,185065.06514922017,Hackney,Artists workspaces,E09000012,11/27/2022
Hackney,http://hatch-homerton.co.uk/,Hatch,10008301285,E09000012,Unit G2,8 Mackintosh Lane,,Homerton,E05009376,-0.04255594379658404,535599.9094061198,51.54734988179597,185084.27701211168,Hackney,Artists workspaces,E09000012,11/27/2022
Hackney,www.spacestudios.org.uk,Eastway,10008341867,E09000012,80c Eastway,Hackney,,Hackney Wick,E05009374,-0.02948913346392996,536506.2282442488,51.547165620337815,185088.14317351254,Hackney,Artists workspaces,E09000012,11/27/2022
Hackney,cellprojects.org,,10008320277,E09000012,89 RIDLEY ROAD,,,Dalston,E05009370,-0.07067192685221745,533647.8148976607,51.54842550964212,185152.08587575878,Hackney,Artists workspaces,E09000012,11/27/2022
Hackney,www.acme.org.uk,Matchmakers Wharf,10008325827,E09000012,Homerton Road,Homerton,,King's Park,E05009379,-0.031124787007065165,536379.252813835,51.55170738521115,185590.03142660286,Hackney,Artists workspaces,E09000012,11/27/2022
Hackney,Absorb-arts.co.uk and printclublondon.com,,10091940511,E09000012,10-28 millers Ave ,Dalston ,,Shacklewell,E05009382,-0.07446915636866624,533372.8586620586,51.55243575081055,185591.01162361435,Hackney,Artists workspaces,E09000012,11/27/2022
Hackney,www.lighthousespace.co.uk,,10008320328,E09000012,73-75 & 89a Shacklewell Lane,,,Shacklewell,E05009382,-0.07118186538160991,533599.7998625408,51.552741383281,185630.98853766674,Hackney,Artists workspaces,E09000012,11/27/2022
Hackney,www.artcoreint.net,Cognative Collective,100023548454,E09000012,Unit 4 Tilia Rd,,,Hackney Downs,E05009373,-0.05548064757326682,534687.555856341,51.55290464757841,185677.94040030742,Hackney,Artists workspaces,E09000012,11/27/2022
Hackney,eatworkart.com,,10008337805,E09000012,Hackney Downs Studios,Amhurst Terrace,,Shacklewell,E05009382,-0.06675435833936265,533900.7124392865,51.554763718531454,185863.92330105643,Hackney,Artists workspaces,E09000012,11/27/2022
Hackney,www.spacestudios.org.uk,Stoke Newington,100000000000,E09000012,184 Church Street,Hackney,,Clissold,E05009369,-0.08279582592299013,532768.9485594278,51.56161890191298,186596.8435713476,Hackney,Artists workspaces,E09000012,11/27/2022
Hackney,,Praxis N16,10008313250,E09000012,First Floor,3-9 Belfast Rd,,Cazenove,E05009368,-0.07237152054585755,533479.7418443103,51.565557512131704,187053.70374286745,Hackney,Artists workspaces,E09000012,11/27/2022
Hackney,www.artcoreint.net,Politi Arts,100000000000,E09000012,"1st Floor, Units 2-4",10-12G Manor Rd,,Stamford Hill West,E05009384,-0.07486255106486123,533305.782649586,51.566021118856554,187100.70531990327,Hackney,Artists workspaces,E09000012,11/27/2022
Hackney,cellprojects.org,,10008336688,E09000012,GROSVENOR WAY,,,Lea Bridge,E05009380,-0.051397888877499125,534931.413973599,51.56609206196425,187151.63129623263,Hackney,Artists workspaces,E09000012,11/27/2022
Hackney,www.artcoreint.net,Murder Mile Studios,100023007799,E09000012,12 Grosvenor Way,,,Lea Bridge,E05009380,-0.0518994902182378,534896.4202438663,51.566172332874714,187159.62989573856,Hackney,Artists workspaces,E09000012,11/27/2022
Hackney,https://chatspalace.com/,Chats Palace ,100023020798,E09000012,42-44 Brooksby's Walk,,,King's Park,E05009379,-0.042683326455879175,535582.4029900779,51.55026392640687,185408.0194131403,Hackney,Arts centres,E09000012,11/27/2022
Hackney,,Hackney Picturehouse,100023014120,E09000012,,270 Mare Street,,Homerton,E05009376,-0.053397719262246617,534969.0001221001,51.54434856425023,184677.00012210011,Hackney,Cinemas,E09000012,11/27/2022
Hackney,,Rio Cinema,100023015558,E09000012,,107 Kingsland High Street,,Dalston,E05009370,-0.07411056883963998,533519.0001221001,51.549124307143835,185170.00012210011,Hackney,Cinemas,E09000012,11/27/2022
Hackney,,The Castle Cinema,100023544617,E09000012,,"First Floor, 64-66 Brooksby's Walk",,King's Park,E05009379,-0.04171216001964704,535760.0001221001,51.55078235380939,185414.00012210011,Hackney,Cinemas,E09000012,11/27/2022
Hackney,,Balik Arts,010008332171,E09000012,,The Basement,86 Stoke Newington High Street,Stoke Newington,E05009385,-0.07233757182383546,533614.0001221001,51.55864636136445,186232.00012210011,Hackney,Cinemas,E09000012,11/27/2022
Hackney,http://www.flowersgallery.com/#,Flowers Gallery East,10008242588,E09000012,82 Kingsland Road,NA,NA,Haggerston,E05009375,-0.07555989180650395,533477.0001221001,51.52913735256938,182945.00012210011,Hackney,Commercial galleries,E09000012,11/27/2022
Hackney,http://www.parasol-unit.org/#,Parasol unit,10008244219,E09000012,14 Wharf Road,NA,NA,Hoxton West,E05009378,-0.0934240709828386,532235.9500731975,51.52986691977714,182993.68011479825,Hackney,Commercial galleries,E09000012,11/27/2022
Hackney,http://www.fiveyears.org.uk/#,Five Years,10008244601,E09000012,"Unit 66, Regent Studios",8 Andrews Road,NA,London Fields,E05009381,-0.058627996292510684,534634.0001221001,51.53499195460402,183627.00012210011,Hackney,Commercial galleries,E09000012,11/27/2022
Hackney,http://www.rocketgallery.com/#,Rocket Gallery,10008304903,E09000012,56 Shoreditch High Street,NA,NA,Hoxton East & Shoreditch,E05009377,-0.07510293960366142,533525.0001221001,51.52356280971235,182326.00012210011,Hackney,Commercial galleries,E09000012,11/27/2022
Hackney,http://www.hoxtonartgallery.co.uk/#,Hoxton Art Gallery,10008317965,E09000012,64 Charlotte Road,NA,NA,Hoxton East & Shoreditch,E05009377,-0.07949283424002247,533214.0001221001,51.525793244270155,182566.00012210011,Hackney,Commercial galleries,E09000012,11/27/2022
Hackney,http://www.galerie8.co.uk/#,Galerie8,10008325659,E09000012,203 Richmond Road,NA,NA,Hackney Central,E05009372,-0.055499462315294124,534827.0200805962,51.54308573640244,184532.7100829929,Hackney,Commercial galleries,E09000012,11/27/2022
Hackney,http://www.theproudarchivist.co.uk/#,The Proud Archivist,10008329599,E09000012,"The Archivist, Unit V Reliance Wharf",2-10 Hertford Road,NA,De Beauvoir,E05009371,-0.0771205687900491,533346.5001221001,51.53675408647767,183789.0601195991,Hackney,Commercial galleries,E09000012,11/27/2022
Hackney,http://charliesmithlondon.com/#,Charlie Smith,10008336390,E09000012,336 Old Street,NA,NA,Hoxton East & Shoreditch,E05009377,-0.07985571909056487,533188.0001221001,51.526077987760736,182597.00012210011,Hackney,Commercial galleries,E09000012,11/27/2022
Hackney,http://unitg.london/gallery/#,Unit G Gallery,10008339282,E09000012,12A Collent Street,NA,NA,Homerton,E05009376,-0.04603710862978828,535481.7200927958,51.543536729768526,184600.34008789808,Hackney,Commercial galleries,E09000012,11/27/2022
Hackney,http://www.bsmt.co.uk/#,BSMT Space,10008342181,E09000012,5d Stoke Newington Road,NA,NA,Shacklewell,E05009382,-0.0738169106633579,533536.0001221001,51.55027066360324,185298.00012210011,Hackney,Commercial galleries,E09000012,11/27/2022
Hackney,http://www.icn-global.com/#,ICN,10091782215,E09000012,96-98 Leonard Street,NA,NA,Hoxton East & Shoreditch,E05009377,-0.08010428676084,533176.6000976935,51.52407657261653,182374.01007079333,Hackney,Commercial galleries,E09000012,11/27/2022
Hackney,http://www.blackallstudios.com/#,Blackhall Studios,10091941036,E09000012,73 Leonard Street,NA,NA,Hoxton East & Shoreditch,E05009377,-0.08135618234015408,533089.0001221001,51.524339797616655,182401.00012210011,Hackney,Commercial galleries,E09000012,11/27/2022
Hackney,http://galleriesgoldstein.com/#,Galleries Goldstein,100021034288,E09000012,"Goodhood, 20 Coronet Street",NA,NA,Hoxton East & Shoreditch,E05009377,-0.08070853074370465,533127.0001221001,51.52671250554583,182666.00012210011,Hackney,Commercial galleries,E09000012,11/27/2022
Hackney,http://cnbgallery.com/#,CNB Gallery,100022932983,E09000012,32 Rivington Street,NA,NA,Hoxton East & Shoreditch,E05009377,-0.08004521442793121,533177.0001221001,51.525343614493224,182515.00012210011,Hackney,Commercial galleries,E09000012,11/27/2022
Hackney,http://www.redgallerylondon.com/#,Red Gallery,100022933139,E09000012,3 Rivington Street,NA,NA,Hoxton East & Shoreditch,E05009377,-0.08167562174492743,533063.0001221001,51.52565808914075,182547.00012210011,Hackney,Commercial galleries,E09000012,11/27/2022
Hackney,http://www.signalgallery.com/#,Signal Gallery,100022933332,E09000012,32 Paul Street,NA,NA,Hoxton East & Shoreditch,E05009377,-0.08240543879614387,533020.0001221001,51.52304389204014,182255.00012210011,Hackney,Commercial galleries,E09000012,11/27/2022
Hackney,http://www.residence-gallery.com/#,The Residence,100023024966,E09000012,229 Victoria Park Road,NA,NA,Victoria,E05009386,-0.0425572024129248,535740.0001221001,51.53781865874141,183971.00012210011,Hackney,Commercial galleries,E09000012,11/27/2022
Hackney,http://www.mercerchance.co.uk/#,Mercer Chance,100023135423,E09000012,253 Hoxton Street,NA,NA,Hoxton East & Shoreditch,E05009377,-0.07894334776582343,533230.0001221001,51.53336585007268,183409.00012210011,Hackney,Commercial galleries,E09000012,11/27/2022
Hackney,http://www.danielblau.com/#,Daniel Blau,100023135514,E09000012,51 Hoxton Square,NA,NA,Hoxton East & Shoreditch,E05009377,-0.08007436043025955,533171.1301269978,51.52666246370526,182661.59008789808,Hackney,Commercial galleries,E09000012,11/27/2022
Hackney,http://waterside-contemporary.com/#,Waterside Contemporary,100023135532,E09000012,2 Clunbury Street,NA,NA,Hoxton West,E05009378,-0.08372230408763107,532904.0001221001,51.53151040466705,183194.00012210011,Hackney,Commercial galleries,E09000012,11/27/2022
Hackney,http://www.standpointlondon.co.uk/#,Standpoint,100023136399,E09000012,45 Coronet Street,Hoxton,NA,Hoxton East & Shoreditch,E05009377,-0.08023910672947725,533160.0001221001,51.52656092496226,182650.00012210011,Hackney,Commercial galleries,E09000012,11/27/2022
Hackney,http://www.whitechapelgallery.org/first-thursdays/galleries/invisible-line-gallery/,The Invisible Line,100023545364,E09000012,"87 Dalston Lane,",NA,NA,Dalston,E05009370,-0.0674058630177291,533989.0001221001,51.5473502235191,184985.00012210011,Hackney,Commercial galleries,E09000012,11/27/2022
Hackney,http://fishbar.ph/#,Fishbar,100023545393,E09000012,176 Dalston Lane,NA,NA,Hackney Central,E05009372,-0.06349672607488344,534259.0001221001,51.54769046527718,185030.00012210011,Hackney,Commercial galleries,E09000012,11/27/2022
Hackney,http://www.rowingprojects.com/#,Rowing,100023546708,E09000012,2 Leswin Place,NA,NA,Stoke Newington,E05009385,-0.07068262263962571,533732.0001221001,51.55752194011246,186110.00012210011,Hackney,Commercial galleries,E09000012,11/27/2022
Hackney,http://www.creativeandorcultural.com/#,Andor Gallery,100023649875,E09000012,237 Hackney Road,NA,NA,Haggerston,E05009375,-0.06855347132660816,533958.0001221001,51.53081190818558,183144.00012210011,Hackney,Commercial galleries,E09000012,11/27/2022
Hackney,http://www.victoria-miro.com/#,Victoria Miro Gallery I,200002432213,E09000012,16 Wharf Road,NA,NA,Hoxton West,E05009378,-0.09341036603031562,532237.0401000977,51.529818761040865,182988.3500976935,Hackney,Commercial galleries,E09000012,11/27/2022
Hackney,,Wayman Court Community Centre,10008230586,E09000012,Eleanor Road (North),Hackney,NA,Hackney Central,E05009372,-0.05824262433488588,534636.0001221001,51.543367621629066,184559.00012210011,Hackney,Community centres,E09000012,11/27/2022
Hackney,,North & South Arden Community Centre,10008240056,E09000012,Arden Estate,Hackney,NA,Hoxton East & Shoreditch,E05009377,-0.08018206815305912,533149.0001221001,51.53168634298578,183220.00012210011,Hackney,Community centres,E09000012,11/27/2022
Hackney,,Trelawney Club House,10008242984,E09000012,Paragon Road,Hackney,NA,Homerton,E05009376,-0.05048937522109754,535169.2501221001,51.54481568710605,184734.3101195991,Hackney,Community centres,E09000012,11/27/2022
Hackney,,Hawksley Court  Community Centre,10008244157,E09000012,Hawksley Road,Hackney,NA,Clissold,E05009369,-0.08021691853177182,533067.6801147982,51.55872079766291,186225.91009519994,Hackney,Community centres,E09000012,11/27/2022
Hackney,,Rhodes Est Community Centre,10008244242,E09000012,Carlisle Walk,Hackney,NA,Dalston,E05009370,-0.0711296451054986,533738.0001221001,51.54491129814399,184707.00012210011,Hackney,Community centres,E09000012,11/27/2022
Hackney,,Cranston Estate Community Centre,10008300258,E09000012,Cranston Estate,Hackney,NA,Hoxton West,E05009378,-0.08474894487831904,532831.0001221001,51.53212974436324,183261.00012210011,Hackney,Community centres,E09000012,11/27/2022
Hackney,,Nightingale Partnership Residents Association,10008305054,E09000012,18 Olympus Square,Hackney,NA,Hackney Downs,E05009373,-0.05970945400560733,534496.0001221001,51.55635166591788,186000.00012210011,Hackney,Community centres,E09000012,11/27/2022
Hackney,,The Mount Community Centre,10008305126,E09000012,21 Mount Pleasant Lane,Hackney,NA,Springfield,E05009383,-0.05574012724859899,534751.0001221001,51.56315704698554,186764.00012210011,Hackney,Community centres,E09000012,11/27/2022
Hackney,,Arden Estate Community Centre,10008308464,E09000012,Regan Way,Hackney,NA,Hoxton East & Shoreditch,E05009377,-0.07931599614174378,533208.0001221001,51.53204989449937,183262.00012210011,Hackney,Community centres,E09000012,11/27/2022
Hackney,,Geffrye  Community Centre,10008309530,E09000012,Falkirk Street,Hackney,NA,Hoxton East & Shoreditch,E05009377,-0.07796553450510879,533306.0001221001,51.53056181503833,183099.00012210011,Hackney,Community centres,E09000012,11/27/2022
Hackney,,Aspland & Marcon ,10008309531,E09000012,Amhurst Road,Hackney,NA,Hackney Central,E05009372,-0.056988652287234196,534709.0001221001,51.548086486064264,185086.00012210011,Hackney,Community centres,E09000012,11/27/2022
Hackney,,Ben Simons Community Centre,10008309532,E09000012,Bethune Road,Hackney,NA,Woodberry Down,E05009387,-0.0814295461010947,532946.0001221001,51.57162020709844,187658.00012210011,Hackney,Community centres,E09000012,11/27/2022
Hackney,,Wilton Est Community Centre,10008309537,E09000012,Greenwood Road,Hackney,NA,Hackney Central,E05009372,-0.06234184591133611,534349.0001221001,51.54431678199121,184657.00012210011,Hackney,Community centres,E09000012,11/27/2022
Hackney,,York Row ,10008309538,E09000012,Geffrye Street,Hackney,NA,Haggerston,E05009375,-0.07473438757709101,533522.0001221001,51.53332381713762,183412.00012210011,Hackney,Community centres,E09000012,11/27/2022
Hackney,,Wenlock  Community Centre,10008310375,E09000012,9-13 Cropley Street,Hackney,NA,Hoxton West,E05009378,-0.08807501597944224,532604.0001221001,51.53087094665821,183115.00012210011,Hackney,Community centres,E09000012,11/27/2022
Hackney,,Provost Community Centre,10008318506,E09000012,Provost Estate,Hackney,NA,Hoxton West,E05009378,-0.08736423516952803,532655.0001221001,51.530283768143,183051.00012210011,Hackney,Community centres,E09000012,11/27/2022
Hackney,,The Beckers Community Centre,10008318636,E09000012,Rectory Road,Hackney,NA,Hackney Downs,E05009373,-0.06625938027405177,534044.2501221001,51.5555914873632,185903.45007319748,Hackney,Community centres,E09000012,11/27/2022
Hackney,,Joseph Court,10008318638,E09000012,Amhurst Park,Hackney,NA,Woodberry Down,E05009387,-0.07701954961753646,533243.120117195,51.574506615220564,187986.9700927958,Hackney,Community centres,E09000012,11/27/2022
Hackney,,Pitcairn House ,10008318640,E09000012,St Thomass Square,Hackney,NA,Homerton,E05009376,-0.052538529308595386,535035.0001221001,51.54217583533802,184437.00012210011,Hackney,Community centres,E09000012,11/27/2022
Hackney,,Lordship North Community Centre,10008323652,E09000012,Lordship Road,Hackney,NA,Stamford Hill West,E05009384,-0.08578208223093342,532654.2700805962,51.56823652380188,187273.86010739952,Hackney,Community centres,E09000012,11/27/2022
Hackney,,Peter Collins Community Centre,10008331943,E09000012,Hindhead Close,Hackney,NA,Stamford Hill West,E05009384,-0.07497860947699345,533403.0001221001,51.56819592043453,187289.00012210011,Hackney,Community centres,E09000012,11/27/2022
Hackney,,Elsdale OAP Club,10008341872,E09000012,Elsdale Street,Hackney,NA,Homerton,E05009376,-0.04900231324242803,535278.4700927958,51.54275112030703,184507.50012210011,Hackney,Community centres,E09000012,11/27/2022
Hackney,,The Bell Club,10008344396,E09000012,140 Pitfield Street,Hackney,NA,Hoxton East & Shoreditch,E05009377,-0.08105569623441491,533092.1801147982,51.53039539915847,183074.87011719495,Hackney,Community centres,E09000012,11/27/2022
Hackney,,Fellows Court,100022992362,E09000012,Weymouth Terrace,Hackney,NA,Haggerston,E05009375,-0.07123990232255624,533765.0001221001,51.53309552519968,183393.00012210011,Hackney,Community centres,E09000012,11/27/2022
Hackney,,Jack Watts Community Centre,100023006552,E09000012,10 Detmold Road,Hackney,NA,Lea Bridge,E05009380,-0.05140444898030274,535052.0001221001,51.5629771893344,186752.00012210011,Hackney,Community centres,E09000012,11/27/2022
Hackney,,Radley & Southwold Community Centre,100023006567,E09000012,45 Southwold Road,Hackney,NA,Lea Bridge,E05009380,-0.048270624407371135,535270.0001221001,51.562700255355914,186727.00012210011,Hackney,Community centres,E09000012,11/27/2022
Hackney,,Kier Hardie Community Centre,100023007656,E09000012,Springfield,Hackney,NA,Springfield,E05009383,-0.0592110785904493,534498.0001221001,51.56737854437196,187227.00012210011,Hackney,Community centres,E09000012,11/27/2022
Hackney,,Warburton & Darcy Community Centre,100023016210,E09000012,Warburton Street,Hackney,NA,London Fields,E05009381,-0.057380209167939226,534711.0001221001,51.53821799012063,183988.00012210011,Hackney,Community centres,E09000012,11/27/2022
Hackney,,Colville Community Centre,100023135173,E09000012,35 Branch Place,Hackney,NA,Hoxton East & Shoreditch,E05009377,-0.08242662954407969,532979.0001221001,51.53660658103953,183763.00012210011,Hackney,Community centres,E09000012,11/27/2022
Hackney,,Defoe Small Blocks,100023155049,E09000012,Defoe Road,Hackney,NA,Stoke Newington,E05009385,-0.07759275818989146,533244.0001221001,51.56062124372059,186442.00012210011,Hackney,Community centres,E09000012,11/27/2022
Hackney,,Mountford Estate ,100023545479,E09000012,Downs Park Road,Hackney,NA,Hackney Central,E05009372,-0.06662458989542024,534034.0001221001,51.55046711794445,185333.00012210011,Hackney,Community centres,E09000012,11/27/2022
Hackney,,Shrubland Community Centre,200001073573,E09000012,Shrubland Road,Hackney,NA,Haggerston,E05009375,-0.06488653566945084,534191.0001221001,51.53805427579844,183956.00012210011,Hackney,Community centres,E09000012,11/27/2022
Hackney,,Burma Court Community Centre,200002797978,E09000012,Burma Road,Hackney,NA,Clissold,E05009369,-0.0877512784951524,532556.0701293945,51.55508139993336,185807.5601195991,Hackney,Community centres,E09000012,11/27/2022
Hackney,,Morland Hall,10008240743,E09000012,Richmond Road,Hackney,NA,London Fields,E05009381,-0.061706623893394284,534398.0001221001,51.54263347703221,184471.00012210011,Hackney,Community centres,E09000012,11/27/2022
Hackney,,Kingsgate Community Hall,10008241541,E09000012,Tottenham Road,Hackney,NA,De Beauvoir,E05009371,-0.07692812116293006,533337.2600707933,51.54447948063594,184648.40008549392,Hackney,Community centres,E09000012,11/27/2022
Hackney,,Yorkshire Grove Hall,10008242273,E09000012,20 Gunstor Road,Hackney,NA,Stoke Newington,E05009385,-0.07686827997699179,533307.0001221001,51.556247491375295,185957.00012210011,Hackney,Community centres,E09000012,11/27/2022
Hackney,,Banister House,10008242329,E09000012,Homerton High Street,Hackney,NA,Homerton,E05009376,-0.0429900052208736,535680.0001221001,51.547898741282324,185091.00012210011,Hackney,Community centres,E09000012,11/27/2022
Hackney,,Jack Dunning Hall,10008242350,E09000012,6 Furrow Lane,Hackney,NA,Homerton,E05009376,-0.04629644842191648,535449.0601195991,51.54847899498408,185149.3900756985,Hackney,Community centres,E09000012,11/27/2022
Hackney,,Nye Bevan Hall,10008243115,E09000012,Nye Bevan Estate,Hackney,NA,King's Park,E05009379,-0.039915556188983965,535868.5501098931,51.55614770636348,186013.91009519994,Hackney,Community centres,E09000012,11/27/2022
Hackney,,Lea View Hall,10008243441,E09000012,Springfield,Hackney,NA,Springfield,E05009383,-0.05683914481583381,534662.0001221001,51.56750116670093,187245.00012210011,Hackney,Community centres,E09000012,11/27/2022
Hackney,,Wrens Park Hall,10008243806,E09000012,Warwick Grove,Hackney,NA,Springfield,E05009383,-0.05417377912290358,534853.0001221001,51.56537047982905,187013.00012210011,Hackney,Community centres,E09000012,11/27/2022
Hackney,https://www.hackney.gov.uk/community-hall-hire,Kings Crescent Community Hall (Vince Murrain),10008244239,E09000012,Queens Drive,Hackney,NA,Brownswood,E05009367,-0.09174621186533351,532260.1101073995,51.56164896569053,186530.5800780952,Hackney,Community centres,E09000012,11/27/2022
Hackney,,Regents Hall,10008293959,E09000012,60 Brougham Road,Hackney,NA,London Fields,E05009381,-0.06166205025595523,534418.0001221001,51.53689481915845,183833.00012210011,Hackney,Community centres,E09000012,11/27/2022
Hackney,,Whiston and Goldsmiths Hall,10008309536,E09000012,Goldsmiths Row,Hackney,NA,Haggerston,E05009375,-0.0617037110629058,534426.0001221001,51.53319913251704,183422.00012210011,Hackney,Community centres,E09000012,11/27/2022
Hackney,,New Kingshold Community Centre,10008311816,E09000012,49 Ainsworth Road,Hackney,NA,Victoria,E05009386,-0.04825735124191888,535343.0200805962,51.53840326147408,184025.44012449682,Hackney,Community centres,E09000012,11/27/2022
Hackney,https://hackney.gov.uk/article/3879/Community-hall-hire,Vi Forrester Hall,10008318505,E09000012,5 Gilpin Road,Hackney,NA,King's Park,E05009379,-0.03798648433142856,536007.2200927958,51.554484106180965,185832.5200805962,Hackney,Community centres,E09000012,11/27/2022
Hackney,,Fawcett Estate Hall,10008318639,E09000012,Clapton Common,Hackney,NA,Springfield,E05009383,-0.0596163047929716,534466.8101195991,51.56843245863367,187343.44012449682,Hackney,Community centres,E09000012,11/27/2022
Hackney,,Herbert Butler Hall,10008318641,E09000012,Mabley Street,Hackney,NA,Hackney Wick,E05009374,-0.03503114156990194,536229.0001221001,51.5488163235037,185207.82012939453,Hackney,Community centres,E09000012,11/27/2022
Hackney,https://www.haggerstoncc.com/,Haggerston Community Centre,10008330088,E09000012,8 Lovelace Street,Hackney,NA,Haggerston,E05009375,-0.07158291092466149,533729.8900756985,51.53695843074487,183821.8900756985,Hackney,Community centres,E09000012,11/27/2022
Hackney,http://www.hmp.org.uk/copy-of-services,Gascoyne Community Centre,10008342233,E09000012,Gascoyne Road,Hackney,NA,Hackney Wick,E05009374,-0.03706520098301008,536110.7501221001,51.54119077437436,184356.15008549392,Hackney,Community centres,E09000012,11/27/2022
Hackney,,Nisbet Hall,10008310386,E09000012,Homerton High Street,Hackney,NA,Homerton,E05009376,-0.03924069333011458,535943.0001221001,51.546864817605226,184983.00012210011,Hackney,Community centres,E09000012,11/27/2022
Hackney,,Webb Estate Community Centre,100023648572,E09000012,Clapton Common,Hackney,NA,Springfield,E05009383,-0.06131910479951993,534344.0001221001,51.57006650028419,187522.00012210011,Hackney,Community centres,E09000012,11/27/2022
Hackney,https://www.metropolitan.org.uk/,Whitmore Community Centre,100023135258,E09000012,2 Phillipp Street,Hackney,NA,Hoxton East & Shoreditch,E05009377,-0.0759187285631925,533434.0001221001,51.53533083692144,183633.00012210011,Hackney,Community centres,E09000012,11/27/2022
Hackney,n16boilerhouse.com,Nelson Mandela,10008241565,E09000012,Cazenove Road,Hackney,NA,Cazenove,E05009368,-0.06949381791249652,533796.2800902948,51.563693106072,186798.3500976935,Hackney,Community centres,E09000012,11/27/2022
Hackney,https://www.hanover.org.uk/find-a-home/property-search/cester-street-hackney/,13 Cester Street,10008229900,E09000012,13 Cester Street,Hackney,NA,Haggerston,E05009375,-0.06598129958250294,534124.0001221001,51.53502349980238,183617.00012210011,Hackney,Community centres,E09000012,11/27/2022
Hackney,,Robert Owen Lodge,100023545020,E09000012,172 Clarence Road,Hackney,NA,Hackney Downs,E05009373,-0.05426352976660356,534879.0001221001,51.55448073266633,185802.00012210011,Hackney,Community centres,E09000012,11/27/2022
Hackney,https://www.learningtrust.co.uk/school/ann-tayler-childrens-centre,Ann Tayler Children Centre,10008237754,E09000012,1-13 Triangle Road,Hackney,NA,London Fields,E05009381,-0.05763528996950594,534695.0001221001,51.53764662322917,183924.00012210011,Hackney,Community centres,E09000012,11/27/2022
Hackney,http://wallyfostercc.org.uk/,Wally Foster Community Centre Association,10008241129,E09000012,Homerton Road,Hackney,NA,King's Park,E05009379,-0.03281177455188094,536380.0001221001,51.549770042835554,185318.00012210011,Hackney,Community centres,E09000012,11/27/2022
Hackney,,Morland Hall,10008242426,E09000012,Richmond Road,Hackney,NA,London Fields,E05009381,-0.061706623893394284,534398.0001221001,51.54263347703221,184471.00012210011,Hackney,Community centres,E09000012,11/27/2022
Hackney,,Kingsmead Community Centre,10008242601,E09000012,9 Kingsmead Way,Hackney,NA,King's Park,E05009379,-0.03327101963558364,536344.0001221001,51.55116276213074,185472.00012210011,Hackney,Community centres,E09000012,11/27/2022
Hackney,https://www.ids.org.uk/,Navarino Mansions,10008310099,E09000012,Dalston Lane,Hackney,NA,Hackney Central,E05009372,-0.061874733981628474,534372.0001221001,51.54750179225396,185012.00012210011,Hackney,Community centres,E09000012,11/27/2022
Hackney,,Redmond Community Centre,10008326177,E09000012,Kayani Avenue,Hackney,NA,Woodberry Down,E05009387,-0.08976098604822931,532374.6500854939,51.56958151479407,187416.20007319748,Hackney,Community centres,E09000012,11/27/2022
Hackney,http://www.hmp.org.uk/copy-of-concorde,Morningside Hall,10008336728,E09000012,Cresset Road,Hackney,NA,Homerton,E05009376,-0.04683383894697255,535424.5100707933,51.544200867404385,184672.7100829929,Hackney,Community centres,E09000012,11/27/2022
Hackney,,Northwold Community Hall,10008343000,E09000012,Upper Clapton Road,Hackney,NA,Cazenove,E05009368,-0.059977249528684475,534453.9500731975,51.5643138848801,186884.8300780952,Hackney,Community centres,E09000012,11/27/2022
Hackney,,Wayside Community Centre,100021056203,E09000012,69 Lower Clapton Road,Hackney,NA,Homerton,E05009376,-0.05023640513463924,535169.0001221001,51.550816425832025,185402.00012210011,Hackney,Community centres,E09000012,11/27/2022
Hackney,https://shoreditchtownhall.com/,Shoreditch Town Hall,100022930896,E09000012,380 Old Street,Hackney,NA,Hoxton East & Shoreditch,E05009377,-0.07751631091496942,533350.0001221001,51.52616557388618,182611.00012210011,Hackney,Community centres,E09000012,11/27/2022
Hackney,https://www.better.org.uk/leisure-centre/london/hackney/queensbridge-sport-and-community-centre?utm_source=google&utm_medium=organic&utm_campaign=google_my_business,Queensbridge Sports and Community Centre,100023015753,E09000012,30 Holly Street,Hackney,NA,London Fields,E05009381,-0.06961465982253723,533852.0001221001,51.541855535207425,184370.00012210011,Hackney,Community centres,E09000012,11/27/2022
Hackney,http://wallyfostercc.org.uk/,Wally Foster Community Centre Association,100023020750,E09000012,Homerton Road,Hackney,NA,King's Park,E05009379,-0.03281177455188094,536380.0001221001,51.549770042835554,185318.00012210011,Hackney,Community centres,E09000012,11/27/2022
Hackney,https://www.peabody.org.uk/neighbourhoods/community-centres/pembury-venue-hire,Pembury Community Centre,10008336791,E09000012,1 Atkins Square,Hackney,NA,Hackney Central,E05009372,-0.05731459837113089,534682.7700805962,51.54931690257459,185222.2100829929,Hackney,Community centres,E09000012,11/27/2022
Hackney,https://victoria-park-community-centre-peabody.business.site/,Victoria Park Community Centre,100023158852,E09000012,Egerton Road,Hackney,NA,Springfield,E05009383,-0.06675025338092201,533959.0001221001,51.5730160715991,187840.00012210011,Hackney,Community centres,E09000012,11/27/2022
Hackney,https://www.shgroup.org.uk/media/425372/amhurst-road.pdf,Amhurst Road Community Centre,10008324069,E09000012,Charterhouse Road,Hackney,NA,Shacklewell,E05009382,-0.06646040628176389,534039.4600829929,51.55248131279728,185557.26007079333,Hackney,Community centres,E09000012,11/27/2022
Hackney,https://www.shgroup.org.uk/media/233104/hindle-house.pdf,Hindle House Community Centre,10008241397,E09000012,Arcola Street,Hackney,NA,Shacklewell,E05009382,-0.07089450910913495,533733.0001221001,51.55217424723726,185515.00012210011,Hackney,Community centres,E09000012,11/27/2022
Hackney,https://www.shgroup.org.uk/media/233110/stamford-hill.pdf,Stamford Hill Estate Community Centre,100023157700,E09000012,110 Stamford Hill,Hackney,NA,Cazenove,E05009368,-0.06988779288865185,533754.0001221001,51.56879579006742,187365.00012210011,Hackney,Community centres,E09000012,11/27/2022
Hackney,,Webb Estate Community Hall,10008241655,E09000012,Clapton Common,Hackney,NA,Springfield,E05009383,-0.06028318215638985,534417.2600707933,51.569564714325736,187468.11010739952,Hackney,Community centres,E09000012,11/27/2022
Hackney,,Mesifta Talmudical College,10008299940,E09000012,90-92 Cazenove Road,Hackney,NA,Cazenove,E05009368,-0.06567039426027547,534058.0001221001,51.564796144107795,186928.00012210011,Hackney,Community centres,E09000012,11/27/2022
Hackney,www.abneypublichall.com,Abney Public Hall,10008300895,E09000012,Stoke Newington Church Street,Hackney,NA,Stoke Newington,E05009385,-0.07606662856962372,533348.0001221001,51.561225774755314,186512.00012210011,Hackney,Community centres,E09000012,11/27/2022
Hackney,https://www.theoaktreecentre.co.uk/,Oak Tree Community Centre,100023157675,E09000012,77 Bethune Road,Hackney,NA,Woodberry Down,E05009387,-0.0798258845429612,533061.0001221001,51.57028990848942,187513.00012210011,Hackney,Community centres,E09000012,11/27/2022
Hackney,https://bcctra.weebly.com/,Alf Partridge Community Hall,100023547501,E09000012,Prout Road,Hackney,NA,Lea Bridge,E05009380,-0.053017640002778525,534952.0001221001,51.55899283254372,186306.00012210011,Hackney,Community centres,E09000012,11/27/2022
Hackney,,Milton Gardens Community Hall,100023547832,E09000012,71-75 Shakspeare Walk,Hackney,NA,Clissold,E05009369,-0.07986505804003995,533105.0001221001,51.55429101599223,185734.00012210011,Hackney,Community centres,E09000012,11/27/2022
Hackney,https://www.redmondcommunitycentre.com/,The Redmond Community Centre,100023548888,E09000012,440 Seven Sisters Road,Hackney,NA,Woodberry Down,E05009387,-0.08865335414842669,532445.0001221001,51.571783079692274,187663.00012210011,Hackney,Community centres,E09000012,11/27/2022
Hackney,,Vaine House,10008310347,E09000012,Cassland Road, Gascoyne Estate, Hackney,Hackney Wick,E05009374,-0.03748044778535906,536074.0001221001,51.54385848936087,184652.00012210011,Hackney,Community centres,E09000012,11/27/2022
Hackney,,Tower Gardens,100023006275,E09000012,2 Inglethorp House, ,NA,Cazenove,E05009368,-0.06172580593518588,534336.0001221001,51.56322011937807,186760.00012210011,Hackney,Community centres,E09000012,11/27/2022
Hackney,,St Mary Community Centre,10008243952,E09000012,Kent Street, Hackney, London,Haggerston,E05009375,-0.06877237871528336,533937.0001221001,51.53279410698816,183364.00012210011,Hackney,Community centres,E09000012,11/27/2022
Hackney,,Smalley Road Community Centre,10008229195,E09000012,20 Cleveland Close,NA,NA,Stoke Newington,E05009385,-0.07039086248428494,533743.0001221001,51.56066489102507,186460.00012210011,Hackney,Community centres,E09000012,11/27/2022
Hackney,,Sherry's Wharf,200001742182,E09000012,5 Oswalds mead, ,NA,King's Park,E05009379,-0.03240821698123196,536395.0001221001,51.55410719569431,185801.00012210011,Hackney,Community centres,E09000012,11/27/2022
Hackney,,Napier Grove ,100023136698,E09000012,1 Napier Grove, ,NA,Hoxton West,E05009378,-0.09118324009260949,532386.0001221001,51.53171300892903,183203.00012210011,Hackney,Community centres,E09000012,11/27/2022
Hackney,,Beecholme,100021066903,E09000012,Prout Rd,NA,NA,Lea Bridge,E05009380,-0.05320606033730308,534938.0001221001,51.55931073521149,186341.00012210011,Hackney,Community centres,E09000012,11/27/2022
Hackney,,Azalea Court ,10008348541,E09000012,Finsbury Park Place, Queens Drive, Hackney,Brownswood,E05009367,-0.09956100309724375,531707.2100829929,51.56556110625147,186951.4700927958,Hackney,Community centres,E09000012,11/27/2022
Hackney,,Amwell Court Estate ,10008286958,E09000012,Portland Rise, London ,NA,Woodberry Down,E05009387,-0.0913776392787329,532273.0001221001,51.5660086139601,187016.00012210011,Hackney,Community centres,E09000012,11/27/2022
Hackney,https://victoria-park-community-centre-peabody.business.site/,Victoria Park Community Centre,100023022724,E09000012,Peabody,5 Gore Road,London,Victoria,E05009386,-0.049993142101808254,535230.0001221001,51.53592794739181,183747.00012210011,Hackney,Community centres,E09000012,11/27/2022
Hackney,http://areaworks.com/,Areaworks,10008238725,E09000012,Areaworks Hoxton,Unit 2 Sheldon Building,1 Baltic Place,Haggerston,E05009375,-0.07556908503556807,533455.0001221001,51.53644030656148,183757.00012210011,Hackney,Creative co-working desk space,E09000012,11/27/2022
Hackney,http://canal-studios.co.uk/,Canal,10008239524,E09000012,Canal Studios,Reliance Wharf,Hertford Road,De Beauvoir,E05009371,-0.0771205687900491,533346.5001221001,51.53675408647767,183789.0601195991,Hackney,Creative co-working desk space,E09000012,11/27/2022
Hackney,http://sohoworks.com/shoreditch/,Soho Works,10008297236,E09000012,Soho Works,Unit 4.07 The Tea Building,56 Shoreditch High Street,Hoxton East & Shoreditch,E05009377,-0.07510293960366142,533525.0001221001,51.52356280971235,182326.00012210011,Hackney,Creative co-working desk space,E09000012,11/27/2022
Hackney,http://www.thegreenhouselondon.com/coworking/,The Green House,10008301285,E09000012,The Green House N16,Greenhouse,Makintosh Lane,Homerton,E05009376,-0.04096544742740348,535823.5001221001,51.54684138265085,184977.19012449682,Hackney,Creative co-working desk space,E09000012,11/27/2022
Hackney,www.onehousestudios.com,One House Studios,100022990257,E09000012,One House Studios,25 Hackney Road,,Hoxton East & Shoreditch,E05009377,-0.0752356738034284,533505.0001221001,51.52725236846297,182736.00012210011,Hackney,Creative co-working desk space,E09000012,11/27/2022
Hackney,www.millersjunction.com/,Millers Junction,100023014979,E09000012,Millers Junction,Unit 1,10-28 Millers Avenue,Shacklewell,E05009382,-0.07287465964202927,533596.4401244968,51.55193536806092,185484.82012939453,Hackney,Creative co-working desk space,E09000012,11/27/2022
Hackney,www.bootstrapcompany.co.uk,Bootstrap Company,10008241414,E09000012,Bootstrap Company,18 Ashwin Street,,Dalston,E05009370,-0.07237483396438102,533647.0001221001,51.54650564499575,184882.00012210011,Hackney,Creative co-working desk space,E09000012,11/27/2022
Hackney,http://secondhome.io/,Second Home,100023016159,E09000012,Second Home London Fields,125-129 Mare Street,,London Fields,E05009381,-0.05593166416462471,534813.0001221001,51.53769034751593,183932.00012210011,Hackney,Creative co-working desk space,E09000012,11/27/2022
Hackney,www.creativeblocks.co.uk/,Creative Blocks,100023016582,E09000012,Creative Blocks,"258 Kingsland Road, London,",,Haggerston,E05009375,-0.0747028858975982,533514.0001221001,51.53680382241273,183799.00012210011,Hackney,Creative co-working desk space,E09000012,11/27/2022
Hackney,https://www.beehivecoworking.com/,Beehive,100023157720,E09000012,Beehive Co-Working,3-9 Belfast Road,,Cazenove,E05009368,-0.07050870285268979,533721.0001221001,51.56537945716925,186984.00012210011,Hackney,Creative co-working desk space,E09000012,11/27/2022
Hackney,https://blightyarts.org.uk/what-we-do/,Blightly Arts,100023186991,E09000012,Blightly Arts Workspace,35-37 Blackstock Road,,Brownswood,E05009367,-0.1012969200086572,531593.0001221001,51.56345352058704,186714.00012210011,Hackney,Creative co-working desk space,E09000012,11/27/2022
Hackney,http://www.clear-village.org/projects/smallworks/hackney,Clear Village Charitable Trust,100023547079,E09000012,Small Works Hackney,44 Marlborough Avenue,,Haggerston,E05009375,-0.06554595125489848,534149.0001221001,51.53678806112353,183814.00012210011,Hackney,Creative co-working desk space,E09000012,11/27/2022
Hackney,www.studioshoreditch.co.uk,Studio Shoreditch,200002796664,E09000012,Shoreditch Studio,"77 East Road,",,Hoxton West,E05009378,-0.0860218530624285,532753.0001221001,51.52859805506513,182866.00012210011,Hackney,Creative co-working desk space,E09000012,11/27/2022
Hackney,cellprojects.org,Cell Project Space,10008286566,E09000012,Cell Project Arcola North,23-27 Arcola Street,,,,-0.07223223031090616,533642.0001221001,51.551584675173174,185447.00012210011,Hackney,Creative workspaces,E09000012,11/27/2022
Hackney,https://www.containerville.co.uk/,Container Ville,10008313306,E09000012,Container Ville,Ground Floor Rear Of 32-38,Scrutton Street,,,-0.08020106498907273,533175.0001221001,51.52232431392083,182179.00012210011,Hackney,Creative workspaces,E09000012,11/27/2022
Hackney,www.lighthousespace.co.uk,Lighthouse Studios,10008329070,E09000012,,73-75 & 89a Shacklewell Lane,,,,-0.06959362226169408,533823.0001221001,51.55223378911734,185524.00012210011,Hackney,Creative workspaces,E09000012,11/27/2022
Hackney,http://hatch-homerton.co.uk/,Hatch Homerton,10008334420,E09000012,Hatch,Unit G2,8 Mackintosh Lane,,,-0.04096544742740348,535823.5001221001,51.54684138265085,184977.19012449682,Hackney,Creative workspaces,E09000012,11/27/2022
Hackney,www.themillcoproject.co.uk,The Mill Co. Project,10008336737,E09000012,Mandarin Wharf,70-76 De Beauvoir Crescent,,,,-0.07788418418207628,533294.120117195,51.53655894041942,183765.9700927958,Hackney,Creative workspaces,E09000012,11/27/2022
Hackney,www.artistic-spaces.co.uk,Artistic Spaces Ltd,10008347879,E09000012,Warwick Works,"Unit 1, Warwick Works",Downs Road,,,-0.06522249013484838,534118.4901122972,51.55478574335517,185815.76007079333,Hackney,Creative workspaces,E09000012,11/27/2022
Hackney,http://www.debeauvoirblock.com/#home,De Beauvoir Block,10008348446,E09000012,De Beauvoir Block,92-96 De Beauvoir Road,,,,-0.0784998133965719,533237.3001098931,51.541396785360725,184302.7700805962,Hackney,Creative workspaces,E09000012,11/27/2022
Hackney,www.fashion-enterprise.com,Centre For Fashion Enterprise,10091775928,E09000012,Centre For Fashion Enterprise,182 Mare Street,,,,-0.05328307002271142,534988.0001221001,51.54061431197261,184262.00012210011,Hackney,Creative workspaces,E09000012,11/27/2022
Hackney,cellprojects.org,Cell Project Space,100023015441,E09000012,Cell Project Arcola,4-8 Arcola Street,,,,-0.07293217965913477,533594.0001221001,51.551407310710545,185426.00012210011,Hackney,Creative workspaces,E09000012,11/27/2022
Hackney,eatworkart.com,Eat Work Art,100023015639,E09000012,Netil House,Netil House,1 Westgate Street,,,-0.05611738397652288,534802.0001221001,51.5370548788069,183861.00012210011,Hackney,Creative workspaces,E09000012,11/27/2022
Hackney,http://www.bootstrapcompany.co.uk/,Bootstrap Company,100023015654,E09000012,Bootstrap Company,18 Ashwin St,,,,-0.07314145972500964,533594.0001221001,51.54645528549015,184875.00012210011,Hackney,Creative workspaces,E09000012,11/27/2022
Hackney,https://mainyardstudios.co.uk/hackney-wick/,Main Yard Studios,100023018517,E09000012,Main Yard Studios,90 Wallis Road,Hackney Wick,,,-0.021137394401544402,537207.0001221001,51.54388070047827,184685.00012210011,Hackney,Creative workspaces,E09000012,11/27/2022
Hackney,https://www.growhackneystudios.com/home/,Grow Studios,100023018517,E09000012,Grow Studios,Main Yard,Wallis Road,,,-0.021137394401544402,537207.0001221001,51.54388070047827,184685.00012210011,Hackney,Creative workspaces,E09000012,11/27/2022
Hackney,www.themillcoproject.co.uk,The Mill Co. Project,100023135176,E09000012,The Rose Lipman Building,43 De Beauvoir Road,,,,-0.08002695295746887,533140.0001221001,51.53845597828961,183973.00012210011,Hackney,Creative workspaces,E09000012,11/27/2022
Hackney,www.hoxtonhall.co.uk,Hoxton Hall Charity,100023135707,E09000012,Hoxton Works,130 Hoxton Street,,,,-0.07839749245782382,533274.0001221001,51.53126140013797,183176.00012210011,Hackney,Creative workspaces,E09000012,11/27/2022
Tower Hamlets,http://www.westlandplacestudios.com/,Westland Place Studio,100023136588,E09000012,Westland Place Studio,3-11 Westland Place,,,,-0.08896370329108677,532551.0001221001,51.52789955861856,182783.00012210011,Hackney,Creative workspaces,E09000012,11/27/2022
Hackney,,Chocolate Factory 16,100023159237,E09000012,Chocolate Factory 16,The Chocolate Factory N16,Farley Place,,,-0.07191328469524859,533654.0001221001,51.55503296659519,185831.00012210011,Hackney,Creative workspaces,E09000012,11/27/2022
Hackney,eatworkart.com,Eat Work Art,100023544264,E09000012,Hackney Downs Studios,Hackney Downs Studios,Amhurst Terrace,,,-0.06470726010969811,534157.0001221001,51.55383507714285,185711.00012210011,Hackney,Creative workspaces,E09000012,11/27/2022
Hackney,http://setspace.uk/studio.html,Set,100023545315,E09000012,Set Dalston Lane,27a Dalston Lane,,,,-0.07126079981907854,533726.0001221001,51.54590274944599,184817.00012210011,Hackney,Creative workspaces,E09000012,11/27/2022
Hackney,http://www.shepherdslaneworkshop.com,Shepherd's Lane Studios,100023547846,E09000012,Shepherd's Lane,5-7 Shephed's Lane,,,,-0.044667129849304404,535565.8601073995,51.54718383680224,185008.40008549392,Hackney,Creative workspaces,E09000012,11/27/2022
Hackney,http://futurestudio.org.uk,Future Studio,100023649875,E09000012,Future Studio,237 Hackney Road,,,,-0.06855347132660816,533958.0001221001,51.53081190818558,183144.00012210011,Hackney,Creative workspaces,E09000012,11/27/2022
Tower Hamlets,https://theyardtheatre.co.uk,The Yard,6077552,E09000030,2A Queens Yard,,,Bow East,E05009319,-0.02338244103278772,536943.130329375,51.54263858650894,184596.2730190672,Hackney,Dance performance venues,E09000012,11/27/2022
Hackney,https://hackneyempire.co.uk/hire/spaces/,Hackney Empire,100023014084,E09000012,291 Mare Street,,,Hackney Central,E05009372,-0.05547786117844201,534709.5963479362,51.54552161556345,184857.10980894725,Hackney,Dance performance venues,E09000012,11/27/2022
Hackney,www.hoxtonhall.co.uk/category/hire/,Hoxton Hall,100023135707,E09000012,130 Hoxton Street,,,Hoxton East & Shoreditch,E05009377,-0.07998379986653217,533050.9666857935,51.53177145307153,183283.56878781872,Hackney,Dance performance venues,E09000012,11/27/2022
Hackney,http://waynemcgregor.com,Studio Wayne McGregor,10008348301,E09000012,14 East Bay lane,,,Hackney Wick,E05009374,-0.02406695893096881,536881.2423369922,51.54744384582722,185129.2283676379,Hackney,Dance performance venues,E09000012,11/27/2022
Hackney,http://theoldchurch.org.uk,"The Old Church , Stoke Newington",100021076029,E09000012,207B Church Street,,,Clissold,E05009369,-0.08488074761027248,532627.9924001843,51.560412014527095,186458.881108077,Hackney,Dance performance venues,E09000012,11/27/2022
Hackney,https://fouldenworks.wordpress.com,Foulden Works,100023159914,E09000012,30 Foulden Road,,,Stoke Newington,E05009385,-0.07239187829974293,533507.8040361435,51.55551305271173,185936.93184311478,Hackney,Dance performance venues,E09000012,11/27/2022
Hackney,http://shoreditchtownhall.com/event-space-hire/venue-specification/large-committee-room,Shoreditch Town Hall,100022930896,E09000012,380 Old Street,,,Hoxton East & Shoreditch,E05009377,-0.07910261270487973,533126.93925172,51.52667618511525,182718.688023185,Hackney,Dance performance venues,E09000012,11/27/2022
Hackney,www.graeae.org/,Graeae Theatre Company Bradbury Studios,10008323888,E09000012,138 Kinglsand Road,,,Haggerston,E05009375,-0.07681170573831783,533267.9249567887,51.53279852462418,183403.52684749698,Hackney,Dance performance venues,E09000012,11/27/2022
Hackney,http://www.nationalcircus.org.uk,National Circus,100023135619,E09000012,9 Coronet St,,,Hoxton East & Shoreditch,E05009377,-0.08255020363839739,532885.281311353,51.52755808546938,182810.4699100285,Hackney,Dance performance venues,E09000012,11/27/2022
Hackney,http://chatspalace.com,Chat's Palace,100023020798,E09000012,42 Brooksby's Walk,,,King's Park,E05009379,-0.042683326455879175,535582.4029900779,51.55026392640687,185408.0194131403,Hackney,Dance performance venues,E09000012,11/27/2022
Hackney,http://www.tripspace.co.uk,TripSpace Dance,100023016667,E09000012,339-340 Acton Mews,,,Haggerston,E05009375,-0.07586457097290396,533321.917508259,51.53679363512386,183849.41566460283,Hackney,Dance performance venues,E09000012,11/27/2022
Hackney,http://www.thecourtyard.org.uk,Courtyard Theatre,100023136422,E09000012,40 Pitfield Street,,,Hoxton East & Shoreditch,E05009377,-0.08337707468309591,532827.0041943259,51.52787925254408,182844.67512773728,Hackney,Dance performance venues,E09000012,11/27/2022
Hackney,https://clarencemews.wordpress.com/about/,Clarence Mews : Studio Space,200001493439,E09000012,40 Clarence Mews,,,Homerton,E05009376,-0.054803845216755395,534739.5562426706,51.55118481209124,185487.97823078895,Hackney,Dance rehearsal studios,E09000012,11/27/2022
Hackney,https://www.younghackney.org/youth-hub/concorde/,Concorde Centre,100023546618,E09000012,7 Kingsmead Way,,,King's Park,E05009379,-0.03419503485871698,536161.2932247715,51.55343145857387,185775.97962818365,Hackney,Dance rehearsal studios,E09000012,11/27/2022
Hackney,http://www.danceresearchstudio.com,Dance Research Studio,10008237591,E09000012,23 Orsman Road,,,Hoxton East & Shoreditch,E05009377,-0.07876129506914484,533122.9584710415,51.53614876850161,183772.45026944735,Hackney,Dance rehearsal studios,E09000012,11/27/2022
Hackney,www.hackneyshowroom.com,Hackney Showroom,100023544264,E09000012,17 Amhurst Terrace,,,Shacklewell,E05009382,-0.0662961616597055,533933.7076231607,51.554342499613924,185817.93114808667,Hackney,Dance rehearsal studios,E09000012,11/27/2022
Hackney,http://www.saintbarnabasdalston.org.uk,St Barnabas,100023015529,E09000012,35 Shacklewell Row,,,Shacklewell,E05009382,-0.07149557012331022,533577.8047748975,51.55282748151104,185639.98813617532,Hackney,Dance rehearsal studios,E09000012,11/27/2022
Hackney,https://www.jazzmad.co.uk/contact/,JazzMAD,10008311260,E09000012,Unit 6 Maun House,25-31 Shacklewell Lane,,Shacklewell,E05009382,-0.07333723342827599,533454.8463373391,51.551230110070975,185459.0333273728,Hackney,Dance rehearsal studios,E09000012,11/27/2022
Hackney,http://www.centre151.com/contact/,Centre 151,100023000000,E09000012,151 Whiston Road,,,Haggerston,E05009375,-0.07074627132823257,533681.5324773943,51.53517630070434,183678.93888138054,Hackney,Dance rehearsal studios,E09000012,11/27/2022
Hackney,https://www.forthecore.co.uk,For The Core ,100024000000,E09000012,11 Pearson Street,,,Haggerston,E05009375,-0.07638058619996439,533296.9196114895,51.533106185025844,183438.51654214348,Hackney,Dance rehearsal studios,E09000012,11/27/2022
Hackney,https://theamta.com/gb/,American Musical Theatre Academy ,10008349004,E09000012,28 Wallis Road,,,Hackney Wick,E05009374,-0.024787003581042688,536841.1529372098,51.544172993354636,184764.23157769907,Hackney,Dance rehearsal studios,E09000012,11/27/2022
Hackney,https://hackneyempire.co.uk/hire/spaces/,Hackney Empire,100023014084,E09000012,291 Mare Street,,,Hackney Central,E05009372,-0.05547786117844201,534709.5963479362,51.54552161556345,184857.10980894725,Hackney,Dance rehearsal studios,E09000012,11/27/2022
Hackney,www.hoxtonhall.co.uk/category/hire/,Hoxton Hall,100023135707,E09000012,130 Hoxton Street,,,Hoxton East & Shoreditch,E05009377,-0.07998379986653217,533050.9666857935,51.53177145307153,183283.56878781872,Hackney,Dance rehearsal studios,E09000012,11/27/2022
Hackney,http://waynemcgregor.com,Studio Wayne McGregor,10008348301,E09000012,14 East Bay lane,,,Hackney Wick,E05009374,-0.02406695893096881,536881.2423369922,51.54744384582722,185129.2283676379,Hackney,Dance rehearsal studios,E09000012,11/27/2022
Hackney,http://theoldchurch.org.uk,"The Old Church , Stoke Newington",100021076029,E09000012,207B Church Street,,,Clissold,E05009369,-0.08488074761027248,532627.9924001843,51.560412014527095,186458.881108077,Hackney,Dance rehearsal studios,E09000012,11/27/2022
Hackney,https://fouldenworks.wordpress.com,Foulden Works,100023159914,E09000012,30 Foulden Road,,,Stoke Newington,E05009385,-0.07239187829974293,533507.8040361435,51.55551305271173,185936.93184311478,Hackney,Dance rehearsal studios,E09000012,11/27/2022
Hackney,http://shoreditchtownhall.com/event-space-hire/venue-specification/large-committee-room,Shoreditch Town Hall,100022930896,E09000012,380 Old Street,,,Hoxton East & Shoreditch,E05009377,-0.07910261270487973,533126.93925172,51.52667618511525,182718.688023185,Hackney,Dance rehearsal studios,E09000012,11/27/2022
Hackney,www.graeae.org/,Graeae Theatre Company Bradbury Studios,10008323888,E09000012,138 Kinglsand Road,,,Haggerston,E05009375,-0.07681170573831783,533267.9249567887,51.53279852462418,183403.52684749698,Hackney,Dance rehearsal studios,E09000012,11/27/2022
Hackney,http://www.nationalcircus.org.uk,National Circus,100023135619,E09000012,9 Coronet St,,,Hoxton East & Shoreditch,E05009377,-0.08255020363839739,532885.281311353,51.52755808546938,182810.4699100285,Hackney,Dance rehearsal studios,E09000012,11/27/2022
Hackney,http://chatspalace.com,Chat's Palace,100023020798,E09000012,42 Brooksby's Walk,,,King's Park,E05009379,-0.042683326455879175,535582.4029900779,51.55026392640687,185408.0194131403,Hackney,Dance rehearsal studios,E09000012,11/27/2022
Hackney,http://www.tripspace.co.uk,TripSpace Dance,100023016667,E09000012,339-340 Acton Mews,,,Haggerston,E05009375,-0.07586457097290396,533321.917508259,51.53679363512386,183849.41566460283,Hackney,Dance rehearsal studios,E09000012,11/27/2022
Hackney,http://www.thecourtyard.org.uk,Courtyard Theatre,100023136422,E09000012,40 Pitfield Street,,,Hoxton East & Shoreditch,E05009377,-0.08337707468309591,532827.0041943259,51.52787925254408,182844.67512773728,Hackney,Dance rehearsal studios,E09000012,11/27/2022
Hackney,https://www.drakes.com,Drakes ties,10008334117,E09000012,3 Haberdasher St,,,Hoxton West,E05009378,-0.08678475009186935,532586.7076633847,51.52924930077637,182990.81361755956,Hackney,Fashion and design,E09000012,11/27/2022
Hackney,http://www.londontradition.com/,London Tradition Ltd,1.00024E+11,E09000012,96B Wallis Road,,,Hackney Wick,E05009374,-0.022600686862188454,536993.1482835301,51.54402792812236,184752.2038358472,Hackney,Fashion and design,E09000012,11/27/2022
Hackney,http://www.orhanlondontailoring.com/,Orhan London Tailoring,10008300535,E09000012,25a Pitfield Street,,,Hoxton West,E05009378,-0.08385616339421785,532796.0090068493,51.52711372017736,182758.6944925412,Hackney,Fashion and design,E09000012,11/27/2022
Hackney,http://www.formaleather.co.uk/,Forma Leather,1.00024E+11,E09000012,Perseverance Works,38 Kingsland Road,,Hoxton East & Shoreditch,E05009377,-0.07780190290960202,533212.9249211894,51.52812064798551,182881.64748080669,Hackney,Fashion and design,E09000012,11/27/2022
Hackney,https://fabrications1.co.uk,Fabrications,1.00024E+11,E09000012,7 Broadway Market,,,Haggerston,E05009375,-0.06231761956917287,534263.7201874823,51.53593187894426,183778.36965839018,Hackney,Fashion and design,E09000012,11/27/2022
Hackney,https://www.arts.ac.uk/colleges/london-college-of-fashion,London College of Fashion,1.00023E+11,E09000012,182 Mare St,,,Victoria,E05009386,-0.05487207226641622,534764.6075225464,51.541123150464635,184369.21153946873,Hackney,Fashion and design,E09000012,11/27/2022
Hackney,http://loud-apparel.com,Loud Apparel Limited,10008311273,E09000012,7 Maun House,1 Dunn Street,,Shacklewell,E05009382,-0.07329833411346201,533457.5857537377,51.5512153518673,185457.46346859232,Hackney,Fashion and design,E09000012,11/27/2022
Hackney,https://thethriftystitcher.co.uk,The Thrifty Stitcher,10008318665,E09000012,Unit 21 ,3-5 Shelford Place,,Clissold,E05009369,-0.08686341111532507,532495.0363024515,51.55888867777151,186285.92530118325,Hackney,Fashion and design,E09000012,11/27/2022
Tower Hamlets,http://www.jamesince.co.uk/,Ince Umbrellas,6041714,E09000030,63 Vyner Street,,,St. Peter's,E05009331,-0.05429721683696059,534822.6025824724,51.534989660290776,183688.36924858688,Hackney,Fashion and design,E09000012,11/27/2022
Hackney,http://www.ellensampson.com,Ellen Sampson,1.00024E+11,E09000012,352 Mare Street,,,Hackney Central,E05009372,-0.0545334497755543,534769.5727964621,51.54737642419263,185065.06514922017,Hackney,Fashion and design,E09000012,11/27/2022
Hackney,http://www.turalondon.com/,Tura London,1.00023E+11,E09000012,10 Amhurst Terrace,,,Shacklewell,E05009382,-0.06761590837086215,533841.5976190423,51.554561377899475,185839.8509169718,Hackney,Fashion and design,E09000012,11/27/2022
Hackney,http://createlab.nosakhari.com/,CreateLab by Nosakhari,1.00021E+11,E09000012,230 Morning Lane,,,Homerton,E05009376,-0.04640778432617613,535338.4665451974,51.54547888459835,184869.11477470875,Hackney,Fashion and design,E09000012,11/27/2022
Hackney,http://www.propositiongallery.co.uk/,Proposition,10008241118,E09000012,Studio 3A,20 Feldstead Street,,Hackney Wick,E05009374,-0.026634812841121777,536713.1821853451,51.54413211633294,184756.2250228902,Hackney,Fashion and design,E09000012,11/27/2022
Tower Hamlets,http://www.annastefaniak.com/,Anna Stefaniak,6023256,E09000030,25B Vyner Street,,,St. Peter's,E05009331,-0.055826260216441055,534717.6252135938,51.53463734952161,183646.38346241077,Hackney,Fashion and design,E09000012,11/27/2022
Hackney,,Beautiful Fish Limited,10008297658,E09000012,141a Stamford Hill,,,Springfield,E05009383,-0.07138413557545277,533637.0001221001,51.573335160877896,187867.00012210011,Hackney,Jewellery design,E09000012,11/27/2022
Hackney,http://www.brookegregson.com,Brooke Gregson UK Limited,10008297236,E09000012,Soho Works,Unit 4.07 The Tea Building,,Hoxton East & Shoreditch,E05009377,-0.07510293960366142,533525.0001221001,51.52356280971235,182326.00012210011,Hackney,Jewellery design,E09000012,11/27/2022
Hackney,http://www.datterindustries.com,Datter Industries Ltd,10008346089,E09000012,Hackney Downs Studios,Heartspace 29,,Shacklewell,E05009382,-0.06470726010969811,534157.0001221001,51.55383507714285,185711.00012210011,Hackney,Jewellery design,E09000012,11/27/2022
Hackney,,Early Bird Business Ltd,10008303093,E09000012,229-231 Kingsland Road,,,Hoxton East & Shoreditch,E05009377,-0.0756047075411991,533459.0001221001,51.53422846630465,183511.00012210011,Hackney,Jewellery design,E09000012,11/27/2022
Hackney,,Exclusive Gold and Rock Jewels Limited,10008344267,E09000012,First Floor 94 Stamford Hill,,,Cazenove,E05009368,-0.07093960854155269,533686.0001221001,51.56713129389292,187178.00012210011,Hackney,Jewellery design,E09000012,11/27/2022
Hackney,,Imperialdiam Limited,10008319405,E09000012,115b Drysdale Street,,,Hoxton East & Shoreditch,E05009377,-0.07732792590739568,533360.0001221001,51.527214737639994,182728.00012210011,Hackney,Jewellery design,E09000012,11/27/2022
Hackney,,Niomo Ltd,10008344177,E09000012,Unit 12,Sara Lane Studios,,Hoxton East & Shoreditch,E05009377,-0.07734300418505513,533343.0001221001,51.532674101058866,183335.00012210011,Hackney,Jewellery design,E09000012,11/27/2022
Hackney,,Regal Jeweller Manufacturing Limited,100023547185,E09000012,Grosvenor Works,Mount Pleasant Hill,,Lea Bridge,E05009380,-0.05165326364277282,535032.0001221001,51.56390766129081,186855.00012210011,Hackney,Jewellery design,E09000012,11/27/2022
Hackney,,Shangri-La Trade Corporation Limited,10091960344,E09000012,20-22 Wenlock Road,,,Hoxton West,E05009378,-0.09180574621763822,532347.0001221001,51.5302751714814,183042.00012210011,Hackney,Jewellery design,E09000012,11/27/2022
Hackney,,Multiple businesses ,100023136752,E09000012,92 Murray Grove,,,Hoxton West,E05009378,-0.08788721662396155,532618.0001221001,51.530535122367894,183078.00012210011,Hackney,Jewellery design,E09000012,11/27/2022
Hackney,,V-Flair Ltd,10091941007,E09000012,"3rd Floor, 86-90 Paul Street",,,Hoxton East & Shoreditch,E05009377,-0.08201601658255396,533041.0001221001,51.525106053008635,182485.00012210011,Hackney,Jewellery design,E09000012,11/27/2022
Tower Hamlets,https://www.thequeenadelaide.com,Queen Adelaide of Cambridge Heath ,,E09000030,483 Hackney Road,Bethnal Green,,St. Peter's,E05009331,-0.0603703564161715,534407.164978663,51.53307229398471,183464.02774430235,Hackney,LGBT+ night time venues,E09000012,11/27/2022
Hackney,http://vfdalston.com,Vogue Fabrics Dalston,,E09000012,66 Stoke Newington Road,,,Shacklewell,E05009382,-0.07621885562149688,533249.4949953561,51.55315089981178,185667.3335080301,Hackney,LGBT+ night time venues,E09000012,11/27/2022
Hackney,http://www.theglory.co,The Glory,,E09000012,281 Kingsland Road,,,Hoxton East & Shoreditch,E05009377,-0.0787148135275043,533125.5915086188,51.53635076481132,183794.99217775016,Hackney,LGBT+ night time venues,E09000012,11/27/2022
,www.themacbeth.co.uk,The Macbeth (Regular LGBTQ+ Programming),,,70 Hoxton Street,,,,,-0.08024286711077748,533037.5125721712,51.5302251030438,183111.17722277506,Hackney,LGBT+ night time venues,E09000012,11/27/2022
Hackney,,Hackney Attic (Regular LGBTQ+ Programming),,,270 Mare St,,,,,-0.05512910892376169,534735.4621872422,51.54495048150874,184794.25459385727,Hackney,LGBT+ night time venues,E09000012,11/27/2022
,www.limewharf.org,Limewharf (Regular LGBTQ+ Programming),,,Vyner St,,,,,-0.05620472119612147,534691.290746816,51.53466885202647,183649.18889331433,Hackney,LGBT+ night time venues,E09000012,11/27/2022
Tower Hamlets,,The Yard Theatre (Regular LGBTQ+ Programming),,,Queen's Yard,,,,,-0.023384897015220073,536942.9584683643,51.54263911974798,184596.3276965937,Hackney,LGBT+ night time venues,E09000012,11/27/2022
,https://redonlive.com/,Redon (Regular LGBTQ+ Programming),,,289 Railway Arches,,,,,-0.0758867402542304,533328.881994379,51.5338862218536,183526.13796184596,Hackney,LGBT+ night time venues,E09000012,11/27/2022
Hackney,,Shoreditch Library,100023135480,E09000012,Hoxton Street,,,Hoxton East & Shoreditch,E05009377,-0.07832382810569173,533283.0001221001,51.52992914046137,183028.00012210011,Hackney,Libraries,E09000012,11/27/2022
Hackney,,Hackney Central Library,10008243137,E09000012,Reading Lane,,,Hackney Central,E05009372,-0.05448119857964057,534895.0001221001,51.54397082115478,184633.00012210011,Hackney,Libraries,E09000012,11/27/2022
Hackney,,Dalston CLR James Library,10008322989,E09000012,Dalston Square,,,Dalston,E05009370,-0.07234559078147938,533651.8601073995,51.545539073057796,184774.5800780952,Hackney,Libraries,E09000012,11/27/2022
Hackney,,Homerton Library,100023022501,E09000012,Homerton High Street,,,King's Park,E05009379,-0.040153268611237115,535875.0001221001,51.54845395238637,185158.00012210011,Hackney,Libraries,E09000012,11/27/2022
Hackney,,Stoke Newington Library,100023154905,E09000012,Stoke Newington Church Street,,,Clissold,E05009369,-0.08120818580739644,532992.0001221001,51.56111212368424,186490.00012210011,Hackney,Libraries,E09000012,11/27/2022
Hackney,,Clapton Library,100023005817,E09000012,Northwold Road,,,Cazenove,E05009368,-0.058336643975630376,534574.0001221001,51.56216084122055,186648.45007319748,Hackney,Libraries,E09000012,11/27/2022
Hackney,,Woodberry Down Library,10008328988,E09000012,Kayani Avenue,,,Woodberry Down,E05009387,-0.08976098604822931,532374.6500854939,51.56958151479407,187416.20007319748,Hackney,Libraries,E09000012,11/27/2022
Hackney,,Stamford Hill Library,100023159219,E09000012,Portland Avenue,,,Springfield,E05009383,-0.07082393363084627,533686.0001221001,51.56986343314923,187482.00012210011,Hackney,Libraries,E09000012,11/27/2022
Hackney,www.theoldtramdepot.co.uk,London Live Work,100024000000,E09000012,38 Upper Clapton Rd, , ,Lea Bridge,E05009380,-0.055499135090375906,534665.513390018,51.559919238718244,186457.78071367432,Hackney,Live in artists' workspace,E09000012,11/27/2022
Hackney,http://dndr.org.uk/,Double Negative Darkroom,100024000000,E09000012,Double Negative Darkroom,"178a Glyn Road, Hackney",,King's Park,E05009379,-0.04065676654716698,535714.3687592547,51.55311678582764,185728.96175263013,Hackney,Makerspaces,E09000012,11/27/2022
Hackney,www.eastlondonprintmakers.co.uk,East London Printmakers,100024000000,E09000012,East London Printmakers,129 Mare Street,,London Fields,E05009381,-0.05755317799893572,534586.648930508,51.53844286320413,184066.28839817783,Hackney,Makerspaces,E09000012,11/27/2022
Hackney,http://hackneyfashionhub.co.uk/,Hackney Fashion Hub,10008240891,E09000012,Hackney Fashion Hub,116 Morning Lane,,Homerton,E05009376,-0.05017895387171712,535072.5115136809,51.54700736579532,185032.0695914433,Hackney,Makerspaces,E09000012,11/27/2022
Tower Hamlets,limewharf.org/,Lime Wharf,6021881,E09000030,Lime Wharf,Lime Wharf,Vinter Street,St. Peter's,E05009331,-0.056152614645125325,534694.7899635087,51.53470733021209,183653.56271062605,Hackney,Makerspaces,E09000012,11/27/2022
Hackney,http://www.chatspalace.com,Photochats,100023000000,E09000012,Photochats,42-44 Brooksby's Walk,,King's Park,E05009379,-0.042683326455879175,535582.4029900779,51.55026392640687,185408.0194131403,Hackney,Makerspaces,E09000012,11/27/2022
Hackney,http://printclublondon.com,Print Club London,100023000000,E09000012,Print Club London,Unit 3,10-28 Millers Avenue,Shacklewell,E05009382,-0.07446250309276198,533373.2985031235,51.552443015442584,185591.83142630366,Hackney,Makerspaces,E09000012,11/27/2022
Hackney,www.r-a-r-a.com/,Rara,100023000000,E09000012,Rara,2 Grosvenor Way,,Lea Bridge,E05009380,-0.052539993034224325,534854.4348688305,51.565364641186115,187068.64974046114,Hackney,Makerspaces,E09000012,11/27/2022
Hackney,https://www.facebook.com/TERRACE.STUDIOS.GALLERY/,Terrace Studios And Gallery,10008240683,E09000012,,4-17 Frederick Terrace,,London Fields,E05009381,-0.07577738694187287,533319.9194611805,51.53954390934675,184155.34162510908,Hackney,Makerspaces,E09000012,11/27/2022
Hackney,www.theschoolofstuff.co.uk/,The School Of Stuff,10008320329,E09000012,The School Of Stuff,73-75 Shacklewell Lane,,Shacklewell,E05009382,-0.07118186538160991,533599.7998625408,51.552741383281,185630.98853766674,Hackney,Makerspaces,E09000012,11/27/2022
Hackney,http://turningearthceramics.co.uk,Turning Earth Ceramics,10008243885,E09000012,Turning Earth E2,Railway Arches 361-362,Whiston Road,Haggerston,E05009375,-0.07564801652886959,533343.911620881,51.53440706218736,183584.4781773204,Hackney,Makerspaces,E09000012,11/27/2022
Hackney,https://www.capitalmodels.co.uk,Capital Models Limited,1.00024E+11,E09000012,Studio 7 & 8 The Hangar,38 Kingsland Road,,Hoxton East & Shoreditch,E05009377,-0.07621545693045158,533436.0001221001,51.527610200984796,182774.00012210011,Hackney,Making and manufacturing,E09000012,11/27/2022
Hackney,http://www.kemplondon.com/,Kemp London ,1.00023E+11,E09000012,32 Shackwell Lane,,,Dalston,E05009370,-0.07102936558250746,533729.0001221001,51.55035076810333,185312.00012210011,Hackney,Making and manufacturing,E09000012,11/27/2022
Hackney,http://www.jameshoyleandson.co.uk,The Beehive Foundry (James Hoyle & Son),10008299117,E09000012,48-50 Andrews Road,,,London Fields,E05009381,-0.0565434539731751,534782.0001221001,51.53382423649143,183501.00012210011,Hackney,Making and manufacturing,E09000012,11/27/2022
Hackney,http://www.hackney.gov.uk/cm-museum.htm,Hackney Museum,10008313143,E09000012,1 Reading Lane,NA,NA,Hackney Central,E05009372,-0.05448119857964057,534895.0001221001,51.54397082115478,184633.00012210011,Hackney,Museums and public galleries,E09000012,11/27/2022
Hackney,http://www.geffrye-museum.org.uk/,Geffrye Museum,100021051873,E09000012,136 Kingsland Road,London,NA,Haggerston,E05009375,-0.07465742182953801,533534.0001221001,51.53104717246731,183159.00012210011,Hackney,Museums and public galleries,E09000012,11/27/2022
Hackney,www.nationaltrust.org.uk/sutton-house,Sutton House,100023022522,E09000012,2 & 4 Homerton High St,NA,NA,Homerton,E05009376,-0.048814314691210545,535276.0001221001,51.54797778023053,185089.00012210011,Hackney,Museums and public galleries,E09000012,11/27/2022
Hackney,,Red Light Management,10008331421,E09000012,42644 Scrutton Street,Hackney,,Hoxton East & Shoreditch,E05009377,-0.08216046158324075,533038.000122197,51.522698129205,182217.00012159348,Hackney,Music (office based businesses),E09000012,11/27/2022
Hackney,,68 Publishing Ltd,100000000000,E09000012,91 Tabernacle Street,Hackney,,Hoxton East & Shoreditch,E05009377,-0.08257722393402825,533001.000122197,51.52547497360176,182525.00012159348,Hackney,Music (office based businesses),E09000012,11/27/2022
Hackney,www.enhancedmusic.com,Enhanced Music Ltd,10008332365,E09000012,Unit 6 65,Rivington Street,Hackney,Hoxton East & Shoreditch,E05009377,-0.07832540895497148,533295.000122197,51.525783115198216,182567.00012159348,Hackney,Music (office based businesses),E09000012,11/27/2022
Hackney,www.soundtreemusic.com,Soundtree Music Ltd,10091900740,E09000012,Bath House 8,Chapel Place,Hackney,Hoxton East & Shoreditch,E05009377,-0.08061476825517981,533136.000122197,51.52585657883842,182571.00012159348,Hackney,Music (office based businesses),E09000012,11/27/2022
Hackney,www.editionpeters.com,Peters Edition Ltd,0,E09000012,2-6 Bache's St Hoxton,,,Hoxton West,E05009378,-0.08397966434656388,532899.000122197,51.52709875422938,182703.00012159348,Hackney,Music (office based businesses),E09000012,11/27/2022
Hackney,,Btm Records Ltd,10008338511,E09000012,1 Wenlock Road,Hackney,,Hoxton West,E05009378,-0.0923152096688142,532313.000122197,51.52981579275935,182990.00012159348,Hackney,Music (office based businesses),E09000012,11/27/2022
Hackney,,Solar Management Ltd,200000000000,E09000012,Unit G11 Union Wharf,23,Wenlock Road,Hoxton West,E05009378,-0.09343232299643785,532230.000122197,51.53172260971701,183200.00012159348,Hackney,Music (office based businesses),E09000012,11/27/2022
Hackney,,Black Note Music Management Ltd,100000000000,E09000012,41 Southborough Road,Hackney,,Victoria,E05009386,-0.04475214423037218,535587.000122197,51.53808910340505,183997.00012159348,Hackney,Music (office based businesses),E09000012,11/27/2022
Hackney,,Buff Records Ltd,100000000000,E09000012,111 Mortimer Road,Hackney,,De Beauvoir,E05009371,-0.07765828876146473,533293.000122197,51.54230241139038,184405.00012159348,Hackney,Music (office based businesses),E09000012,11/27/2022
Hackney,,Half Baked Records Ltd,100000000000,E09000012,90 Wallis Road,Hackney,,Hackney Wick,E05009374,-0.021137394400384295,537207.000122197,51.54388070047281,184685.00012149662,Hackney,Music (office based businesses),E09000012,11/27/2022
Hackney,,Cp Audio Ltd,10008291965,E09000012,596 Kingsland Road,Hackney,,Dalston,E05009370,-0.07387397334774758,533546.000122197,51.54550500244635,184768.00012159348,Hackney,Music (office based businesses),E09000012,11/27/2022
Hackney,,Soulvent Records Ltd,100000000000,E09000012,42 Blurton Road,Hackney,,Lea Bridge,E05009380,-0.04577679057608779,535472.000122197,51.552882694815,185640.00012159348,Hackney,Music (office based businesses),E09000012,11/27/2022
Hackney,,Cutsy Ltd,100000000000,E09000012,160 Dalston Lane,Hackney,,Hackney Central,E05009372,-0.06453840501148249,534187.000122197,51.54761772153437,185020.00012159348,Hackney,Music (office based businesses),E09000012,11/27/2022
Hackney,,Soviet Science Music Publishing Ltd,100000000000,E09000012,29 St. John's Church Road,Hackney,,Homerton,E05009376,-0.05098693588651801,535122.000122197,51.549120113194526,185212.00012159348,Hackney,Music (office based businesses),E09000012,11/27/2022
Hackney,,Elite Management On Demand Ltd,10008239204,E09000012,41 Church Walk,Hackney,,Clissold,E05009369,-0.0823545120000885,532935.000122197,51.553414394031826,185632.00012159348,Hackney,Music (office based businesses),E09000012,11/27/2022
Hackney,,Blue Print Music Publishing Ltd,100000000000,E09000012,12 Colne Road,Hackney,,King's Park,E05009379,-0.0376258314452711,536037.000122197,51.55288152698395,185655.00012159348,Hackney,Music (office based businesses),E09000012,11/27/2022
Hackney,,Lucky Seven,100000000000,E09000012,127 Stoke Newington Church Stre,Hackney,,Clissold,E05009369,-0.07898803964192573,533145.000122197,51.56140855190939,186527.00012159348,Hackney,Music (office based businesses),E09000012,11/27/2022
Hackney,,Milton Music Ltd,100000000000,E09000012,29 Brownswood Road,Hackney,,Brownswood,E05009367,-0.09306972824410267,532165.000122197,51.56281644349349,186658.00012159348,Hackney,Music (office based businesses),E09000012,11/27/2022
Hackney,https://milocostudios.com/studios/baltic-studios/,Baltic Studios,,,Unit 1 Baltic Place,Kingsland Road,,,,-0.07550704038498159,533459.8811754957,51.53624246801654,183735.11559859663,Hackney,Music recording studios,E09000012,11/27/2022
Hackney,http://www.strongroombar.com,Strongroom Bar And Kitchen,0,E09000012,120-124 Curtain Road,Hackney,,Hoxton East & Shoreditch,E05009377,-0.07853880643743791,533281.0280762985,51.52549931404215,182535.0554804951,Hackney,Music recording studios,E09000012,11/27/2022
Hackney,,Noatune Studios,0,E09000012,Netil House 1 Westgate St,,,London Fields,E05009381,-0.05619327047273622,534797.000122197,51.53696620028321,183851.00012159348,Hackney,Music recording studios,E09000012,11/27/2022
Hackney,http://www.secretsundazestudios.net/,Secretsundaze Studios,0,E09000012,Unit 4 2-18 Warburton Rd,London,,London Fields,E05009381,-0.056089376980343233,534800.4611206949,51.538232891300964,183992.03491159528,Hackney,Music recording studios,E09000012,11/27/2022
Hackney,www.urchinstudios.co.uk,Urchin Studios,0,E09000012,Unit 1 2-18 Warburton Rd,,,London Fields,E05009381,-0.05566100084541781,534830.000122197,51.53828843336406,183999.00012159348,Hackney,Music recording studios,E09000012,11/27/2022
Hackney,,Silent Studios,10008318992,E09000012,32 Fortescue Avenue,Hackney,,London Fields,E05009381,-0.05555555300383725,534832.000122197,51.54008540835466,184199.00012159348,Hackney,Music recording studios,E09000012,11/27/2022
Hackney,,Rising Tide Trust,100000000000,E09000012,270 Mare Street,Hackney,,Homerton,E05009376,-0.05339771926104516,534969.000122197,51.54434856424565,184677.00012159348,Hackney,Music recording studios,E09000012,11/27/2022
Hackney,,Sound Savers Recording Studio,0,E09000012,Unit 24 Sedgwick St,,,Homerton,E05009376,-0.04258842954006512,535710.000122197,51.54717255126885,185011.00012159348,Hackney,Music recording studios,E09000012,11/27/2022
Hackney,,Nelly Ben Hayoun Studios Ltd,200000000000,E09000012,112 Chatsworth Road,Hackney,,Lea Bridge,E05009380,-0.0436887114026991,535612.000122197,51.55447573382305,185821.00012159348,Hackney,Music recording studios,E09000012,11/27/2022
Hackney,https://www.arcolatheatre.com/about/hire/,Arcola Studio 5,,,24 Ashwin Street,,,,,-0.07312034175406248,533595.5902987942,51.54641222676964,184870.25097869337,Hackney,Music rehearsal studios,E09000012,11/27/2022
Hackney,,Gillet Square  Studios,,,Unit 10 Gillett Square,,,,,-0.07499219009114166,533460.549352698,51.548213555853785,185067.12423239648,Hackney,Music rehearsal studios,E09000012,11/27/2022
Hackney,www.roozstudios.co.uk,Rooz Studios,10008332356,E09000012,Hackney ,,,Hoxton West,E05009378,-0.08576405071349118,532775.000122197,51.52718185332292,182709.00012159348,Hackney,Music rehearsal studios,E09000012,11/27/2022
Hackney,www.premisesstudios.com,Premises Studios,100000000000,E09000012,209 Hackney Road,Hackney,,Haggerston,E05009375,-0.07001377249165772,533857.000122197,51.530719030248754,183131.00012159348,Hackney,Music rehearsal studios,E09000012,11/27/2022
Hackney,www.hoxtonhall.co.uk,Hoxton Hall,100000000000,E09000012,130 Hoxton Street,Hackney,,Hoxton East & Shoreditch,E05009377,-0.07839749245662038,533274.000122197,51.53126140013339,183176.00012159348,Hackney,Music rehearsal studios,E09000012,11/27/2022
Hackney,www.kafristudios.co.uk,Kafri Studios,10008238318,E09000012,357 Railway Arches,Laburnum Street,Hackney,Haggerston,E05009375,-0.07423038782859477,533554.000122197,51.534331819797984,183525.00012159348,Hackney,Music rehearsal studios,E09000012,11/27/2022
Hackney,,Rising Tide Trust,100000000000,E09000012,270 Mare Street,Hackney,,Homerton,E05009376,-0.05339771926104516,534969.000122197,51.54434856424565,184677.00012159348,Hackney,Music rehearsal studios,E09000012,11/27/2022
Hackney,www.lshspaces.com,Lsh Spaces,10091898280,E09000012,Atlas Wharf Berkshire Road,Hackney,,Hackney Wick,E05009374,-0.022999424474201547,537077.000122197,51.54418190883753,184715.00012149662,Hackney,Music rehearsal studios,E09000012,11/27/2022
Hackney,,Oto Project Space,100023016515,E09000012,1-7 Ashwin Street ,,,Dalston,E05009370,-0.07321886447498883,533590.000122197,51.54598889056955,184823.00012159348,Hackney,Music rehearsal studios,E09000012,11/27/2022
Hackney,www.thebluestudios.co.uk,The Blue Studios,100000000000,E09000012,160 Dalston Lane,Hackney,,Hackney Central,E05009372,-0.06453840501148249,534187.000122197,51.54761772153437,185020.00012159348,Hackney,Music rehearsal studios,E09000012,11/27/2022
Hackney,www.gunfactorystudios.com,Gunfactory Studios,10008340190,E09000012,Unit 2 2a,Barnabas Road,Hackney,Homerton,E05009376,-0.041052907906462044,535815.000122197,51.54765955406934,185068.00012159348,Hackney,Music rehearsal studios,E09000012,11/27/2022
Hackney,www.vortexjazz.co.uk,Vortex Jazz Club,10091818908,E09000012,11 Gillett Square,Hackney,,Dalston,E05009370,-0.07506843545192074,533455.000122197,51.54830362665583,185077.00012159348,Hackney,Music rehearsal studios,E09000012,11/27/2022
Hackney,"http://reelrebelsradio.com/studio-hire/
http://reelrebelsmusicstudios.weebly.com/",Reel Rebels Music Studios,0,E09000012,7a Bouverie Mews ,,,Stoke Newington,E05009385,-0.0770312149503172,533279.000122197,51.56196107440545,186592.00012159348,Hackney,Music rehearsal studios,E09000012,11/27/2022
Hackney,,Karma Studios Ltd.,100000000000,E09000012,7a Bouverie Mews,Hackney,,Stoke Newington,E05009385,-0.07663506407435695,533306.000122197,51.56211646434443,186610.00012159348,Hackney,Music rehearsal studios,E09000012,11/27/2022
HACKNEY,www.mothclub.co.uk,Moth Club,100023022302,E09000012,Hackney Trades Hall Valette Street,Hackney,,Homerton,E05009376,-0.05283064783338017,535006.0,51.545130588780204,184765.0,Hackney,Music venues (all),E09000012,11/27/2022
,www.totalrefreshment.net,Total Refreshment Centre,,,2A Foulden Road,,,,,-0.07225141239405451,533629.8500000983,51.555276312536535,185857.43999949843,Hackney,Music venues (all),E09000012,11/27/2022
,www.kansassmittys.com,Kansas Smitty's,,,63-65 Broadway Market,,,,,-0.05980619768391666,534546.9160105959,51.53681714136132,183827.77491239458,Hackney,Music venues (all),E09000012,11/27/2022
,https://earthackney.co.uk/,EartH,,,11-17 Stoke Newington Rd,,,,,-0.07360592378311397,533550.4283712953,51.55033810861695,185305.88460149616,Hackney,Music venues (all),E09000012,11/27/2022
,www.oslohackney.com,Oslo Hackney,,,1A Amhurst Rd,,,,,-0.05592561336907377,534784.3976081982,51.547510178925734,185023.8788675964,Hackney,Music venues (all),E09000012,11/27/2022
,www.paperdressvintage.co.uk,Paper Dress Vintage,,,352 Mare Street,,,,,-0.05317855309188124,534976.7079809979,51.54687811387985,184958.66534599662,Hackney,Music venues (all),E09000012,11/27/2022
Hackney,www.theyardshoreditch.com,The Yard,100000000000,E09000012,89 Worship Street,Hackney,,Hoxton East & Shoreditch,E05009377,-0.08054825508331678,533153.000122197,51.52161050808088,182099.00012159348,Hackney,Music venues (all),E09000012,11/27/2022
Hackney,www.queenofhoxton.com/,Queen Of Hoxton,100000000000,E09000012,1 Curtain Road,Hackney,,Hoxton East & Shoreditch,E05009377,-0.07957620091680713,533220.000122197,51.52175647963218,182117.00012159348,Hackney,Music venues (all),E09000012,11/27/2022
Hackney,www.thehorseandgroom.net,Horse & Groom,100000000000,E09000012,28 Curtain Road,Hackney,,Hoxton East & Shoreditch,E05009377,-0.07881686808764238,533271.000122197,51.522328627748266,182182.00012159348,Hackney,Music venues (all),E09000012,11/27/2022
Hackney,,Boxpark,10008331133,E09000012,Unit 57 Boxpark Retail Mall 2-10,Bethnal Green Road,Hackney,Hoxton East & Shoreditch,E05009377,-0.07472531813004113,533553.000122197,51.52294504545419,182258.00012159348,Hackney,Music venues (all),E09000012,11/27/2022
Hackney,www.villageunderground.co.uk,Village Underground,10091784233,E09000012,54 Holywell Lane,Hackney,,Hoxton East & Shoreditch,E05009377,-0.07696676189701844,533397.000122197,51.52312571799864,182274.00012159348,Hackney,Music venues (all),E09000012,11/27/2022
Hackney,,Shoreditch House,10008334386,E09000012,Ebor Street Hackney,,,Hoxton East & Shoreditch,E05009377,-0.07430902734600163,533581.000122197,51.52324399366075,182292.00012159348,Hackney,Music venues (all),E09000012,11/27/2022
Hackney,www.concretespace.co.uk/,Concrete,10008297229,E09000012,The Tea Building 56,Shoreditch High Street,Hackney,Hoxton East & Shoreditch,E05009377,-0.07510293960245798,533525.000122197,51.523562809707784,182326.00012159348,Hackney,Music venues (all),E09000012,11/27/2022
Hackney,www.theoldbluelast.com,The Old Blue Last,100000000000,E09000012,38 Great Eastern Street,Hackney,,Hoxton East & Shoreditch,E05009377,-0.07849246139367139,533289.000122197,51.523870213907244,182354.00012159348,Hackney,Music venues (all),E09000012,11/27/2022
Hackney,www.redgalleryldn.com,Red Gallery,100000000000,E09000012,1-3 Rivington Street,Hackney,,Hoxton East & Shoreditch,E05009377,-0.0816756217437236,533063.000122197,51.525658089136165,182547.00012159348,Hackney,Music venues (all),E09000012,11/27/2022
Hackney,www.thehoxtonpony.com,Hoxton Pony,10008241848,E09000012,104-108 Curtain Road,Hackney,,Hoxton East & Shoreditch,E05009377,-0.0785350114256304,533283.000122197,51.52491416955197,182470.00012159348,Hackney,Music venues (all),E09000012,11/27/2022
Hackney,,The Yard,10091876623,E09000012,140 Tabernacle Street,Hackney,,Hoxton East & Shoreditch,E05009377,-0.08245963728484855,533010.000122197,51.52518525586232,182493.00012159348,Hackney,Music venues (all),E09000012,11/27/2022
Hackney,www.trapezebar.co.uk,Trapeze Bar,10091904454,E09000012,89 Great Eastern Street,Hackney,,Hoxton East & Shoreditch,E05009377,-0.08182531534150358,533054.000122197,51.52518387658685,182494.00012159348,Hackney,Music venues (all),E09000012,11/27/2022
Hackney,,Ace Hotel,10008293853,E09000012,100 Shoreditch High Street,Hackney,,Hoxton East & Shoreditch,E05009377,-0.0757399269633544,533476.000122197,51.52521010007735,182508.00012159348,Hackney,Music venues (all),E09000012,11/27/2022
Hackney,,Miranda,10008293853,E09000012,100 Shoreditch High Street,Hackney,,Hoxton East & Shoreditch,E05009377,-0.0757399269633544,533476.000122197,51.52521010007735,182508.00012159348,Hackney,Music venues (all),E09000012,11/27/2022
Hackney,http://www.strongroombar.com,Strongroom Bar And Kitchen,0,E09000012,120-124 Curtain Road,Hackney,,Hoxton East & Shoreditch,E05009377,-0.07853880643743791,533281.0280762985,51.52549931404215,182535.0554804951,Hackney,Music venues (all),E09000012,11/27/2022
Hackney,,Barrio Shoreditch,10008320330,E09000012,141-143 Shoreditch High Street,Hackney,,Hoxton East & Shoreditch,E05009377,-0.07676289443019892,533404.000122197,51.52556863690456,182546.00012159348,Hackney,Music venues (all),E09000012,11/27/2022
Hackney,www.goldenbee.co.uk/,Golden Bee,10008980464,E09000012,Islington ,,,Hoxton West,E05009378,-0.08344704852249468,532940.000122197,51.525705037504416,182549.00012159348,Hackney,Music venues (all),E09000012,11/27/2022
Hackney,,The Lighthouse,10091889776,E09000012,62 Rivington Street,Hackney,,Hoxton East & Shoreditch,E05009377,-0.07804292716085387,533315.000122197,51.52564358223933,182552.00012159348,Hackney,Music venues (all),E09000012,11/27/2022
Hackney,,Dragon Bar,100000000000,E09000012,138 Shoreditch High Street,Hackney,,Hoxton East & Shoreditch,E05009377,-0.07668479439995012,533409.000122197,51.525711253884616,182562.00012159348,Hackney,Music venues (all),E09000012,11/27/2022
Hackney,,Red Market,100000000000,E09000012,7 Bath Place,Hackney,,Hoxton East & Shoreditch,E05009377,-0.0811361025788403,533100.000122197,51.52580215443292,182564.00012159348,Hackney,Music venues (all),E09000012,11/27/2022
Hackney,www.autograph-abp.co.uk,Autograph Abp,10091784356,E09000012,1 Rivington Place,Hackney,,Hoxton East & Shoreditch,E05009377,-0.07784313166160793,533328.000122197,51.525937096919506,182585.00012159348,Hackney,Music venues (all),E09000012,11/27/2022
Hackney,,Bounce Shoreditch,10008287321,E09000012,239 Old Street,Hackney,,Hoxton West,E05009378,-0.08270890162574653,532990.000122197,51.52611567199104,182596.00012159348,Hackney,Music venues (all),E09000012,11/27/2022
Hackney,www.cargo-london.com,Cargo,10091779809,E09000012,83 Rivington Street,Hackney,,Hoxton East & Shoreditch,E05009377,-0.07729146150190826,533366.000122197,51.526026983818866,182596.00012159348,Hackney,Music venues (all),E09000012,11/27/2022
Hackney,www.roadtripbar.com,Roadtrip & The Workshop,100000000000,E09000012,243 Old Street,Hackney,,Hoxton West,E05009378,-0.08241885091100891,533010.000122197,51.526155897961516,182601.00012159348,Hackney,Music venues (all),E09000012,11/27/2022
Hackney,www.shoreditchtownhall.com,Shoreditch Town Hall,10091784164,E09000012,380 Old Street,Hackney,,Hoxton East & Shoreditch,E05009377,-0.07751631091376558,533350.000122197,51.52616557388159,182611.00012159348,Hackney,Music venues (all),E09000012,11/27/2022
Hackney,,The Corner Shop,100000000000,E09000012,123 Shoreditch High Street,Hackney,,Hoxton East & Shoreditch,E05009377,-0.07679402739966969,533399.000122197,51.52654045706335,182654.00012159348,Hackney,Music venues (all),E09000012,11/27/2022
Hackney,www.trafik-london.com,Trafik,100000000000,E09000012,331 Old Street,Hackney,,Hoxton East & Shoreditch,E05009377,-0.07896702037402534,533248.000122197,51.526639025224995,182661.00012159348,Hackney,Music venues (all),E09000012,11/27/2022
Hackney,,333 Club,100000000000,E09000012,333 Old Street,Hackney,,Hoxton East & Shoreditch,E05009377,-0.07886502748232475,533255.000122197,51.526664335390706,182664.00012159348,Hackney,Music venues (all),E09000012,11/27/2022
Hackney,,Shoreditch Platform,10091775140,E09000012,1 Kingsland Road,Hackney,,Hoxton East & Shoreditch,E05009377,-0.07676522550258601,533400.000122197,51.52688174182011,182692.00012159348,Hackney,Music venues (all),E09000012,11/27/2022
Hackney,,The Old Shoreditch Station,10091775140,E09000012,1 Kingsland Road,Hackney,,Hoxton East & Shoreditch,E05009377,-0.07676522550258601,533400.000122197,51.52688174182011,182692.00012159348,Hackney,Music venues (all),E09000012,11/27/2022
Hackney,www.hoxtonsquarebar.com,Hoxton Square Bar And Kitchen,10091942715,E09000012,2-4 Hoxton Square London,,,Hoxton East & Shoreditch,E05009377,-0.08042267516732579,533146.000122197,51.52699562251489,182698.00012159348,Hackney,Music venues (all),E09000012,11/27/2022
Hackney,www.electricityshowrooms.com,Electricity Showrooms,100000000000,E09000012,39 Hoxton Square,Hackney,,Hoxton East & Shoreditch,E05009377,-0.07873651756580888,533263.000122197,51.52697700641828,182699.00012159348,Hackney,Music venues (all),E09000012,11/27/2022
Hackney,,Charlie Wright's International Bar,100000000000,E09000012,45 Pitfield Street,Hackney,,Hoxton West,E05009378,-0.08223133389154762,533020.000122197,51.52718709591068,182716.00012159348,Hackney,Music venues (all),E09000012,11/27/2022
Hackney,www.troybar.co.uk,Troy Bar,10008242403,E09000012,10 Hoxton Street,Hackney,,Hoxton East & Shoreditch,E05009377,-0.07838390454302402,533287.000122197,51.52713311442826,182717.00012159348,Hackney,Music venues (all),E09000012,11/27/2022
Hackney,,Catch,100000000000,E09000012,22 Kingsland Road,Hackney,,Hoxton East & Shoreditch,E05009377,-0.0762169622694332,533437.000122197,51.52723249419999,182732.00012159348,Hackney,Music venues (all),E09000012,11/27/2022
Hackney,,The Red Lion,100000000000,E09000012,41 Hoxton Street,Hackney,,Hoxton East & Shoreditch,E05009377,-0.0786963774779683,533264.000122197,51.52758791390901,182767.00012159348,Hackney,Music venues (all),E09000012,11/27/2022
Hackney,,Looking Glass Cocktail Club,10008330559,E09000012,Flat 1 The Storehouse,49,Hackney Road,Hoxton East & Shoreditch,E05009377,-0.07466957307996602,533543.000122197,51.52768376341328,182785.00012159348,Hackney,Music venues (all),E09000012,11/27/2022
Hackney,www.basinghouse.co.uk/,Basing House,100000000000,E09000012,25 Kingsland Road,Hackney,,Hoxton East & Shoreditch,E05009377,-0.07651427258750705,533413.000122197,51.52838855211674,182860.00012159348,Hackney,Music venues (all),E09000012,11/27/2022
Hackney,,Lion & Lamb,100000000000,E09000012,Fanshaw Street Hackney,,,Hoxton East & Shoreditch,E05009377,-0.07995881078681404,533172.000122197,51.52911051934519,182934.00012159348,Hackney,Music venues (all),E09000012,11/27/2022
Hackney,www.themacbeth.co.uk,The Macbeth,100000000000,E09000012,70 Hoxton Street,Hackney,,Hoxton East & Shoreditch,E05009377,-0.07843718351353993,533276.000122197,51.5296342088699,182995.00012159348,Hackney,Music venues (all),E09000012,11/27/2022
Hackney,,Beehive,100000000000,E09000012,36 New North Road,Hackney,,Hoxton West,E05009378,-0.08466648952665523,532839.000122197,51.53134595549282,183174.00012159348,Hackney,Music venues (all),E09000012,11/27/2022
Hackney,www.hoxtonhall.co.uk,Hoxton Hall,100000000000,E09000012,130 Hoxton Street,Hackney,,Hoxton East & Shoreditch,E05009377,-0.07839749245662038,533274.000122197,51.53126140013339,183176.00012159348,Hackney,Music venues (all),E09000012,11/27/2022
Hackney,,Number 177 Bar,100000000000,E09000012,177 Hoxton Street,Hackney,,Hoxton East & Shoreditch,E05009377,-0.07886885026432448,533241.000122197,51.53136805141477,183187.00012159348,Hackney,Music venues (all),E09000012,11/27/2022
Hackney,,Shelter,100000000000,E09000012,267 Kingsland Road,Hackney,,Hoxton East & Shoreditch,E05009377,-0.07553683600928625,533461.000122197,51.53515369322404,183614.00012159348,Hackney,Music venues (all),E09000012,11/27/2022
Hackney,,Kings Head Members Club,100000000000,E09000012,257 Kingsland Road,Hackney,,Hoxton East & Shoreditch,E05009377,-0.07556072526951325,533460.000122197,51.53492924526817,183589.00012159348,Hackney,Music venues (all),E09000012,11/27/2022
Hackney,,La Cabina,100000000000,E09000012,232 Kingsland Road,Hackney,,Haggerston,E05009375,-0.07509047696550593,533492.000122197,51.53513737504014,183613.00012159348,Hackney,Music venues (all),E09000012,11/27/2022
Hackney,,Guest Projects,100000000000,E09000012,Sunbury House 1,Andrews Road,Hackney,London Fields,E05009381,-0.05999357582464583,534539.000122197,51.53509549228018,183636.00012159348,Hackney,Music venues (all),E09000012,11/27/2022
Hackney,www.theglory.co,The Glory,100000000000,E09000012,281 Kingsland Road,Hackney,,Hoxton East & Shoreditch,E05009377,-0.07552887754277203,533460.000122197,51.535684184830856,183673.00012159348,Hackney,Music venues (all),E09000012,11/27/2022
Hackney,,Martello Hall,100000000000,E09000012,137 Mare Street,Hackney,,London Fields,E05009381,-0.05570998234897812,534827.000122197,51.53815434107015,183984.00012159348,Hackney,Music venues (all),E09000012,11/27/2022
Hackney,www.manglee8.com,Mangle E8,0,E09000012,13-18 Warburton Rd London,,,London Fields,E05009381,-0.056263230106629945,534788.000122197,51.53837036382636,184007.00012159348,Hackney,Music venues (all),E09000012,11/27/2022
Hackney,,The Dolphin,100000000000,E09000012,165 Mare Street,Hackney,,London Fields,E05009381,-0.05463270725423919,534898.000122197,51.53940457865738,184125.00012159348,Hackney,Music venues (all),E09000012,11/27/2022
Hackney,www.peoplesparktavern.pub,Peoples Park Tavern,100000000000,E09000012,360 Victoria Park Road,Hackney,,Hackney Wick,E05009374,-0.03615599110152301,536174.000122197,51.54112024454322,184350.00012159348,Hackney,Music venues (all),E09000012,11/27/2022
Hackney,,The Haggerston,100000000000,E09000012,438 Kingsland Road,Hackney,,London Fields,E05009381,-0.07423251631935576,533532.000122197,51.54179653804389,184355.00012159348,Hackney,Music venues (all),E09000012,11/27/2022
Hackney,,Brilliant Corners,10008291706,E09000012,470 Kingsland Road,Hackney,,London Fields,E05009381,-0.07412857258976642,533537.000122197,51.542550292918314,184439.00012159348,Hackney,Music venues (all),E09000012,11/27/2022
Hackney,,Fieldworks,100000000000,E09000012,274 Richmond Road,Hackney,,London Fields,E05009381,-0.05639124541836128,534767.000122197,51.542473572486706,184463.00012159348,Hackney,Music venues (all),E09000012,11/27/2022
Hackney,,Bar 512,100000000000,E09000012,512 Kingsland Road,Hackney,,London Fields,E05009381,-0.07419037603400953,533530.000122197,51.5434776471636,184542.00012159348,Hackney,Music venues (all),E09000012,11/27/2022
Hackney,www.kentonpub.co.uk,The Kenton,100000000000,E09000012,Kenton Road Hackney,,,Hackney Wick,E05009374,-0.042755601444832966,535709.000122197,51.543613866388995,184615.00012159348,Hackney,Music venues (all),E09000012,11/27/2022
Hackney,www.vinylpimp.co.uk,Vinyl Pimp Record Shop,10008318997,E09000012,14 Felstead Street,Hackney,,Hackney Wick,E05009374,-0.02457163582747313,536969.000122197,51.54384865167489,184675.00012149662,Hackney,Music venues (all),E09000012,11/27/2022
Hackney,www.number90bar.co.uk,Number 90,100000000000,E09000012,90 Wallis Road,Hackney,,Hackney Wick,E05009374,-0.021137394400384295,537207.000122197,51.54388070047281,184685.00012149662,Hackney,Music venues (all),E09000012,11/27/2022
Hackney,,Lift,10091775595,E09000012,574 Kingsland Road,Hackney,,Dalston,E05009370,-0.07386602341393322,533548.000122197,51.5450102247308,184713.00012159348,Hackney,Music venues (all),E09000012,11/27/2022
Hackney,,The Rocksteady,10091775595,E09000012,574 Kingsland Road,Hackney,,Dalston,E05009370,-0.07386602341393322,533548.000122197,51.5450102247308,184713.00012159348,Hackney,Music venues (all),E09000012,11/27/2022
Hackney,,Junction House,100000000000,E09000012,578 Kingsland Road,Hackney,,Dalston,E05009370,-0.07386336619519494,533548.000122197,51.54507313619438,184720.00012159348,Hackney,Music venues (all),E09000012,11/27/2022
Hackney,,Vision Video Bar,10008291713,E09000012,588 Kingsland Road,Hackney,,Dalston,E05009370,-0.07387890822395977,533546.000122197,51.5453881668784,184755.00012159348,Hackney,Music venues (all),E09000012,11/27/2022
Hackney,,The Eagle,100000000000,E09000012,103 Wick Road,Hackney,,Hackney Wick,E05009374,-0.03984382726569703,535907.000122197,51.54491428765852,184765.00012159348,Hackney,Music venues (all),E09000012,11/27/2022
Hackney,www.thedukeofwellington.london/,The Duke Of Wellington,100000000000,E09000012,119 Balls Pond Road,Hackney,,De Beauvoir,E05009371,-0.07901492305611188,533189.000122197,51.54570622323455,184781.00012159348,Hackney,Music venues (all),E09000012,11/27/2022
Hackney,,Globe In Morning Lane,100000000000,E09000012,20 Morning Lane,Hackney,,Homerton,E05009376,-0.05218491953452769,535050.000122197,51.545389677268865,184795.00012159348,Hackney,Music venues (all),E09000012,11/27/2022
Hackney,www.farrsschoolofdancing.com,Farrs School Of Dancing,10008227895,E09000012,17-19 Dalston Lane,Hackney,,Dalston,E05009370,-0.0723430106783264,533651.000122197,51.5458935582152,184814.00012159348,Hackney,Music venues (all),E09000012,11/27/2022
Hackney,,The Passage,100000000000,E09000012,27 Dalston Lane,Hackney,,Dalston,E05009370,-0.07126079981787391,533726.000122197,51.54590274944142,184817.00012159348,Hackney,Music venues (all),E09000012,11/27/2022
Hackney,,Arcola Bar,10008321023,E09000012,24 Ashwin Street,Hackney,,Dalston,E05009370,-0.07335995504392497,533579.000122197,51.54640491292112,184869.00012159348,Hackney,Music venues (all),E09000012,11/27/2022
Hackney,www.cafeoto.co.uk,Cafe Oto,10008319766,E09000012,The Print House 18-22 Ashwin St,London,,Dalston,E05009370,-0.0731414597238062,533594.000122197,51.54645528548556,184875.00012159348,Hackney,Music venues (all),E09000012,11/27/2022
Hackney,,The Old Baths & Cre8 Galleries,100000000000,E09000012,80 Eastway,Hackney,,Hackney Wick,E05009374,-0.02788267251119504,536731.000122197,51.546665414954894,184982.00012149662,Hackney,Music venues (all),E09000012,11/27/2022
Hackney,www.ridleyroadmarketbar.com/,Ridley Road Market Bar,100000000000,E09000012,49 Ridley Road,Hackney,,Dalston,E05009370,-0.07094919018681298,533742.000122197,51.54781325918255,185030.00012159348,Hackney,Music venues (all),E09000012,11/27/2022
Hackney,www.servantjazzquarters.com,Servant Jazz Quarters,10008302207,E09000012,10 Bradbury Street,Hackney,,Dalston,E05009370,-0.07497284199712045,533462.000122197,51.54817614781921,185063.00012159348,Hackney,Music venues (all),E09000012,11/27/2022
Hackney,www.vortexjazz.co.uk,Vortex,10091818908,E09000012,11 Gillett Square,Hackney,,Dalston,E05009370,-0.07506843545192074,533455.000122197,51.54830362665583,185077.00012159348,Hackney,Music venues (all),E09000012,11/27/2022
Hackney,,Ray's Bar,100000000000,E09000012,95 Kingsland High Street,Hackney,,Dalston,E05009370,-0.0739770454732097,533529.000122197,51.54887029464288,185142.00012159348,Hackney,Music venues (all),E09000012,11/27/2022
Hackney,www.stjohnathackney.org,St. John-At-Hackney Church,10091775145,E09000012,St. John At Hackney Church Lower Clapton Road,Hackney,,Homerton,E05009376,-0.05172650896965321,535072.000122197,51.54869171235697,185163.00012159348,Hackney,Music venues (all),E09000012,11/27/2022
Hackney,,Club Makossa,100000000000,E09000012,113 Kingsland High Street,Hackney,,Dalston,E05009370,-0.07399409665181607,533526.000122197,51.54949113159137,185211.00012159348,Hackney,Music venues (all),E09000012,11/27/2022
Hackney,www.dalstonsuperstore.com,Dalston Superstore,100000000000,E09000012,117 Kingsland High Street,Hackney,,Dalston,E05009370,-0.07397891098948409,533526.000122197,51.54985062541052,185251.00012159348,Hackney,Music venues (all),E09000012,11/27/2022
Hackney,www.chatspalace.com,Chats Palace Arts Centre,100000000000,E09000012,42-44 Brooksby's Walk,Hackney,,King's Park,E05009379,-0.04109267759312956,535806.000122197,51.549755731621914,185301.00012159348,Hackney,Music venues (all),E09000012,11/27/2022
Hackney,,Epic Dalston Events Hall,100000000000,E09000012,13 Stoke Newington Road,Hackney,,Shacklewell,E05009382,-0.07406272598364429,533518.000122197,51.55059846851262,185334.00012159348,Hackney,Music venues (all),E09000012,11/27/2022
Hackney,,Efes Snooker Club,100000000000,E09000012,17 Stoke Newington Road,Hackney,,Shacklewell,E05009382,-0.07377327129733553,533538.000122197,51.55062069655895,185337.00012159348,Hackney,Music venues (all),E09000012,11/27/2022
Hackney,,Tipsy,100000000000,E09000012,20 Stoke Newington Road,Hackney,,Shacklewell,E05009382,-0.07313593830814767,533582.000122197,51.55068217801121,185345.00012159348,Hackney,Music venues (all),E09000012,11/27/2022
Hackney,,L'atelier Dalston,100000000000,E09000012,31 Stoke Newington Road,Hackney,,Shacklewell,E05009382,-0.07379183852374699,533535.000122197,51.551205583971715,185402.00012159348,Hackney,Music venues (all),E09000012,11/27/2022
Hackney,,Bardens Boudoir,10008237669,E09000012,36-38 Stoke Newington Road,Hackney,,Shacklewell,E05009382,-0.07312490572258358,533581.000122197,51.55128456651762,185412.00012159348,Hackney,Music venues (all),E09000012,11/27/2022
Hackney,www.moustachebar.co.uk/,Moustache Bar,100000000000,E09000012,58 Stoke Newington Road,Hackney,,Shacklewell,E05009382,-0.07305658776525849,533584.000122197,51.55187702040152,185478.00012159348,Hackney,Music venues (all),E09000012,11/27/2022
Hackney,,Vfd,100000000000,E09000012,66 Stoke Newington Road,Hackney,,Shacklewell,E05009382,-0.07303609384092623,533585.000122197,51.552020580983154,185494.00012159348,Hackney,Music venues (all),E09000012,11/27/2022
Hackney,www.shacklewellarms.com,Shacklewell Arms,10091775225,E09000012,71 Shacklewell Lane,Hackney,,Shacklewell,E05009382,-0.06987856532439668,533804.000122197,51.551977663992375,185495.00012159348,Hackney,Music venues (all),E09000012,11/27/2022
Hackney,,The Round Chapel,10008322921,E09000012,1d Glenarm Road,Hackney,,Lea Bridge,E05009380,-0.05008418051188859,535177.000122197,51.551677281650605,185498.00012159348,Hackney,Music venues (all),E09000012,11/27/2022
Hackney,www.rubysdalston.com,Rubys Bar,100000000000,E09000012,76 Stoke Newington Road,Hackney,,Shacklewell,E05009382,-0.07301218096680338,533586.000122197,51.55224502758463,185519.00012159348,Hackney,Music venues (all),E09000012,11/27/2022
Hackney,www.starbyhackneydowns.co.uk/,Star By Hackney Downs,100000000000,E09000012,35 Queensdown Road,Hackney,,Hackney Downs,E05009373,-0.05614189700522211,534754.000122197,51.55272214795686,185603.00012159348,Hackney,Music venues (all),E09000012,11/27/2022
Hackney,,Biddle Bros,100000000000,E09000012,88 Lower Clapton Road,Hackney,,Lea Bridge,E05009380,-0.05125247755008374,535093.000122197,51.55269498590298,185609.00012159348,Hackney,Music venues (all),E09000012,11/27/2022
Hackney,,Elderfield,100000000000,E09000012,57 Elderfield Road,Hackney,,Lea Bridge,E05009380,-0.04548692415996281,535492.000122197,51.55291383994278,185644.00012159348,Hackney,Music venues (all),E09000012,11/27/2022
Hackney,www.barabar.info/,Bar A Bar,100000000000,E09000012,133-135 Stoke Newington Road,Hackney,,Stoke Newington,E05009385,-0.07325138778768504,533559.000122197,51.555801418413424,185914.00012159348,Hackney,Music venues (all),E09000012,11/27/2022
Hackney,,Blondies,100000000000,E09000012,205 Lower Clapton Road,Hackney,,Hackney Downs,E05009373,-0.05441265789387804,534864.000122197,51.55605708516568,185977.00012159348,Hackney,Music venues (all),E09000012,11/27/2022
Hackney,,The Huddleston Centre,10008300353,E09000012,30 Powell Road,Hackney,,Hackney Downs,E05009373,-0.055206302956799055,534806.000122197,51.557068533877846,186088.00012159348,Hackney,Music venues (all),E09000012,11/27/2022
Hackney,www.claptonhart.com,Clapton Hart,100000000000,E09000012,231 Lower Clapton Road,Hackney,,Hackney Downs,E05009373,-0.05462039102374177,534846.000122197,51.55727466525121,186112.00012159348,Hackney,Music venues (all),E09000012,11/27/2022
Hackney,www.whitehartstokenewington.com,The White Hart,100000000000,E09000012,69 Stoke Newington High Street,Hackney,,Stoke Newington,E05009385,-0.07290254595951,533575.000122197,51.55859268858937,186225.00012159348,Hackney,Music venues (all),E09000012,11/27/2022
Hackney,,The Old Church,10008252145,E09000012,Hackney ,,,Clissold,E05009369,-0.08228763477340678,532919.000122197,51.560491231687436,186419.00012159348,Hackney,Music venues (all),E09000012,11/27/2022
Hackney,www.theothers.uk.com,The Others,0,E09000012,6-8 Manor Rd Stoke Newington,London,,Stamford Hill West,E05009384,-0.07306416154178678,533544.000122197,51.56534950926789,186976.00012159348,Hackney,Music venues (all),E09000012,11/27/2022
Hackney,www.waitingroomn16.com,The Waiting Room,100000000000,E09000012,175 Stoke Newington High Street,Hackney,,Stoke Newington,E05009385,-0.07224325125714293,533612.000122197,51.561558727065844,186556.00012159348,Hackney,Music venues (all),E09000012,11/27/2022
Hackney,,Three Crowns,100000000000,E09000012,175 Stoke Newington High Street,Hackney,,Stoke Newington,E05009385,-0.07224325125714293,533612.000122197,51.561558727065844,186556.00012159348,Hackney,Music venues (all),E09000012,11/27/2022
Hackney,www.theclarence.london,The Clarence,100000000000,E09000012,102 Stoke Newington Church Stre,Hackney,,Stoke Newington,E05009385,-0.07739549136221603,533254.000122197,51.561877109243085,186582.00012159348,Hackney,Music venues (all),E09000012,11/27/2022
Hackney,www.princessofwalesclapton.co.uk,Princess Of Wales,100000000000,E09000012,146 Lea Bridge Road,Hackney,,Lea Bridge,E05009380,-0.04417107437289088,535558.000122197,51.5613908645682,186589.00012159348,Hackney,Music venues (all),E09000012,11/27/2022
Hackney,www.thefinsbury.co.uk,The Finsbury,100000000000,E09000012,336 Green Lanes,Hackney,,Woodberry Down,E05009387,-0.0946860144896968,532028.000122197,51.5714405191787,187614.00012159348,Hackney,Music venues (all),E09000012,11/27/2022
HACKNEY,www.mothclub.co.uk,Moth Club,100023022302,E09000012,Hackney Trades Hall Valette Street,Hackney,,Homerton,E05009376,-0.05283064783338017,535006.0,51.545130588780204,184765.0,Hackney,Music venues (grassroots),E09000012,11/27/2022
,www.totalrefreshment.net,Total Refreshment Centre,,,2A Foulden Road,,,,,-0.07225141239405451,533629.8500000983,51.555276312536535,185857.43999949843,Hackney,Music venues (grassroots),E09000012,11/27/2022
,www.kansassmittys.com,Kansas Smitty's,,,63-65 Broadway Market,,,,,-0.05980619768391666,534546.9160105959,51.53681714136132,183827.77491239458,Hackney,Music venues (grassroots),E09000012,11/27/2022
,https://earthackney.co.uk/,EartH,,,11-17 Stoke Newington Rd,,,,,-0.07360592378311397,533550.4283712953,51.55033810861695,185305.88460149616,Hackney,Music venues (grassroots),E09000012,11/27/2022
,www.oslohackney.com,Oslo Hackney,,,1A Amhurst Rd,,,,,-0.05592561336907377,534784.3976081982,51.547510178925734,185023.8788675964,Hackney,Music venues (grassroots),E09000012,11/27/2022
,www.paperdressvintage.co.uk,Paper Dress Vintage,,,352 Mare Street,,,,,-0.05317855309188124,534976.7079809979,51.54687811387985,184958.66534599662,Hackney,Music venues (grassroots),E09000012,11/27/2022
Hackney,www.villageunderground.co.uk,Village Underground,10091784233,E09000012,54 Holywell Lane,Hackney,,Hoxton East & Shoreditch,E05009377,-0.07696676189701844,533397.000122197,51.52312571799864,182274.00012159348,Hackney,Music venues (grassroots),E09000012,11/27/2022
Hackney,www.theoldbluelast.com,The Old Blue Last,100000000000,E09000012,38 Great Eastern Street,Hackney,,Hoxton East & Shoreditch,E05009377,-0.07849246139367139,533289.000122197,51.523870213907244,182354.00012159348,Hackney,Music venues (grassroots),E09000012,11/27/2022
Hackney,http://www.strongroombar.com,Strongroom Bar And Kitchen,0,E09000012,120-124 Curtain Road,Hackney,,Hoxton East & Shoreditch,E05009377,-0.07853880643743791,533281.0280762985,51.52549931404215,182535.0554804951,Hackney,Music venues (grassroots),E09000012,11/27/2022
Hackney,www.cargo-london.com,Cargo,10091779809,E09000012,83 Rivington Street,Hackney,,Hoxton East & Shoreditch,E05009377,-0.07729146150190826,533366.000122197,51.526026983818866,182596.00012159348,Hackney,Music venues (grassroots),E09000012,11/27/2022
Hackney,www.roadtripbar.com,Roadtrip & The Workshop,100000000000,E09000012,243 Old Street,Hackney,,Hoxton West,E05009378,-0.08241885091100891,533010.000122197,51.526155897961516,182601.00012159348,Hackney,Music venues (grassroots),E09000012,11/27/2022
Hackney,www.hoxtonsquarebar.com,Hoxton Square Bar And Kitchen,10091942715,E09000012,2-4 Hoxton Square London,,,Hoxton East & Shoreditch,E05009377,-0.08042267516732579,533146.000122197,51.52699562251489,182698.00012159348,Hackney,Music venues (grassroots),E09000012,11/27/2022
Hackney,www.troybar.co.uk,Troy Bar,10008242403,E09000012,10 Hoxton Street,Hackney,,Hoxton East & Shoreditch,E05009377,-0.07838390454302402,533287.000122197,51.52713311442826,182717.00012159348,Hackney,Music venues (grassroots),E09000012,11/27/2022
Hackney,www.themacbeth.co.uk,The Macbeth,100000000000,E09000012,70 Hoxton Street,Hackney,,Hoxton East & Shoreditch,E05009377,-0.07843718351353993,533276.000122197,51.5296342088699,182995.00012159348,Hackney,Music venues (grassroots),E09000012,11/27/2022
Hackney,www.cafeoto.co.uk,Cafe Oto,10008319766,E09000012,The Print House 18-22 Ashwin St,London,,Dalston,E05009370,-0.0731414597238062,533594.000122197,51.54645528548556,184875.00012159348,Hackney,Music venues (grassroots),E09000012,11/27/2022
Hackney,www.servantjazzquarters.com,Servant Jazz Quarters,10008302207,E09000012,10 Bradbury Street,Hackney,,Dalston,E05009370,-0.07497284199712045,533462.000122197,51.54817614781921,185063.00012159348,Hackney,Music venues (grassroots),E09000012,11/27/2022
Hackney,www.vortexjazz.co.uk,Vortex,10091818908,E09000012,11 Gillett Square,Hackney,,Dalston,E05009370,-0.07506843545192074,533455.000122197,51.54830362665583,185077.00012159348,Hackney,Music venues (grassroots),E09000012,11/27/2022
Hackney,www.shacklewellarms.com,Shacklewell Arms,10091775225,E09000012,71 Shacklewell Lane,Hackney,,Shacklewell,E05009382,-0.06987856532439668,533804.000122197,51.551977663992375,185495.00012159348,Hackney,Music venues (grassroots),E09000012,11/27/2022
Hackney,www.waitingroomn16.com,The Waiting Room,100000000000,E09000012,175 Stoke Newington High Street,Hackney,,Stoke Newington,E05009385,-0.07224325125714293,533612.000122197,51.561558727065844,186556.00012159348,Hackney,Music venues (grassroots),E09000012,11/27/2022
Hackney,www.thefinsbury.co.uk,The Finsbury,100000000000,E09000012,336 Green Lanes,Hackney,,Woodberry Down,E05009387,-0.0946860144896968,532028.000122197,51.5714405191787,187614.00012159348,Hackney,Music venues (grassroots),E09000012,11/27/2022
Hackney,http://www.costumestudio.co.uk/,The Costume Studio,1.00023E+11,E09000012,Montgomery House,159-161  Balls Pond Road,,De Beauvoir,E05009371,-0.08076930562518082,533067.0001221001,51.545833870312386,184792.00012210011,Hackney,Prop and costume making,E09000012,11/27/2022
Hackney,,Blues Kitchen,,E09000012,134 Curtain Road,London,Shoreditch,Hoxton East & Shoreditch,E05009377,-0.07838609530625593,533290.0001221001,51.52605391772326,182597.00012210011,Hackney,Pubs,E09000012,11/27/2022
Hackney,,Boxbar,,E09000012,2-10 Bethnal Green Road,Shoreditch,,Hoxton East & Shoreditch,E05009377,-0.07472531813124417,533553.0001221001,51.522945045458776,182258.00012210011,Hackney,Pubs,E09000012,11/27/2022
Hackney,,Juno,,E09000012,134-135 Shoreditch High Street,London,Shoreditch,Hoxton East & Shoreditch,E05009377,-0.0766620530767302,533410.0001221001,51.52590874032673,182584.00012210011,Hackney,Pubs,E09000012,11/27/2022
Hackney,,Barrio East,,E09000012,141-143 Shoreditch High Street,London,Shoreditch,Hoxton East & Shoreditch,E05009377,-0.0766620530767302,533410.0001221001,51.52590874032673,182584.00012210011,Hackney,Pubs,E09000012,11/27/2022
Hackney,,Corner Shop,,E09000012,123 Shoreditch High Street,London,Shoreditch,Hoxton East & Shoreditch,E05009377,-0.0766620530767302,533410.0001221001,51.52590874032673,182584.00012210011,Hackney,Pubs,E09000012,11/27/2022
Hackney,,Dragon,,E09000012,138-139 Shoreditch High Street,London,Shoreditch,Hoxton East & Shoreditch,E05009377,-0.0766620530767302,533410.0001221001,51.52590874032673,182584.00012210011,Hackney,Pubs,E09000012,11/27/2022
Hackney,,Shoreditch,,E09000012,145 Shoreditch High Street,London,Shoreditch,Hoxton East & Shoreditch,E05009377,-0.0766620530767302,533410.0001221001,51.52590874032673,182584.00012210011,Hackney,Pubs,E09000012,11/27/2022
Hackney,,Momento Lounge Bar,,E09000012,23-24 Shoreditch High Street,London,Shoreditch,Hoxton East & Shoreditch,E05009377,-0.07610647067095945,533460.0001221001,51.52198740686901,182149.00012210011,Hackney,Pubs,E09000012,11/27/2022
Hackney,,Goose Island Brewpub,,E09000012,222 Shoreditch High Street,London,Shoreditch,Hoxton East & Shoreditch,E05009377,-0.07664217226469683,533423.0001221001,51.52193323834089,182142.00012210011,Hackney,Pubs,E09000012,11/27/2022
Hackney,,Crown & Shuttle,,E09000012,226 Shoreditch High Street,Spitalfields,,Hoxton East & Shoreditch,E05009377,-0.07664217226469683,533423.0001221001,51.52193323834089,182142.00012210011,Hackney,Pubs,E09000012,11/27/2022
Hackney,,Four Quarters East,,E09000012,"Unit 8 Canalside, East Bay Lane, Here East,Queen Elizabeth Park",Stratford,Stratford,Hackney Wick,E05009374,-0.02066975477096037,537230.0001221001,51.54701159367181,185034.00012210011,Hackney,Pubs,E09000012,11/27/2022
Hackney,,Spread Eagle,,E09000012,3 Kingsland Road,Bethnal Green,Haggerston,Hoxton East & Shoreditch,E05009377,-0.07659122850606032,533409.0001221001,51.527931140339405,182809.00012210011,Hackney,Pubs,E09000012,11/27/2022
Hackney,,Basing House,,E09000012,25 Kingsland Road,Bethnal Green,Haggerston,Hoxton East & Shoreditch,E05009377,-0.07659122850606032,533409.0001221001,51.527931140339405,182809.00012210011,Hackney,Pubs,E09000012,11/27/2022
Hackney,,Glory,,E09000012,281 Kingsland Road,Bethnal Green,Haggerston,Hoxton East & Shoreditch,E05009377,-0.07551484221763087,533462.0001221001,51.53533320429151,183634.00012210011,Hackney,Pubs,E09000012,11/27/2022
Hackney,,Old Shoreditch Station,,E09000012,1 Kingsland Road,Bethnal Green,Shoreditch,Hoxton East & Shoreditch,E05009377,-0.07621696227063704,533437.0001221001,51.527232494204554,182732.00012210011,Hackney,Pubs,E09000012,11/27/2022
Hackney,,Catch,,E09000012,22 Kingsland Road,Bethnal Green,Haggerston,Hoxton East & Shoreditch,E05009377,-0.07621696227063704,533437.0001221001,51.527232494204554,182732.00012210011,Hackney,Pubs,E09000012,11/27/2022
Hackney,,Troyganic,,E09000012,132 Kingsland Road,Bethnal Green,Haggerston,Haggerston,E05009375,-0.07555989180650395,533477.0001221001,51.52913735256938,182945.00012210011,Hackney,Pubs,E09000012,11/27/2022
Hackney,,Brewhouse & Kitchen,,E09000012,397-400 Geffrye Street,Bethnal Green,Haggerston,Haggerston,E05009375,-0.07377500339362326,533593.0001221001,51.531797139890784,183244.00012210011,Hackney,Pubs,E09000012,11/27/2022
Hackney,,Virgin Queen,,E09000012,94 Goldsmiths Row,Bethnal Green,Haggerston,Haggerston,E05009375,-0.0627067916727738,534357.0001221001,51.5330088520117,183399.00012210011,Hackney,Pubs,E09000012,11/27/2022
Hackney,,Glyn Arms,,E09000012,1 Mandeville Street,Clapton,London,King's Park,E05009379,-0.03724358276733479,536056.0001221001,51.555393344591344,185935.00012210011,Hackney,Pubs,E09000012,11/27/2022
Hackney,,Elderfield,,E09000012,57 Elderfield Road,Clapton,London,Lea Bridge,E05009380,-0.04502845810962809,535523.0001221001,51.55317600850373,185674.00012210011,Hackney,Pubs,E09000012,11/27/2022
Hackney,,Elephants Head,,E09000012,43 Lower Clapton Road,Clapton,London,Homerton,E05009376,-0.05116379899789289,535106.0001221001,51.55038215655207,185352.00012210011,Hackney,Pubs,E09000012,11/27/2022
Hackney,,Biddle Bros. Builders Ltd.,,E09000012,88 Lower Clapton Road,Clapton,,Lea Bridge,E05009380,-0.051706705743268834,535060.0001221001,51.55320617256903,185665.00012210011,Hackney,Pubs,E09000012,11/27/2022
Hackney,,Brew Club Tap Room,,E09000012,"Unit 9, Tram Depot, 38-40 Upper Clapton Road",Clapton,London,Lea Bridge,E05009380,-0.0539087228411853,534889.0001221001,51.55941232965801,186351.00012210011,Hackney,Pubs,E09000012,11/27/2022
Hackney,,Mermaid,,E09000012,181 Clarence Road,Clapton,London,Hackney Downs,E05009373,-0.05468177477685026,534851.0001221001,51.554145912547185,185764.00012210011,Hackney,Pubs,E09000012,11/27/2022
Hackney,,Clapton Hart,,E09000012,231 Lower Clapton Road,Clapton,London,Hackney Downs,E05009373,-0.0544782238488335,534859.0001221001,51.556211063658935,185994.00012210011,Hackney,Pubs,E09000012,11/27/2022
Hackney,,Star By Hackney Downs,,E09000012,35 Queensdown Road,Clapton,London,Hackney Downs,E05009373,-0.056375958543526485,534735.0001221001,51.553661360212786,185707.00012210011,Hackney,Pubs,E09000012,11/27/2022
Hackney,,London Tavern,,E09000012,92 Rendlesham Road,Clapton,London,Hackney Downs,E05009373,-0.06150117299780436,534366.0001221001,51.5583239010409,186216.00012210011,Hackney,Pubs,E09000012,11/27/2022
Hackney,,Royal Sovereign,,E09000012,64 Northwold Road,Clapton,London,Hackney Downs,E05009373,-0.06084730750241491,534400.0001221001,51.5621623468428,186644.00012210011,Hackney,Pubs,E09000012,11/27/2022
Hackney,,Anchor & Hope,,E09000012,15 High Hill Ferry,Clapton,London,Springfield,E05009383,-0.0506689059188962,535090.0001221001,51.567353839642955,187240.00012210011,Hackney,Pubs,E09000012,11/27/2022
Hackney,,Crooked Billet,,E09000012,84 Upper Clapton Road,Clapton,London,Lea Bridge,E05009380,-0.055323799182111826,534787.0001221001,51.560739865867674,186496.00012210011,Hackney,Pubs,E09000012,11/27/2022
Hackney,,Princess Of Wales,,E09000012,146 Lea Bridge Road,Clapton,London,Lea Bridge,E05009380,-0.045178546133519154,535490.0001221001,51.56077810470233,186519.00012210011,Hackney,Pubs,E09000012,11/27/2022
Hackney,,Spurstowe Arms,,E09000012,68 Greenwood Road,Hackney,London,Hackney Central,E05009372,-0.061172150353306975,534431.0001221001,51.544009658623246,184625.00012210011,Hackney,Pubs,E09000012,11/27/2022
Hackney,,Experiment,,E09000012,19 Bohemia Place,Hackney,,Hackney Central,E05009372,-0.05174910599656864,535076.0001221001,51.54681242357705,184954.00012210011,Hackney,Pubs,E09000012,11/27/2022
Hackney,,Stage 3,,E09000012,289 Mare Street,Hackney,London,Hackney Central,E05009372,-0.053879630234876845,534932.0001221001,51.54556170440253,184811.00012210011,Hackney,Pubs,E09000012,11/27/2022
Hackney,,Cock Tavern,,E09000012,315 Mare Street,Hackney,London,Hackney Central,E05009372,-0.053879630234876845,534932.0001221001,51.54556170440253,184811.00012210011,Hackney,Pubs,E09000012,11/27/2022
Hackney,,Old Ship Inn,,E09000012,2 Sylvester Path,Hackney,London,Hackney Central,E05009372,-0.054434648384393575,534894.0001221001,51.54540003289453,184792.00012210011,Hackney,Pubs,E09000012,11/27/2022
Hackney,,Baxters Court,,E09000012,282-284 Mare Street,Hackney,London,Homerton,E05009376,-0.05336121934246656,534971.0001221001,51.54452783072845,184697.00012210011,Hackney,Pubs,E09000012,11/27/2022
Hackney,,Hackney Picturehouse,,E09000012,270 Mare Street,Hackney,London,Homerton,E05009376,-0.05336121934246656,534971.0001221001,51.54452783072845,184697.00012210011,Hackney,Pubs,E09000012,11/27/2022
Hackney,,Flynn's,,E09000012,418 Mare Street,Hackney,London,Hackney Central,E05009372,-0.05317935404616364,534971.0001221001,51.54878778254993,185171.00012210011,Hackney,Pubs,E09000012,11/27/2022
Hackney,,Pembury Tavern,,E09000012,90 Amhurst Road,Hackney,London,Hackney Central,E05009372,-0.05653183270855106,534740.0001221001,51.54831275195789,185112.00012210011,Hackney,Pubs,E09000012,11/27/2022
Hackney,,Oslo,,E09000012,1a Amhurst Road,Hackney,London,Hackney Central,E05009372,-0.05583345948133155,534791.0001221001,51.547437793275265,185016.00012210011,Hackney,Pubs,E09000012,11/27/2022
Hackney,,Three Compasses,,E09000012,99 Dalston Lane,Hackney,Dalston,Dalston,E05009370,-0.06631592737150709,534063.0001221001,51.54788087031052,185046.00012210011,Hackney,Pubs,E09000012,11/27/2022
Hackney,,Hand of Glory,,E09000012,240 Amhurst Road,Hackney,London,Shacklewell,E05009382,-0.06655152654428487,534030.0001221001,51.55355071320505,185676.00012210011,Hackney,Pubs,E09000012,11/27/2022
Hackney,,Autumn Yard,,E09000012,17 Amhurst Terrace,Hackney,London,Shacklewell,E05009382,-0.06552626902292244,534099.0001221001,51.55425329718792,185756.00012210011,Hackney,Pubs,E09000012,11/27/2022
Hackney,,Brewers Bar,,E09000012,77 Shacklewell Lane,Hackney,Dalston,Shacklewell,E05009382,-0.06884017005872915,533875.0001221001,51.55231132360858,185534.00012210011,Hackney,Pubs,E09000012,11/27/2022
Hackney,,Shacklewell Arms,,E09000012,71 Shacklewell Lane,Hackney,Shacklewell,Shacklewell,E05009382,-0.06884017005872915,533875.0001221001,51.55231132360858,185534.00012210011,Hackney,Pubs,E09000012,11/27/2022
Hackney,,Kingsland,,E09000012,37 Kingsland High Street,Hackney,Dalston,Dalston,E05009370,-0.07419560524833695,533520.0001221001,51.54676938504315,184908.00012210011,Hackney,Pubs,E09000012,11/27/2022
Hackney,,Alibi,,E09000012,91 Kingsland High Street,Hackney,Dalston,Dalston,E05009370,-0.07395883387588312,533530.0001221001,51.54895993142524,185152.00012210011,Hackney,Pubs,E09000012,11/27/2022
Hackney,,Dalston Superstore,,E09000012,117 Kingsland High Street,Hackney,Dalston,Dalston,E05009370,-0.07395883387588312,533530.0001221001,51.54895993142524,185152.00012210011,Hackney,Pubs,E09000012,11/27/2022
Hackney,,Prince George,,E09000012,40 Parkholme Road,Hackney,Dalston,Dalston,E05009370,-0.06703811704860371,534024.0001221001,51.544115464459644,184626.00012210011,Hackney,Pubs,E09000012,11/27/2022
Hackney,,Victoria,,E09000012,451 Queensbridge Road,Hackney,Dalston,Dalston,E05009370,-0.06861753234901315,533914.0001221001,51.5442853785213,184642.00012210011,Hackney,Pubs,E09000012,11/27/2022
Hackney,,Farr's school of Dancing,,E09000012,17-19 Dalston Lane,Hackney,Dalston,Dalston,E05009370,-0.07170916256939136,533695.0001221001,51.54587414656068,184813.00012210011,Hackney,Pubs,E09000012,11/27/2022
Hackney,,Dalston Eastern Curve Garden Cafe,,E09000012,13 Dalston Lane,Hackney,Dalston,Dalston,E05009370,-0.07170916256939136,533695.0001221001,51.54587414656068,184813.00012210011,Hackney,Pubs,E09000012,11/27/2022
Hackney,,40ft Brewery Tap,,E09000012,18a Ashwin Street,Hackney,Dalston,Dalston,E05009370,-0.07374155236392907,533552.0001221001,51.546591051624326,184889.00012210011,Hackney,Pubs,E09000012,11/27/2022
Hackney,,Arcola Bar,,E09000012,24 Ashwin St,Hackney,Dalston,Dalston,E05009370,-0.07374155236392907,533552.0001221001,51.546591051624326,184889.00012210011,Hackney,Pubs,E09000012,11/27/2022
Hackney,,Cafe Oto,,E09000012,18-22 Ashwin St,Hackney,Dalston,Dalston,E05009370,-0.07374155236392907,533552.0001221001,51.546591051624326,184889.00012210011,Hackney,Pubs,E09000012,11/27/2022
Hackney,,Duke of Richmond,,E09000012,316 Queensbridge Road,Hackney,London Fields,London Fields,E05009381,-0.06808503492087171,533959.0001221001,51.54153356296158,184337.00012210011,Hackney,Pubs,E09000012,11/27/2022
Hackney,,Heart of Hackney,,E09000012,255 Mare Street,Hackney,London Fields,London Fields,E05009381,-0.05399347001918643,534934.0001221001,51.54221796990799,184439.00012210011,Hackney,Pubs,E09000012,11/27/2022
Hackney,,Pub On The Park,,E09000012,19 Martello Street,Hackney,London Fields,London Fields,E05009381,-0.05652827713042544,534761.0001221001,51.54128868647367,184331.00012210011,Hackney,Pubs,E09000012,11/27/2022
Hackney,,Dolphin,,E09000012,165 Mare Street,Hackney,London,London Fields,E05009381,-0.05499737604575854,534874.0001221001,51.53896993913541,184076.00012210011,Hackney,Pubs,E09000012,11/27/2022
Hackney,,Martello Hall,,E09000012,137 Mare Street,Hackney,London Fields,London Fields,E05009381,-0.05499737604575854,534874.0001221001,51.53896993913541,184076.00012210011,Hackney,Pubs,E09000012,11/27/2022
Hackney,,Forest Road Brewery Taproom,,E09000012,1348 Netil Road,South Hackney,,London Fields,E05009381,-0.05741785090666784,534712.0001221001,51.53699548189447,183852.00012210011,Hackney,Pubs,E09000012,11/27/2022
Hackney,,Netil 360,,E09000012,1 Westgate Street,South Hackney,,London Fields,E05009381,-0.05741785090666784,534712.0001221001,51.53699548189447,183852.00012210011,Hackney,Pubs,E09000012,11/27/2022
Hackney,,London Fields Brewery tap room,,E09000012,365-366 Warburton Street,Hackney,London,London Fields,E05009381,-0.05678640293548791,534753.0001221001,51.53793834540595,183958.00012210011,Hackney,Pubs,E09000012,11/27/2022
Hackney,,Haggerston,,E09000012,438 Kingsland Road,Hackney,London,London Fields,E05009381,-0.07435200740625499,533526.0001221001,51.54101605748869,184268.00012210011,Hackney,Pubs,E09000012,11/27/2022
Hackney,,Worker's Cafe,,E09000012,404 Kingsland Road,Dalston,,London Fields,E05009381,-0.07435200740625499,533526.0001221001,51.54101605748869,184268.00012210011,Hackney,Pubs,E09000012,11/27/2022
Hackney,,Beer & Burger Store,,E09000012,464 Kingsland Road,Hackney,,London Fields,E05009381,-0.07426132025013618,533527.0001221001,51.54282228003727,184469.00012210011,Hackney,Pubs,E09000012,11/27/2022
Hackney,,Junction House,,E09000012,578 Kingsland Road,Hackney,Dalston,Dalston,E05009370,-0.07392217152324965,533545.0001221001,51.54470536480519,184679.00012210011,Hackney,Pubs,E09000012,11/27/2022
Hackney,,Molly Bloom's,,E09000012,525 Kingsland Road,Hackney,London,De Beauvoir,E05009371,-0.07451237740579328,533503.0001221001,51.5450747980121,184719.00012210011,Hackney,Pubs,E09000012,11/27/2022
Hackney,,MAP Maison,,E09000012,321 Kingsland Road,Hackney,London,Haggerston,E05009375,-0.07539729755349006,533462.0001221001,51.538119289952384,183944.00012210011,Hackney,Pubs,E09000012,11/27/2022
Hackney,,Draughts,,E09000012,337 Acton Mews,Hackney,-,Haggerston,E05009375,-0.07377639012337044,533579.0001221001,51.536545783562595,183772.00012210011,Hackney,Pubs,E09000012,11/27/2022
Hackney,,Signature Brew Taproom & venue,,E09000012,"Railway Arch 340, Acton Mews, Haggerston",Haggerston,,Haggerston,E05009375,-0.07377639012337044,533579.0001221001,51.536545783562595,183772.00012210011,Hackney,Pubs,E09000012,11/27/2022
Hackney,,Duke Of Wellington,,E09000012,260 Haggerston Road,Hackney,London,London Fields,E05009381,-0.07301054810067974,533623.0001221001,51.539653981700866,184119.00012210011,Hackney,Pubs,E09000012,11/27/2022
Hackney,,Off Broadway,,E09000012,63-65 Broadway Market,Hackney,,London Fields,E05009381,-0.06029090196190096,534515.0001221001,51.53624259879859,183763.00012210011,Hackney,Pubs,E09000012,11/27/2022
Hackney,,Dove Free House & Kitchen,,E09000012,24-28 Broadway Market,Hackney,London,London Fields,E05009381,-0.05999514814424684,534536.0001221001,51.53607582229766,183745.00012210011,Hackney,Pubs,E09000012,11/27/2022
Hackney,,Market Cafe,,E09000012,2 Broadway Market,Hackney,London,London Fields,E05009381,-0.05999514814424684,534536.0001221001,51.53607582229766,183745.00012210011,Hackney,Pubs,E09000012,11/27/2022
Hackney,,Cat & Mutton,,E09000012,76 Broadway Market,Hackney,London,London Fields,E05009381,-0.05999514814424684,534536.0001221001,51.53607582229766,183745.00012210011,Hackney,Pubs,E09000012,11/27/2022
Hackney,,Prince Edward,,E09000012,97 Wick Road,Homerton,London,Homerton,E05009376,-0.04033427916012483,535873.0001221001,51.54491348891988,184764.00012210011,Hackney,Pubs,E09000012,11/27/2022
Hackney,,Eagle,,E09000012,103 Wick Road,Homerton,London,Hackney Wick,E05009374,-0.03864826449325931,535990.0001221001,51.54487631533795,184763.00012210011,Hackney,Pubs,E09000012,11/27/2022
Hackney,,Tiger,,E09000012,245 Wick Lane,Homerton,London,Hackney Wick,E05009374,-0.0336182930755467,536339.0001221001,51.54478310688925,184762.00012210011,Hackney,Pubs,E09000012,11/27/2022
Hackney,,Beer Merchants Tap,,E09000012,99 Wallis Road,Hackney Wick,,Hackney Wick,E05009374,-0.021137394401544402,537207.0001221001,51.54388070047827,184685.00012210011,Hackney,Pubs,E09000012,11/27/2022
Hackney,,Hackney Pearl,,E09000012,11 Prince Edward Road,Homerton,Hackney Wick,Hackney Wick,E05009374,-0.024559558399324263,536970.0001221001,51.543794486400074,184669.00012210011,Hackney,Pubs,E09000012,11/27/2022
Hackney,,Spread Eagle,,E09000012,224 Homerton High Street,Homerton,London,King's Park,E05009379,-0.038958772336224905,535958.0001221001,51.54838902077185,185153.00012210011,Hackney,Pubs,E09000012,11/27/2022
Hackney,,Adam & Eve,,E09000012,155 Homerton High Street,Homerton,London,King's Park,E05009379,-0.038958772336224905,535958.0001221001,51.54838902077185,185153.00012210011,Hackney,Pubs,E09000012,11/27/2022
Hackney,,Chesham Arms,,E09000012,15 Mehetabel Road,Homerton,London,Homerton,E05009376,-0.04886718596034272,535275.0001221001,51.547079298487596,184989.00012210011,Hackney,Pubs,E09000012,11/27/2022
Hackney,,Globe,,E09000012,20 Morning Lane,Homerton,London,Homerton,E05009376,-0.05218491953572875,535050.0001221001,51.54538967727345,184795.00012210011,Hackney,Pubs,E09000012,11/27/2022
Hackney,,Gun,,E09000012,235 Well Street,Homerton,London,Homerton,E05009376,-0.04531979315812169,535530.0001221001,51.54402536359865,184656.00012210011,Hackney,Pubs,E09000012,11/27/2022
Hackney,,Machine No.3,,E09000012,271 Well Street,Homerton,,Homerton,E05009376,-0.04531979315812169,535530.0001221001,51.54402536359865,184656.00012210011,Hackney,Pubs,E09000012,11/27/2022
Hackney,,Kenton,,E09000012,38 Kenton Road,Homerton,London,Hackney Wick,E05009374,-0.04253231789822773,535725.0001221001,51.543439261536264,184596.00012210011,Hackney,Pubs,E09000012,11/27/2022
Hackney,,People's Park Tavern,,E09000012,360 Victoria Park Road,Homerton,London,Victoria,E05009386,-0.03885264431256084,535994.0001221001,51.5387820502795,184085.00012210011,Hackney,Pubs,E09000012,11/27/2022
Hackney,,Hector & Noble,,E09000012,233-235 Victoria Park Road,Homerton,London,Victoria,E05009386,-0.042177103683805325,535766.0001221001,51.53793822561302,183985.00012210011,Hackney,Pubs,E09000012,11/27/2022
Hackney,,Royal Inn On The Park,,E09000012,Lauriston Road,Homerton,London,Victoria,E05009386,-0.042670523894646206,535735.0001221001,51.53685823112467,183864.00012210011,Hackney,Pubs,E09000012,11/27/2022
Hackney,,Hemingway,,E09000012,84 Victoria Park Road,Homerton,London,Victoria,E05009386,-0.04598355900559094,535505.0001221001,51.53694944647559,183868.00012210011,Hackney,Pubs,E09000012,11/27/2022
Hackney,,Lauriston,,E09000012,162 Victoria Park Road,Homerton,London,Victoria,E05009386,-0.044459748609797414,535609.0001221001,51.537508636463144,183933.00012210011,Hackney,Pubs,E09000012,11/27/2022
Hackney,,Empress,,E09000012,130 Lauriston Road,Homerton,London,Victoria,E05009386,-0.04330176981957804,535692.0001221001,51.53659895460809,183834.00012210011,Hackney,Pubs,E09000012,11/27/2022
Hackney,,Reliance,,E09000012,336 Old Street,London,Finsbury,Hoxton East & Shoreditch,E05009377,-0.07999942182603566,533178.0001221001,51.526089333991294,182598.00012210011,Hackney,Pubs,E09000012,11/27/2022
Hackney,,Road Trip Bar,,E09000012,243 Old Street,London,Finsbury,Hoxton West,E05009378,-0.08270890162695077,532990.0001221001,51.52611567199562,182596.00012210011,Hackney,Pubs,E09000012,11/27/2022
Hackney,,Craft Beer Co,,E09000012,233 Old Street,London,Finsbury,Hoxton West,E05009378,-0.08468877761678818,532854.0001221001,51.52566236745431,182542.00012210011,Hackney,Pubs,E09000012,11/27/2022
Hackney,,London Apprentice,,E09000012,333 Old Street,London,Finsbury,Hoxton East & Shoreditch,E05009377,-0.07907052646569057,533241.0001221001,51.52657776534311,182654.00012210011,Hackney,Pubs,E09000012,11/27/2022
Hackney,,All Bar One,,E09000012,18-20 Appold Street,London,Shoreditch,Hoxton East & Shoreditch,E05009377,-0.08164549403596806,533083.0001221001,51.51951496301661,181864.00012210011,Hackney,Pubs,E09000012,11/27/2022
Hackney,,Allegory,,E09000012,"1A Principal Place, Worship Street",London,Shoreditch,Hoxton East & Shoreditch,E05009377,-0.07894151701240343,533265.0001221001,51.52142231492661,182081.00012210011,Hackney,Pubs,E09000012,11/27/2022
Hackney,,London Cocktail Club,,E09000012,63 Worship Street,London,Shoreditch,Hoxton East & Shoreditch,E05009377,-0.08256254951954858,533013.0001221001,51.521706413542574,182106.00012210011,Hackney,Pubs,E09000012,11/27/2022
Hackney,,Flying Horse,,E09000012,52 Wilson Street,London,Shoreditch,Hoxton East & Shoreditch,E05009377,-0.0833849167790501,532961.0001221001,51.51997509627092,181912.00012210011,Hackney,Pubs,E09000012,11/27/2022
Hackney,,Hoxton Pony,,E09000012,104-108 Curtain Road,London,Shoreditch,Hoxton East & Shoreditch,E05009377,-0.0784849767394213,533286.0001221001,51.52507523472928,182488.00012210011,Hackney,Pubs,E09000012,11/27/2022
Hackney,,Cargo,,E09000012,83 Rivington Street,London,Shoreditch,Hoxton East & Shoreditch,E05009377,-0.07745485246231444,533356.0001221001,51.52557098836974,182545.00012210011,Hackney,Pubs,E09000012,11/27/2022
Hackney,,Barley Mow,,E09000012,127 Curtain Road,London,Shoreditch,Hoxton East & Shoreditch,E05009377,-0.0790495914217979,533245.0001221001,51.52570504278007,182557.00012210011,Hackney,Pubs,E09000012,11/27/2022
Hackney,,Rivington Bar Grill,,E09000012,28-30 Rivington Street,London,Shoreditch,Hoxton East & Shoreditch,E05009377,-0.08033185934106586,533157.0001221001,51.52538428110277,182519.00012210011,Hackney,Pubs,E09000012,11/27/2022
Hackney,,Old Blue Last,,E09000012,38 Great Eastern Street,London,Shoreditch,Hoxton East & Shoreditch,E05009377,-0.07840942291332725,533295.0001221001,51.52378791089887,182345.00012210011,Hackney,Pubs,E09000012,11/27/2022
Hackney,,Hoxton Grill,,E09000012,81 Great Eastern Street,London,Shoreditch,Hoxton East & Shoreditch,E05009377,-0.08107530596957617,533107.0001221001,51.524847837736765,182458.00012210011,Hackney,Pubs,E09000012,11/27/2022
Hackney,,Queen of Hoxton,,E09000012,1-5 Curtain Road,London,Shoreditch,Hoxton East & Shoreditch,E05009377,-0.07957620091801097,533220.0001221001,51.52175647963675,182117.00012210011,Hackney,Pubs,E09000012,11/27/2022
Hackney,,Merchants Tavern,,E09000012,35-42 Charlotte Road,London,Shoreditch,Hoxton East & Shoreditch,E05009377,-0.07935473809800465,533226.0001221001,51.52496357112267,182474.00012210011,Hackney,Pubs,E09000012,11/27/2022
Hackney,,Bricklayer's Arms,,E09000012,63 Charlotte Road,London,Shoreditch,Hoxton East & Shoreditch,E05009377,-0.0795356799961355,533211.0001221001,51.52580293947619,182567.00012210011,Hackney,Pubs,E09000012,11/27/2022
Hackney,,Strongroom Bar & Kitchen,,E09000012,120-124 Curtain Road,London,Shoreditch,Hoxton East & Shoreditch,E05009377,-0.07853923014708768,533281.0001221001,51.52549882311234,182535.00012210011,Hackney,Pubs,E09000012,11/27/2022
Hackney,,Old Kings Head,,E09000012,28 Holywell Row,London,Shoreditch,Hoxton East & Shoreditch,E05009377,-0.08073071910756066,533138.0001221001,51.52241392544954,182188.00012210011,Hackney,Pubs,E09000012,11/27/2022
Hackney,,Blueberry Bar & Kitchen,,E09000012,2-4 Paul Street,London,Shoreditch,Hoxton East & Shoreditch,E05009377,-0.0824594949617733,533019.0001221001,51.5221004472887,182150.00012210011,Hackney,Pubs,E09000012,11/27/2022
Hackney,,Fox,,E09000012,28 Paul Street,London,Shoreditch,Hoxton East & Shoreditch,E05009377,-0.08235277650303723,533023.0001221001,51.523267871086105,182280.00012210011,Hackney,Pubs,E09000012,11/27/2022
Hackney,,Princess,,E09000012,76 Paul Street,London,Shoreditch,Hoxton East & Shoreditch,E05009377,-0.08201601658255396,533041.0001221001,51.525106053008635,182485.00012210011,Hackney,Pubs,E09000012,11/27/2022
Hackney,,Griffin,,E09000012,93 Leonard Street,London,Shoreditch,Hoxton East & Shoreditch,E05009377,-0.08041893591542261,533154.0001221001,51.524342448172774,182403.00012210011,Hackney,Pubs,E09000012,11/27/2022
Hackney,,Book Club,,E09000012,100106 Leonard Street ,London,Shoreditch,Hoxton East & Shoreditch,E05009377,-0.08010079572967072,533177.0001221001,51.524022464354,182368.00012210011,Hackney,Pubs,E09000012,11/27/2022
Hackney,,Hunter S,,E09000012,194 Southgate Road,London,Essex Road,De Beauvoir,E05009371,-0.08192089140675513,532988.0001221001,51.5455469249467,184758.00012210011,Hackney,Pubs,E09000012,11/27/2022
Hackney,,Duke Of Wellington,,E09000012,119 Balls Pond Road,London,Kingsland,De Beauvoir,E05009371,-0.0784228016955419,533230.0001221001,51.545723505528954,184784.00012210011,Hackney,Pubs,E09000012,11/27/2022
Hackney,,Scolt Head,,E09000012,107a Culford Road,London,Kingsland,De Beauvoir,E05009371,-0.08056101778647476,533092.0001221001,51.5422150435673,184390.00012210011,Hackney,Pubs,E09000012,11/27/2022
Hackney,,Talbot,,E09000012,109 Mortimer Road,London,Kingsland,De Beauvoir,E05009371,-0.07761088208554573,533296.0001221001,51.54240056388257,184416.00012210011,Hackney,Pubs,E09000012,11/27/2022
Hackney,,Beef & Brew,,E09000012,33 Downham Road,London,De Beauvoir Town,De Beauvoir,E05009371,-0.07620816000195005,533405.0001221001,51.5383844127639,183972.00012210011,Hackney,Pubs,E09000012,11/27/2022
Hackney,,Howl At The Moon,,E09000012,178 Hoxton Street,London,Hoxton,Hoxton East & Shoreditch,E05009377,-0.07830204895012013,533276.0001221001,51.53284270956146,183352.00012210011,Hackney,Pubs,E09000012,11/27/2022
Hackney,,Stags Head,,E09000012,55 Orsman Road,London,De Beauvoir Town,Hoxton East & Shoreditch,E05009377,-0.07717477281236829,533346.0001221001,51.53563922991375,183665.00012210011,Hackney,Pubs,E09000012,11/27/2022
Hackney,,Barge House,,E09000012,46 De Beauvoir Crescent,London,De Beauvoir Town,De Beauvoir,E05009371,-0.07926296214175095,533198.0001221001,51.53673468814715,183783.00012210011,Hackney,Pubs,E09000012,11/27/2022
Hackney,,Prince,,E09000012,59 Kynaston Road,Stoke Newington,London,Stoke Newington,E05009385,-0.0767738867318422,533304.0001221001,51.559510607739426,186320.00012210011,Hackney,Pubs,E09000012,11/27/2022
Hackney,,Red Lion,,E09000012,132 Stoke Newington Church Street,Stoke Newington,London,Stoke Newington,E05009385,-0.07884500693528278,533154.0001221001,51.56172098419162,186562.00012210011,Hackney,Pubs,E09000012,11/27/2022
Hackney,,Clarence Tavern,,E09000012,102 Stoke Newington Church Street,Stoke Newington,London,Stoke Newington,E05009385,-0.07752981505946883,533245.0001221001,51.56177138780608,186570.00012210011,Hackney,Pubs,E09000012,11/27/2022
Hackney,,Three Crowns,,E09000012,175 Stoke Newington High Street,Stoke Newington,London,Stoke Newington,E05009385,-0.07217794422856783,533615.0001221001,51.56207928064695,186614.00012210011,Hackney,Pubs,E09000012,11/27/2022
Hackney,,Rochester Castle,,E09000012,143-145 Stoke Newington High Street,Stoke Newington,London,Stoke Newington,E05009385,-0.07262085871838031,533588.0001221001,51.56081846552978,186473.00012210011,Hackney,Pubs,E09000012,11/27/2022
Hackney,,Londesborough,,E09000012,36 Barbauld Road,Stoke Newington,London,Clissold,E05009369,-0.07965854176233571,533111.0001221001,51.55713859523423,186051.00012210011,Hackney,Pubs,E09000012,11/27/2022
Hackney,,Auld Shillelagh,,E09000012,105 Stoke Newington Church Street,Stoke Newington,London,Stoke Newington,E05009385,-0.07793354044084112,533218.0001221001,51.56143624781265,186532.00012210011,Hackney,Pubs,E09000012,11/27/2022
Hackney,,Ryan's N16,,E09000012,181 Stoke Newington Church Street,Stoke Newington,London,Clissold,E05009369,-0.08117056326482729,532996.0001221001,51.560634849916596,186437.00012210011,Hackney,Pubs,E09000012,11/27/2022
Hackney,,Turnpike House,,E09000012,270 Stamford Hill,Stoke Newington,Stamford Hill,Springfield,E05009383,-0.07035312532045838,533705.0001221001,51.57450535723203,187999.00012210011,Hackney,Pubs,E09000012,11/27/2022
Hackney,,Wheatsheaf,,E09000012,6 Windus Road,Stoke Newington,Stamford Hill,Cazenove,E05009368,-0.06960250075624595,533784.0001221001,51.565310588408416,186978.00012210011,Hackney,Pubs,E09000012,11/27/2022
Hackney,,Birdcage,,E09000012,58 Stamford Hill,Stoke Newington,Stamford Hill,Cazenove,E05009368,-0.07104253050781259,533681.0001221001,51.56640450787222,187097.00012210011,Hackney,Pubs,E09000012,11/27/2022
Hackney,,Mascara,,E09000012,72 Stamford Hill,Stoke Newington,Stamford Hill,Cazenove,E05009368,-0.07104253050781259,533681.0001221001,51.56640450787222,187097.00012210011,Hackney,Pubs,E09000012,11/27/2022
Hackney,,Axe,,E09000012,18 Northwold Road,Stoke Newington,,Stoke Newington,E05009385,-0.07056255357521964,533726.0001221001,51.56240347328562,186653.00012210011,Hackney,Pubs,E09000012,11/27/2022
Hackney,,Jolly Butchers,,E09000012,204 Stoke Newington High Street,London,Stoke Newington,Stoke Newington,E05009385,-0.07158747834003,533655.0001221001,51.562393344511456,186650.00012210011,Hackney,Pubs,E09000012,11/27/2022
Hackney,,Pequeno,,E09000012,184 Stoke Newington High Street,Stoke Newington,London,Stoke Newington,E05009385,-0.07179701564075017,533643.0001221001,51.561533406433625,186554.00012210011,Hackney,Pubs,E09000012,11/27/2022
Hackney,,Coach & Horses,,E09000012,178 Stoke Newington High Street,Stoke Newington,London,Stoke Newington,E05009385,-0.07195910566223049,533634.0001221001,51.560771617368424,186469.00012210011,Hackney,Pubs,E09000012,11/27/2022
Hackney,,Haunt,,E09000012,182 Stoke Newington Road,Stoke Newington,,Stoke Newington,E05009385,-0.07263409886208219,533602.0001221001,51.555728323166456,185907.00012210011,Hackney,Pubs,E09000012,11/27/2022
Hackney,,Red Hand,,E09000012,36-38 Stoke Newington Road,London,Stoke Newington,Shacklewell,E05009382,-0.07317726943413262,533578.0001221001,51.551069580777934,185388.00012210011,Hackney,Pubs,E09000012,11/27/2022
Hackney,,Marquis Of Lansdowne,,E09000012,48 Stoke Newington Road,Stoke Newington,London,Shacklewell,E05009382,-0.07317726943413262,533578.0001221001,51.551069580777934,185388.00012210011,Hackney,Pubs,E09000012,11/27/2022
Hackney,,Bardens,,E09000012,36 Stoke Newington Road,Stoke Newington,London,Shacklewell,E05009382,-0.07317726943413262,533578.0001221001,51.551069580777934,185388.00012210011,Hackney,Pubs,E09000012,11/27/2022
Hackney,,Yucatan,,E09000012,121 Stoke Newington Road,Stoke Newington,London,Stoke Newington,E05009385,-0.0732290108032986,533561.0001221001,51.55564816017163,185897.00012210011,Hackney,Pubs,E09000012,11/27/2022
Hackney,,Scenario,,E09000012,97 Stoke Newington Road,Stoke Newington,London,Shacklewell,E05009382,-0.07339184569463982,533554.0001221001,51.55418488226742,185734.00012210011,Hackney,Pubs,E09000012,11/27/2022
Hackney,,White Hart,,E09000012,69 Stoke Newington High Street,Stoke Newington,London,Stoke Newington,E05009385,-0.07282627455799633,533580.0001221001,51.558690364904116,186236.00012210011,Hackney,Pubs,E09000012,11/27/2022
Hackney,,Shakespeare,,E09000012,57 Allen Road,Stoke Newington,London,Clissold,E05009369,-0.08054046116896332,533056.0001221001,51.555039541453674,185816.00012210011,Hackney,Pubs,E09000012,11/27/2022
Hackney,,Be-bop-a-lula,,E09000012,68 Green Lanes,Stoke Newington,London,Clissold,E05009369,-0.08693188015504265,532617.0001221001,51.55366000893055,185651.00012210011,Hackney,Pubs,E09000012,11/27/2022
Hackney,,Rose & Crown,,E09000012,199 Stoke Newington Church Street,London,Stoke Newington,Clissold,E05009369,-0.08241551495739435,532910.0001221001,51.560538289812946,186424.00012210011,Hackney,Pubs,E09000012,11/27/2022
Hackney,,Stokey,,E09000012,,Stoke Newington,London,Clissold,E05009369,-0.08207871530608715,532946.0001221001,51.55619788950808,185942.00012210011,Hackney,Pubs,E09000012,11/27/2022
Hackney,,Three Crowns,,E09000012,8 East Road,London,Hoxton,Hoxton West,E05009378,-0.08596870193066629,532762.0001221001,51.52677148797597,182663.00012210011,Hackney,Pubs,E09000012,11/27/2022
Hackney,,George & Vulture,,E09000012,63 Pitfield Street,London,Hoxton,Hoxton West,E05009378,-0.0822338211850205,533016.0001221001,51.528500202006455,182862.00012210011,Hackney,Pubs,E09000012,11/27/2022
Hackney,,Prince Arthur,,E09000012,49 Brunswick Place,London,Hoxton,Hoxton West,E05009378,-0.0836789742156208,532920.0001221001,51.52704887355227,182698.00012210011,Hackney,Pubs,E09000012,11/27/2022
Hackney,,Lion & Lamb,,E09000012,46 Fanshaw Street,London,Hoxton,Hoxton East & Shoreditch,E05009377,-0.07995881078801828,533172.0001221001,51.52911051934978,182934.00012210011,Hackney,Pubs,E09000012,11/27/2022
Hackney,,Macbeth,,E09000012,70 Hoxton Street,London,Hoxton,Hoxton East & Shoreditch,E05009377,-0.07850430925796648,533271.0001221001,51.52975222543335,183008.00012210011,Hackney,Pubs,E09000012,11/27/2022
Hackney,,Troy Bar,,E09000012,10 Hoxton Street,London,Hoxton,Hoxton East & Shoreditch,E05009377,-0.0784252374569721,533284.0001221001,51.52717875966626,182722.00012210011,Hackney,Pubs,E09000012,11/27/2022
Hackney,,Red Lion,,E09000012,41 Hoxton Street,London,Hoxton,Hoxton East & Shoreditch,E05009377,-0.07885181451442945,533254.0001221001,51.527320652047344,182737.00012210011,Hackney,Pubs,E09000012,11/27/2022
Hackney,,Hoxton Square Bar,,E09000012,2-4 Hoxton Square,London,Hoxton,Hoxton East & Shoreditch,E05009377,-0.08020923647106085,533160.0001221001,51.52727093061152,182729.00012210011,Hackney,Pubs,E09000012,11/27/2022
Hackney,,Zigfrid,,E09000012,"11 Hoxton Square,",London,Hoxton,Hoxton East & Shoreditch,E05009377,-0.08020923647106085,533160.0001221001,51.52727093061152,182729.00012210011,Hackney,Pubs,E09000012,11/27/2022
Hackney,,Cocktail Havanna,,E09000012,1 Hoxton Square,London,Hoxton,Hoxton East & Shoreditch,E05009377,-0.08020923647106085,533160.0001221001,51.52727093061152,182729.00012210011,Hackney,Pubs,E09000012,11/27/2022
Hackney,,Number 177,,E09000012,177 Hoxton Street,London,Hoxton,Hoxton East & Shoreditch,E05009377,-0.07880169240776354,533247.0001221001,51.530908277851985,183136.00012210011,Hackney,Pubs,E09000012,11/27/2022
Hackney,,Super Lyan,,E09000012,155 Hoxton Street,London,Hoxton,Hoxton East & Shoreditch,E05009377,-0.07880169240776354,533247.0001221001,51.530908277851985,183136.00012210011,Hackney,Pubs,E09000012,11/27/2022
Hackney,,7 Seasons,,E09000012,195 Hoxton Street,London,Hoxton,Hoxton East & Shoreditch,E05009377,-0.07879115352213327,533245.0001221001,51.53184343941519,183240.00012210011,Hackney,Pubs,E09000012,11/27/2022
Hackney,,Eagle,,E09000012,2 Shepherdess Walk,London,Islington,Hoxton West,E05009378,-0.09016373446287965,532465.0001221001,51.52885443916179,182887.00012210011,Hackney,Pubs,E09000012,11/27/2022
Hackney,,William IV,,E09000012,7 Shepherdess Walk,London,Islington,Hoxton West,E05009378,-0.09129201414792519,532382.0001221001,51.53049165177174,183067.00012210011,Hackney,Pubs,E09000012,11/27/2022
Hackney,,Beehive,,E09000012,36 New North Road,London,Islington,Hoxton West,E05009378,-0.08559768718844359,532776.0001221001,51.53080355596823,183112.00012210011,Hackney,Pubs,E09000012,11/27/2022
Hackney,,Wenlock Arms,,E09000012,26 Wenlock Road,London,Hoxton,Hoxton West,E05009378,-0.09180574621763822,532347.0001221001,51.5302751714814,183042.00012210011,Hackney,Pubs,E09000012,11/27/2022
Hackney,,Finsbury,,E09000012,336 Green Lanes,Finsbury Park,London,Woodberry Down,E05009387,-0.09447555213729818,532044.0001221001,51.570951450840646,187560.00012210011,Hackney,Pubs,E09000012,11/27/2022
Hackney,,Brownswood,,E09000012,271 Green Lanes,Finsbury Park,London,Brownswood,E05009367,-0.09128804494106257,532286.0001221001,51.56366883660805,186756.00012210011,Hackney,Pubs,E09000012,11/27/2022
Hackney,,Naturalist,,E09000012,14 Woodberry Down,London,Finsbury Park,Woodberry Down,E05009387,-0.09112029871533643,532278.0001221001,51.57042924544362,187508.00012210011,Hackney,Pubs,E09000012,11/27/2022
Hackney,,Arsenal Tavern,,E09000012,175 Blackstock Road,Finsbury Park,London,Brownswood,E05009367,-0.09716699962713837,531887.0001221001,51.56076049648948,186422.00012210011,Hackney,Pubs,E09000012,11/27/2022
Hackney,,DRFO,,E09000012,131 Blackstock Road,Finsbury Park,London,Brownswood,E05009367,-0.0987809685351124,531772.0001221001,51.56184790050173,186540.00012210011,Hackney,Pubs,E09000012,11/27/2022
Hackney,,Happy Man,,E09000012,89 Woodberry Grove,Finsbury Park,London,Woodberry Down,E05009387,-0.08773654488646587,532511.0001221001,51.57093174190917,187570.00012210011,Hackney,Pubs,E09000012,11/27/2022
Hackney,http://www.kemplondon.com/,Kemp London ,100000000000,E09000012,32 Shackwell Lane,,,Dalston,E05009370,-0.07102936558250746,533729.0001221001,51.55035076810333,185312.00012210011,Hackney,Set and exhibition building,E09000012,11/27/2022
Hackney,http://www.pendragonframes.com,Pendragon ,100000000000,E09000012,1-3  Yorkton Street,,,Haggerston,E05009375,-0.06751022332147727,534029.0001221001,51.531271384873136,183197.00012210011,Hackney,Set and exhibition building,E09000012,11/27/2022
Hackney,,Clissold-Park,0,E09000012,,,,Clissold,E05009369,-0.08306636237668577,532861.7537231967,51.56161523609507,186542.5639037937,Hackney,Skate Parks,E09000012,11/27/2022
Hackney,https://aliholloway.wordpress.com,Ali Holloway,100023154905,E09000012,Studio 5,Stoke Newington Library,184Stoke Newington Church Street,Clissold,E05009369,-0.08120818580739644,532992.0001221001,51.56111212368424,186490.00012210011,Hackney,Textile design,E09000012,11/27/2022
Hackney,https://www.drakes.com,Drakes ties,10008334117,E09000012,3 Haberdasher Street,,,Hoxton West,E05009378,-0.08519911595987209,532809.6500854939,51.528738955645764,182883.16009519994,Hackney,Textile design,E09000012,11/27/2022
Hackney,http://www.ellensampson.com,Ellen Sampson,100023547033,E09000012,352 Mare Street,,,Hackney Central,E05009372,-0.05294396649761079,534993.0001221001,51.546868237473205,184958.00012210011,Hackney,Textile design,E09000012,11/27/2022
Hackney,https://fabrications1.co.uk,Fabrications,100023016949,E09000012,7 Broadway Market,,,Haggerston,E05009375,-0.060729563914689824,534487.0001221001,51.53542243997687,183671.00012210011,Hackney,Textile design,E09000012,11/27/2022
Hackney,https://www.hackneywalk.com/stitch-academy/,Hackney Walk - Stitch Academy,10008240891,E09000012,116Morning Lane,,,Homerton,E05009376,-0.048589097396051155,535296.0001221001,51.54649908128167,184925.00012210011,Hackney,Textile design,E09000012,11/27/2022
Hackney,https://www.arts.ac.uk/colleges/london-college-of-fashion,London College of Fashion,100023015775,E09000012,182 Mare Street,,,Victoria,E05009386,-0.05328307002271142,534988.0001221001,51.54061431197261,184262.00012210011,Hackney,Textile design,E09000012,11/27/2022
Hackney,http://www.nktextiles.com/contact.html,Nicola Killeen Textiles,100022992427,E09000012,8 Audrey Street,,,Haggerston,E05009375,-0.0640454910252519,534265.0001221001,51.532725173451524,183365.00012210011,Hackney,Textile design,E09000012,11/27/2022
Hackney,http://www.patternbank.com/,Patternbank,100022933353,E09000012,86-90 Paul Street,,,Hoxton East & Shoreditch,E05009377,-0.08201601658255396,533041.0001221001,51.525106053008635,182485.00012210011,Hackney,Textile design,E09000012,11/27/2022
Hackney,https://thethriftystitcher.co.uk,The Thrifty Stitcher,10008318665,E09000012,Unit 21 ,3-5 Shelford Place,,Clissold,E05009369,-0.08527646747164534,532718.0001221001,51.55838159869257,186179.00012210011,Hackney,Textile design,E09000012,11/27/2022
Hackney,http://www.turalondon.com/index.html,Tura,100023015609,E09000012,10 Amhurst Terrace,,,Shacklewell,E05009382,-0.06602711656287344,534064.870117195,51.5540539833356,185732.92010499537,Hackney,Textile design,E09000012,11/27/2022
Hackney,www.eastside.org.uk,Eastside Educational Trust,,E09000012,Suite 16 Perseverance Works,37 Hackney Road,,Hoxton East & Shoreditch,E05009377,-0.07682220415470145,533281.9098457759,51.5277628531734,182843.65228268586,Hackney,Theatre rehearsal studio,E09000012,11/27/2022
Hackney,www.graeae.org,Graeae Theatre Company,10091775254,E09000012,138 Kingsland Road,,,Haggerston,E05009375,-0.07682304410663039,533271.9201573514,51.53116206196963,183221.56765337405,Hackney,Theatre rehearsal studio,E09000012,11/27/2022
Hackney,https://www.picturehouses.com/cinema/Hackney_Picturehouse,Hackney Attic,100023014120,E09000012,270 Mare Street,,,Homerton,E05009376,-0.05495048225980592,534747.5909825666,51.545036255081186,184804.11995580804,Hackney,Theatre rehearsal studio,E09000012,11/27/2022
Hackney,https://www.hackneyshowroom.com/,Hackney Showroom  Studio Space,10091775026,E09000012,Amhurst Terrace,,,Shacklewell,E05009382,-0.06711512610988847,533875.7182931304,51.55476067397814,185862.92465226102,Hackney,Theatre rehearsal studio,E09000012,11/27/2022
Tower Hamlets,http://hubsixtyseven.com/,Hub67,6077462,E09000030,67 Rothbury Road,,,Bow East,E05009319,-0.02497622147314065,536834.1554154609,51.542134831887445,184537.27820999408,Hackney,Theatre rehearsal studio,E09000012,11/27/2022
Hackney,info@chatspalace.co.uk,Chats Palace,100023020798,E09000012,42-44 Brooksby's Road,,,King's Park,E05009379,-0.042761181015702004,535577.4043723482,51.55013033370674,185393.02218534856,Hackney,Theatre rehearsal studio,E09000012,11/27/2022
Hackney,www.istd.org/istd2-hire,ISTD2 Dance Studios,10008291785,E09000012,346 Old St,,,Hoxton East & Shoreditch,E05009377,-0.08087918354584163,533003.9644995164,51.526597383479285,182706.6966649586,Hackney,Theatre rehearsal studio,E09000012,11/27/2022
Hackney,https://breather.com/locations/london/29-charlotte-rd,"Breather, Charlotte Road",10091784230,E09000012,29 Charlotte Road,,,Hoxton East & Shoreditch,E05009377,-0.08134876384513474,532974.967770123,51.52537308199815,182569.72736891016,Hackney,Theatre rehearsal studio,E09000012,11/27/2022
Hackney,https://www.blank100.co.uk/,blank100,100023134419,E09000012,100 De Beauvoir Road,,,De Beauvoir,E05009371,-0.07995031380119007,533022.9839302469,51.542157287522684,184438.2999733339,Hackney,Theatre rehearsal studio,E09000012,11/27/2022
Hackney,http://www.jackylansley.co.uk/pdfs/StudioHire.pdf,Dance Research Studio,10008237591,E09000012,23 Orsman Rd,Haggerston,,Hoxton East & Shoreditch,E05009377,-0.07876129506914484,533122.9584710415,51.53614876850161,183772.45026944735,Hackney,Theatre rehearsal studio,E09000012,11/27/2022
Hackney,http://totalrefreshment.net/,Total Refreshment Studios,10008274727,E09000012,2 Foulden Road,,,Stoke Newington,E05009385,-0.07232018031174076,533512.8028510688,51.55550288041932,185935.93172524648,Hackney,Theatre rehearsal studio,E09000012,11/27/2022
Hackney,https://www.vfdalston.com/calendar,VFDalston,100021076631,E09000012,66 Stoke Newington Road,,,Shacklewell,E05009382,-0.07462240952500411,533361.8605446786,51.552564166737575,185605.00946883194,Hackney,Theatre rehearsal studio,E09000012,11/27/2022
Hackney,www.movingeast.co.uk,Moving East,10008239574,E09000012,Wordsworth Road,Newington Green,,Clissold,E05009369,-0.07932763196281976,533035.9424522577,51.5524975159449,185589.0341322694,Hackney,Theatre rehearsal studio,E09000012,11/27/2022
Hackney,NA,Courtyard Theatre,10091002509,E09000012,40 Pitfield Street,NA,NA,Hoxton West,E05009378,-0.08496288918437335,532715.5464827259,51.52838974209928,182898.55251109053,Hackney,Theatres,E09000012,11/27/2022
Tower Hamlets,https://theyardtheatre.co.uk/,The Yard Theatre,6077552,E09000030,Unit 2A, Queens Yard,White Post Lane,Bow East,E05009319,-0.024359022337676145,536874.3155735427,51.54300955723465,184635.68538884714,Hackney,Theatres,E09000012,11/27/2022
Tower Hamlets,https://www.richmix.org.uk/,Rich Mix,6192962,E09000030,35-47 Bethnal Green Rd, London,NA,Weavers,E05009335,-0.07541260710627984,533388.4921025058,51.524742821169056,182510.46023214282,Hackney,Theatres,E09000012,11/27/2022
Hackney,https://www.hackneyartscentre.org/,Hackney Arts Centre - EartH (Evolutionary Arts Hackney),10008300562,E09000012,11-17 Stoke Newington Road, Stoke Newington,NA,Shacklewell,E05009382,-0.07699946636679565,533200.5118518705,51.55140177146531,185471.44566410192,Hackney,Theatres,E09000012,11/27/2022
Hackney,https://shoreditchtownhall.com/,Shoreditch Town Hall,10008305130,E09000012,380 Old St,NA,NA,Hoxton East & Shoreditch,E05009377,-0.08128911318651678,532972.6411113323,51.527590515925816,182816.3666663209,Hackney,Theatres,E09000012,11/27/2022
Hackney,NA,Church Street Theatre ,10008310096,E09000012,St Mary's Rectory, Stoke Newington Church Street,NA,Clissold,E05009369,-0.08601517193745228,532545.8683918819,51.5616174991879,186590.85045300063,Hackney,Theatres,E09000012,11/27/2022
Hackney,NA,Hackney Showroom,10091775026,E09000012,Hackney Downs Studios, Amhurst Terrace,NA,Stoke Newington,E05009385,-0.06973744167557235,533693.3916610423,51.55496024245703,185880.31772574876,Hackney,Theatres,E09000012,11/27/2022
Hackney,https://hackneyempire.co.uk/,Hackney Empire,100023000000,E09000012,291 Mare St,NA,NA,Hackney Central,E05009372,-0.057085172016267866,534595.0557862788,51.546577257873956,184971.5143981303,Hackney,Theatres,E09000012,11/27/2022
Hackney,https://chatspalace.com/,Chats Palace,100023000000,E09000012,Chats Palace Arts Centre, 4244 Brooksbys Walk,NA,Homerton,E05009376,-0.04437854497360178,535463.789436545,51.55063710292275,185446.3614782546,Hackney,Theatres,E09000012,11/27/2022
Hackney,NA,National Centre for Circus Arts ,100023000000,E09000012,Coronet Street,NA,NA,Hoxton West,E05009378,-0.0838679841879728,532792.5217256857,51.528030076155595,182860.55225835805,Hackney,Theatres,E09000012,11/27/2022
Hackney,https://www.hoxtonhall.co.uk/,Hoxton Hall,100023000000,E09000012,130 Hoxton St,NA,NA,Hoxton East & Shoreditch,E05009377,-0.0816091668988306,532936.6471352878,51.53232500662257,183342.15909222042,Hackney,Theatres,E09000012,11/27/2022
Hackney,http://www.thecourtyard.org.uk/,Courtyard Theatre,100023000000,E09000012,40 Pitfield St,NA,NA,Hoxton West,E05009378,-0.08498978715128114,532713.6849739901,51.528388442358555,182898.35921007983,Hackney,Theatres,E09000012,11/27/2022
Hackney,http://www.towertheatre.org.uk/relo.htm,Tower Theatre ,100023000000,E09000012,16 Northwold Road,NA,NA,Stoke Newington,E05009385,-0.07354234928933352,533405.1682656718,51.563323449122905,186803.18678582401,Hackney,Theatres,E09000012,11/27/2022
