borough_name,website,site_name,os_addressbase_uprn,borough_code,address1,address2,address3,ward_2018_name,ward_2018_code,longitude,easting,latitude,northing,BOROUGH,Cultural Venue Type,gss_code,runtime
Haringey,http://www.alexandrapalace.com/,Alexandra Park and Palace Charitable Trust,10003974918,E09000014,Alexandra Palace Way,,,Alexandra,E05000266,-0.13050142940269552,529369.6876913166,51.59448347351189,190165.16346601653,Haringey,Archives,E09000014,11/27/2022
Haringey,http://www.moravian.org.uk/index.php/church-house/church-archives,Moravian Church Archive and Library,10003979924,E09000014,Moravian Church House 5-7 Muswell Hill,,,Muswell Hill,E05000274,-0.13441069250566057,529118.7809094542,51.587513635701356,189383.34505218186,Haringey,Archives,E09000014,11/27/2022
Haringey,https://www.highgateschool.org.uk/about/museum-and-archive,Highgate School Archives,100023000000,E09000014,Highgate School North Road,,,Highgate,E05000272,-0.14932404470129293,528129.0439553632,51.572201741067225,187654.7087446539,Haringey,Archives,E09000014,11/27/2022
Haringey,https://www.haringey.gov.uk/libraries-sport-and-leisure/culture-and-entertainment/visiting-haringey/haringey-archive-and-local-history,Haringey Archive Service,100024000000,E09000014,Bruce Castle Museum ,Lordship Lane ,,White Hart Lane,E05000283,-0.07544090511867615,533168.6632584871,51.59915010108335,190782.88491676096,Haringey,Archives,E09000014,11/27/2022
Haringey,http://www.parkstudioslondon.org/,"Park Sudios, Finsbury Park",100023190785,E09000014,Park Sudios,34 Scarborough Road,,Stroud Green,E05000279,-0.10641653372193136,531106.3227025818,51.570581866915084,187550.73381546623,Haringey,Artists workspaces,E09000014,11/27/2022
Haringey,http://www.newriverstudios.com/,,10003975439,E09000014,199 Eade Road,,,Seven Sisters,E05000278,-0.08813787733316752,532359.9682214763,51.57495228187851,188069.55762360932,Haringey,Artists workspaces,E09000014,11/27/2022
Haringey,https://www.pjrcreativebuilding.co.uk/,,100000000000,E09000014,718 Seven Sisters Rd,,,St. Ann's,E05000277,-0.07803631833449517,533043.761794575,51.5804164002186,188695.38105321152,Haringey,Artists workspaces,E09000014,11/27/2022
Haringey,www.themillcoproject.co.uk,Carvall Warehouse ,10003978049,E09000014,Bernard Works,23 Bernard Road ,,Tottenham Green,E05000280,-0.06836678133465894,533708.5766675373,51.58210093470421,188900.3030877746,Haringey,Artists workspaces,E09000014,11/27/2022
Haringey,https://www.pjrcreativebuilding.co.uk/,,10093591482,E09000014,Unit 7,2 Norman Rd,,Tottenham Green,E05000280,-0.06840582028451359,533704.5750726637,51.582542214585104,188949.29279123322,Haringey,Artists workspaces,E09000014,11/27/2022
Haringey,http://bonesandpearl.moonfruit.com/contact/4589196098,,10090481197,E09000014,60-68 Markfield Road,,,Tottenham Green,E05000280,-0.0639363863477529,534011.4960865323,51.58343970635787,189057.25770057767,Haringey,Artists workspaces,E09000014,11/27/2022
Haringey,www.euroart.co.uk,Euro Art Studios,200002797261,E09000014,"Units 4-6 Gaunson House, Markfield Road",,,Tottenham Green,E05000280,-0.06354760941091742,534037.4886422339,51.58375702015042,189093.2488796324,Haringey,Artists workspaces,E09000014,11/27/2022
Haringey,www.themillcoproject.co.uk,Gaunson House ,200000000000,E09000014,"Unit 3, Markfield Road ",,,Tottenham Green,E05000280,-0.06354722770264615,534037.488595345,51.583766006437486,189094.24865471513,Haringey,Artists workspaces,E09000014,11/27/2022
Haringey,www.collage-arts.org,,10022939979,E09000014,Chocolate Factory 2,4 Coburg Road,,Noel Park,E05000275,-0.11307267593858954,530577.3634108964,51.59419545068255,190164.148473466,Haringey,Artists workspaces,E09000014,11/27/2022
Haringey,https://www.berniegrantcentre.co.uk/,Bernie Grant Arts Centre ,10003985252,E09000014,Town Hall Approach Rd ,Tottenham Green,,Tottenham Green,E05000280,-0.07307594316383177,533366.6441101524,51.587475025787676,189489.18429012678,Haringey,Arts centres,E09000014,11/27/2022
Haringey,https://www.jacksonslane.org.uk/,Jacksons Lane ,100023196841,E09000014,269A Archway Rd,Highgate,,Highgate,E05000272,-0.1454041617417178,528387.9775686603,51.57668107136611,188159.60351250193,Haringey,Arts centres,E09000014,11/27/2022
Haringey,,Crouch End Picturehouse,100023207152,E09000014,,165 Tottenham Lane,,Crouch End,E05000269,-0.11906134495512047,530312.0001221001,51.58089926433547,188622.00012210011,Haringey,Cinemas,E09000014,11/27/2022
Haringey,,Arthouse Crouch End,100023208418,E09000014,,159A Tottenham Lane,Crouch End,Crouch End,E05000269,-0.11837956673981229,530358.0001221001,51.58132901391286,188671.00012210011,Haringey,Cinemas,E09000014,11/27/2022
Haringey,,Everyman Muswell Hill,100023143835,E09000014,,Fortis Green Rd,,Muswell Hill,E05000274,-0.14460955168006992,528519.0001221001,51.58910334496989,189489.00012210011,Haringey,Cinemas,E09000014,11/27/2022
Haringey,,Cineworld Wood Green,010003977027,E09000014,The Mall Wood Green,High Rd,Wood Green,Noel Park,E05000275,-0.10796280467423051,531043.0001221001,51.59404917348833,190104.00012210011,Haringey,Cinemas,E09000014,11/27/2022
Haringey,,Vue Wood Green,010003971546,E09000014,Hollywood Green,180 High Road,,Noel Park,E05000275,-0.10707274497426163,531098.0001221001,51.596355136638124,190362.00012210011,Haringey,Cinemas,E09000014,11/27/2022
Haringey,http://www.narenj.co.uk/#,Narenj Art Gallery,100023143066,E09000014,94 Alexandra Park Road,NA,NA,Alexandra,E05000266,-0.1370759832534233,529016.0001221001,51.59785152337649,190475.00012210011,Haringey,Commercial galleries,E09000014,11/27/2022
Haringey,http://www.highgateart.com/#,Highgate Contemporary Art,100023196853,E09000014,26 Highgate High Street,NA,NA,Highgate,E05000272,-0.14484899746657073,528556.0001221001,51.57011295456432,187377.00012210011,Haringey,Commercial galleries,E09000014,11/27/2022
Haringey,,Milton Road Community Centre,10003979907,E09000014,Milton Road,London Borough Of Haringey,NA,West Green,E05000282,-0.09824167883579579,531733.0001221001,51.5882531141983,189477.00012210011,Haringey,Community centres,E09000014,11/27/2022
Haringey,,Mitalee Centre,10003982757,E09000014,Stanley Road,London Borough Of Haringey,NA,St. Ann's,E05000277,-0.09550727325900794,531930.0001221001,51.585627630890926,189190.00012210011,Haringey,Community centres,E09000014,11/27/2022
Haringey,,Kurdish Advice Centre,10022939793,E09000014,1 Eastfield Road,London Borough Of Haringey,NA,Hornsey,E05000273,-0.11946857300630555,530260.0001221001,51.58921576404642,189546.00012210011,Haringey,Community centres,E09000014,11/27/2022
Haringey,,Park Lane Community Centre,100023163085,E09000014,46 Park Lane,London Borough Of Haringey,NA,Northumberland Park,E05000276,-0.06333936391477268,534111.0001221001,51.60164021905645,191029.00012210011,Haringey,Community centres,E09000014,11/27/2022
Haringey,,Selby Centre,100023166236,E09000014,Selby Road,London Borough Of Haringey,NA,White Hart Lane,E05000283,-0.07693007687251893,533152.0001221001,51.60777244476685,191686.00012210011,Haringey,Community centres,E09000014,11/27/2022
Haringey,,Lord Morrison Hall,100023166637,E09000014,Scales Road,London Borough Of Haringey,NA,Tottenham Hale,E05000281,-0.06609953795338999,533952.0001221001,51.59072263011235,189810.00012210011,Haringey,Community centres,E09000014,11/27/2022
Haringey,,Haringey Grove Community Centre,100023205171,E09000014,Denmark Road,London Borough Of Haringey,NA,Harringay,E05000271,-0.10766108122437745,531084.0001221001,51.587065365532,189328.00012210011,Haringey,Community centres,E09000014,11/27/2022
Haringey,,Whitehall & Tenterden Community Centre,200002798089,E09000014,Whitehall Street,London Borough Of Haringey,NA,Northumberland Park,E05000276,-0.06812438189030243,533775.0001221001,51.603229997613795,191197.00012210011,Haringey,Community centres,E09000014,11/27/2022
Haringey,http://www.tcca.org/,Turkish Cypriot Community Association,100023204574,E09000014,628-630 Green Lanes,London Borough Of Haringey,NA,Harringay,E05000271,-0.09836087498240896,531734.0001221001,51.585053360172125,189121.00012210011,Haringey,Community centres,E09000014,11/27/2022
Haringey,https://www.haringey.gov.uk/social-care-and-health/physical-disabilities-and-sensory-impairment/winkfield-resource-centre-services,Winkfield Day Centre for the Deaf and Blind,100023553117,E09000014,31-35 Winkfield Road,London Borough Of Haringey,NA,Woodside,E05000284,-0.10332562917726663,531347.0001221001,51.59999095325192,190773.00012210011,Haringey,Community centres,E09000014,11/27/2022
Haringey,http://www.aclc.org.uk/,West Indian Cultural Centre,10003975935,E09000014,Clarendon Road Off Hornsey Park Road,London Borough Of Haringey,NA,Noel Park,E05000275,-0.10940992502397105,530958.0001221001,51.5887573502542,189513.00012210011,Haringey,Community centres,E09000014,11/27/2022
Haringey,http://chestnutscommunitycentre.org.uk/,Chestnuts Community Centre,10003976195,E09000014,St Anns Road,London Borough Of Haringey,NA,St. Ann's,E05000277,-0.08702248713881185,532530.0001221001,51.58140655407309,188736.00012210011,Haringey,Community centres,E09000014,11/27/2022
Haringey,http://www.cypriotcentre.co.uk/,Cypriot Community Centre and Banqueting Suites,100023178205,E09000014,Earlham Grove,London Borough Of Haringey,NA,Woodside,E05000284,-0.10921994738154794,530932.0001221001,51.60237040937383,191027.00012210011,Haringey,Community centres,E09000014,11/27/2022
Haringey,https://www.jacksonslane.org.uk/,Jacksons Lane Arts Centre,100023196841,E09000014,269 Archway Road,London Borough Of Haringey,NA,Highgate,E05000272,-0.14382265371790917,528610.0001221001,51.57617630385857,188053.00012210011,Haringey,Community centres,E09000014,11/27/2022
Haringey,https://www.hornseyvale.org/,Hornsey Vale Community Centre,100023208251,E09000014,60 Mayfield Road,London Borough Of Haringey,NA,Stroud Green,E05000279,-0.11187021253097196,530813.0001221001,51.57991139887448,188525.00012210011,Haringey,Community centres,E09000014,11/27/2022
Haringey,https://www.haringey-irish.com/hirefacilities.html,Haringey Irish Cultural and Community Centre,100023552672,E09000014,Pretoria Road,London Borough Of Haringey,NA,Northumberland Park,E05000276,-0.06985416209773387,533644.0001221001,51.60705372044925,191619.00012210011,Haringey,Community centres,E09000014,11/27/2022
Haringey,https://www.metropolitan.org.uk/images/centre-profile_Sky-City2.pdf,Sky City Community Centre,100023178699,E09000014,50 Mayes Road,London Borough Of Haringey,NA,Noel Park,E05000275,-0.1078027218465522,531055.0001221001,51.59373182058857,190069.00012210011,Haringey,Community centres,E09000014,11/27/2022
Haringey,,Freehold Community Centre,10003975973,E09000014,9 Alexandra Road,Barnet,NA,Alexandra,E05000266,-0.14137747942125142,528691.0001221001,51.607443767459046,191534.00012210011,Haringey,Community centres,E09000014,11/27/2022
Haringey,https://www.fusion-lifestyle.com/centres/broadwater-farm-community-centre/,Broadwater Farm Community Centre,200002798041,E09000014,Freedom Road,London Borough Of Haringey,NA,West Green,E05000282,-0.08288998891061873,532776.0001221001,51.59521610149512,190279.00012210011,Haringey,Community centres,E09000014,11/27/2022
Haringey,https://www.haringey.gov.uk/libraries-sport-and-leisure/culture-and-entertainment/venues-hire/northumberland-park-resource-centre,London Borough of Haringey Neighbourhood Resource,100023163044,E09000014,179 Park Lane,London Borough Of Haringey,NA,Northumberland Park,E05000276,-0.05815346144896439,534468.0001221001,51.602345953146056,191117.00012210011,Haringey,Community centres,E09000014,11/27/2022
Haringey,,Commerce Road Community Centre,10022939252,E09000014,52 Commerce Road,London Borough Of Haringey,NA,Bounds Green,E05000267,-0.11168577543740855,530762.0001221001,51.60211332709977,190994.00012210011,Haringey,Community centres,E09000014,11/27/2022
Haringey,,CUFOS,10003980036,E09000014,The Avenue,London Borough Of Haringey,NA,Alexandra,E05000266,-0.13033479013049837,529493.0001221001,51.59427284554356,190089.00012210011,Haringey,Community centres,E09000014,11/27/2022
Haringey,,Bridge Community Hut,10090477947,E09000014,Tewkesbury Road,London Borough Of Haringey,NA,Seven Sisters,E05000278,-0.08402517923980599,532754.0001221001,51.575790655651566,188117.00012210011,Haringey,Community centres,E09000014,11/27/2022
Haringey,http://www.haringeychinesecentre.org.uk/,Haringey Chinese Centre,100023151310,E09000014,211 Langham Road,London Borough Of Haringey,NA,West Green,E05000282,-0.09973705244499217,531624.0001221001,51.59012999984138,189683.00012210011,Haringey,Community centres,E09000014,11/27/2022
Haringey,https://www.facebook.com/KurdishCommunityCentre?pnref=story,Kurdish Community Centre,100023184436,E09000014,11 Portland Gardens,London Borough Of Haringey,NA,St. Ann's,E05000277,-0.0952338816159919,531973.0001221001,51.577322183419255,188267.00012210011,Haringey,Community centres,E09000014,11/27/2022
Haringey,,I Can Care Centre,100021190383,E09000014,Woodside House, Woodside Park, 294 High Road,Woodside,E05000284,-0.10911567048176986,530937.0001221001,51.60314216723718,191113.00012210011,Haringey,Community centres,E09000014,11/27/2022
Haringey,https://haricare.haringey.gov.uk/adults/cat/vendor/3092,The Sandbunker Community Centre,100021212549,E09000014,The Sandbunker Community Centre,The Sandlings,London,Noel Park,E05000275,-0.10141843687114445,531499.0001221001,51.59308909333624,190009.00012210011,Haringey,Community centres,E09000014,11/27/2022
Haringey,http://areaworks.com/,Areaworks,10090477296,E09000014,Areaworks Manor House,Unit 5 Manor House,2 Overbury Road,Seven Sisters,E05000278,-0.08575370250785734,532635.0001221001,51.57553107645681,188085.00012210011,Haringey,Creative co-working desk space,E09000014,11/27/2022
Haringey,,The Chocolate Factory,10093591064,E09000014,The Chocolate Factory,Clarendon Road,Wood Green,Noel Park,E05000275,-0.11329077277922556,530674.0001221001,51.594054015177825,190095.00012210011,Haringey,Creative co-working desk space,E09000014,11/27/2022
Haringey,http://www.papertankcollective.com/?COLLCC=2285603521,Papertank Collective,100023166838,E09000014,Papertank Collective,Unit 12 Millmead Industrial Estate,Millmead Road,Tottenham Hale,E05000281,-0.055704366874882935,534668.0001221001,51.59206176505373,189978.00012210011,Haringey,Creative co-working desk space,E09000014,11/27/2022
Haringey,http://ten87studios.com,Ten87 Studios,10022939575,E09000014,Ten87 Studios,39a Markfield Road,,,,-0.06336880748883929,534165.0001221001,51.582619381070664,188914.00012210011,Haringey,Creative workspaces,E09000014,11/27/2022
Haringey,https://www.bluehouseyard.com/,Blue House Yard,10003979415,E09000014,Blue House Yard,5 River Park Road,,,,-0.11037137427722224,530869.0001221001,51.59655219432626,190378.00012210011,Haringey,Creative workspaces,E09000014,11/27/2022
Haringey,www.themillcoproject.co.uk,The Mill Co. Project,10003979581,E09000014,Carvall Warehouse,Bernard Works,23 Bernard Road,,,-0.06619337104272702,533971.0001221001,51.582054405729274,188846.00012210011,Haringey,Creative workspaces,E09000014,11/27/2022
Haringey,https://www.berniegrantcentre.co.uk/hire/workspace/,Bernie Grant Centre,10003985252,E09000014,Bernie Grant Arts Centre,Bernie Grant Arts Centre,Town Hall Approach Road,,,-0.07148518781875277,533590.0001221001,51.58697102898695,189383.00012210011,Haringey,Creative workspaces,E09000014,11/27/2022
Haringey,www.themillcoproject.co.uk,The Mill Co. Project,10022940861,E09000014,The Cannon Factory,16 Ashley Road,,,,-0.060285531202125237,534357.0001221001,51.58993416452718,189733.00012210011,Haringey,Creative workspaces,E09000014,11/27/2022
Haringey,www.themillcoproject.co.uk,The Mill Co. Project,10093592040,E09000014,Gaunson House,"Unit 3, Markfield Road",,,,-0.061941201224010194,534262.0001221001,51.583261332167346,188988.00012210011,Haringey,Creative workspaces,E09000014,11/27/2022
Haringey,https://www.soandsomanor.co.uk,So&so,100023183313,E09000014,So&so@ The  Manor,The Manor,"Florentia Clothing Village, Vale Road",,,-0.0868397982223614,532558.0001221001,51.576133370513936,188150.00012210011,Haringey,Creative workspaces,E09000014,11/27/2022
Haringey,http://www.newriverstudios.com/,New River Studios,100023184381,E09000014,New River Studios,199 Eade Road,,,,-0.08654979517126755,532583.0001221001,51.574446851526986,187963.00012210011,Haringey,Creative workspaces,E09000014,11/27/2022
Haringey,http://www.alexandrapalace.com,Alexandra Palace,10003974918,E09000014,33 Alexandra Palace Way,,,Alexandra,E05000266,-0.13050142940269552,529369.6876913166,51.59448347351189,190165.16346601653,Haringey,Dance performance venues,E09000014,11/27/2022
Haringey,http://www.berniegrantcentre.co.uk,Bernie Grant Arts Centre,10003985252,E09000014,Town Hall Approach,,,Tottenham Green,E05000280,-0.07307594316383177,533366.6441101524,51.587475025787676,189489.18429012678,Haringey,Dance performance venues,E09000014,11/27/2022
Haringey,www.jacksonslane.org.uk/space-hire,Jacksons Lane,100023196841,E09000014,269A Archway Road,,,Highgate,E05000272,-0.1454041617417178,528387.9775686603,51.57668107136611,188159.60351250193,Haringey,Dance performance venues,E09000014,11/27/2022
Haringey,http://www.upstairsatthegatehouse.com,Upstairs at the Gatehouse,100023194241,E09000014,1 North Road,,,Highgate,E05000272,-0.1503651244053542,528058.0602660807,51.5717955026533,187607.7169495119,Haringey,Dance performance venues,E09000014,11/27/2022
Haringey,http://www.ballystudios.co.uk,Mill Mead Rehearsal Studios,10003979046,E09000014,16 Millmead Business Centre,,,Tottenham Hale,E05000281,-0.056199156816526326,534522.338368583,51.591908454284194,190013.00162209087,Haringey,Dance rehearsal studios,E09000014,11/27/2022
Haringey,http://www.nlpac.co.uk,New London Performing Arts Centre,10003973500,E09000014,76 St James Lane,,,Muswell Hill,E05000274,-0.1396250556346096,528755.8652600204,51.58814492103966,189444.32313773409,Haringey,Dance rehearsal studios,E09000014,11/27/2022
Haringey,http://www.theannexspace.com/tohire/,The Annex,10090478351,E09000014,7 Fountayne Road,,,Tottenham Green,E05000280,-0.062495764035325134,534110.4725880993,51.58371266793974,189090.24748665217,Haringey,Dance rehearsal studios,E09000014,11/27/2022
Haringey,http://the-room.org.uk/contact/,The Room,100021191820,E09000014,33 Holcombe Road,,,Tottenham Hale,E05000281,-0.06501159439450442,533909.4844072876,51.592791633785374,190095.0140476547,Haringey,Dance rehearsal studios,E09000014,11/27/2022
Haringey,http://www.berniegrantcentre.co.uk,Bernie Grant Arts Centre,10003985252,E09000014,Town Hall Approach,,,Tottenham Green,E05000280,-0.07307594316383177,533366.6441101524,51.587475025787676,189489.18429012678,Haringey,Dance rehearsal studios,E09000014,11/27/2022
Haringey,www.jacksonslane.org.uk/space-hire,Jacksons Lane,100023196841,E09000014,269A Archway Road,,,Highgate,E05000272,-0.1454041617417178,528387.9775686603,51.57668107136611,188159.60351250193,Haringey,Dance rehearsal studios,E09000014,11/27/2022
Haringey,http://www.upstairsatthegatehouse.com,Upstairs at the Gatehouse,100023194241,E09000014,1 North Road,,,Highgate,E05000272,-0.1503651244053542,528058.0602660807,51.5717955026533,187607.7169495119,Haringey,Dance rehearsal studios,E09000014,11/27/2022
Haringey,http://www.lindseytaitdesign.com/,Lindsey Tait,10003982936,E09000014,Unit 10,5 Fountayne Road,,Tottenham Green,E05000280,-0.06240797919262977,534115.4697396068,51.58407990997171,189131.23765376094,Haringey,Fashion and design,E09000014,11/27/2022
Haringey,http://tidesampleslondon.freeindex.co.uk/,Tide Samples,1.00023E+11,E09000014,Florentia Clothing Village,Vale Road,,Seven Sisters,E05000278,-0.08842796300206471,532334.9668097142,51.576638614513186,188256.5164791867,Haringey,Fashion and design,E09000014,11/27/2022
Haringey,http://www.lemonheadprints.co.uk/,Lemon Head Prints,10003979446,E09000014,Unit B003,The Chocolate Factory,5 Clarendon Road,Noel Park,E05000275,-0.11489089940857772,530450.3958459314,51.594566405647875,190202.14438820526,Haringey,Fashion and design,E09000014,11/27/2022
Haringey,http://www.londongarmentservices.com,London Garment Services,1.00023E+11,E09000014,Unit 2 Guillemot Place,Clarendon Road,,Noel Park,E05000275,-0.11453599291393242,530473.3872833352,51.59511823021981,190264.12893550628,Haringey,Fashion and design,E09000014,11/27/2022
Haringey,http://www.fashioncubelondon.co.uk/,Fashion Cube Ltd,10022938315,E09000014,Unit 6,41 West Road,,Northumberland Park,E05000276,-0.0586484345108163,534307.370263865,51.6072631927448,191715.6022297893,Haringey,Fashion and design,E09000014,11/27/2022
Haringey,http://www.fashion-enter.com,Fashion Enter Ltd,1.00023E+11,E09000014,Unit 14,167 Hermitage Road,,Seven Sisters,E05000278,-0.09132658187430176,532133.0188573193,51.577036553629604,188295.5171793757,Haringey,Fashion and design,E09000014,11/27/2022
Haringey,http://londonsewingservices.com/,London Sewing Services,10003975775,E09000014,Unit 3 Neville Place,High Road,,Bounds Green,E05000267,-0.1128203623704102,530574.3337483034,51.60133137441281,190957.96251271572,Haringey,Fashion and design,E09000014,11/27/2022
Haringey,https://www.rosamandapleaters.com,Rosamanda,10003979472,E09000014,Unit D3,15 Tariff Road,,Northumberland Park,E05000276,-0.061513860628703385,534108.4191183602,51.60746347343449,191732.60777732672,Haringey,Fashion and design,E09000014,11/27/2022
Haringey,http://www.albionknit.london/,The Albion Knitting Company,1.00024E+11,E09000014,Unit 12 Crusader Industrial Estate,Hermitage Road,,Seven Sisters,E05000278,-0.09151607968061978,532119.0212431501,51.577336391092004,188328.51026871416,Haringey,Fashion and design,E09000014,11/27/2022
Haringey,http://www.msamplelondon.com/,Msample Ltd,10003976574,E09000014,Unit U15 Highcross Centre,15-16 Fountayne Road,,Tottenham Green,E05000280,-0.062413243043223716,534110.4639376601,51.58565367575575,189306.19549319864,Haringey,Fashion and design,E09000014,11/27/2022
Haringey,http://irkart-eu.wix.com/pattern-cutter,IrkArt,1.00021E+11,E09000014,Claire House,2 Elizabeth Place,,Tottenham Green,E05000280,-0.08137409853047746,532790.7961228542,51.58787190510496,189518.2046684717,Haringey,Fashion and design,E09000014,11/27/2022
Haringey,,Hamilton Horn Limited,10022936245,E09000014,Pound House,62a Highgate High Street,,Highgate,E05000272,-0.14625180303447252,528458.0001221001,51.57039593756117,187406.00012210011,Haringey,Jewellery design,E09000014,11/27/2022
Haringey,,Jonathan Lerer Ltd,200002506415,E09000014,26 Belmont Road,,,West Green,E05000282,-0.0924265148145691,532139.0001221001,51.58714245811485,189364.00012210011,Haringey,Jewellery design,E09000014,11/27/2022
Haringey,,M/G Jewellery Ltd,10022939575,E09000014,"Unit 5, C. City, 39 - 41",Markfield Road,,Tottenham Green,E05000280,-0.06336880748883929,534165.0001221001,51.582619381070664,188914.00012210011,Haringey,Jewellery design,E09000014,11/27/2022
Haringey,,Tanospitfire&Co Ltd,100023164907,E09000014,5b Gloucester Road,,,Bruce Grove,E05000268,-0.08026586130982308,532977.0001221001,51.588616930541136,189550.00012210011,Haringey,Jewellery design,E09000014,11/27/2022
Haringey,,Verita Designs Limited,100023164097,E09000014,393 Lordship Lane,,,West Green,E05000282,-0.0885056844028213,532381.0001221001,51.5973132599729,190502.00012210011,Haringey,Jewellery design,E09000014,11/27/2022
Haringey,,Markfield Park,,E09000014,,,,Tottenham Green,E05000280,-0.06287470623267272,534086.3140269897,51.58300451913227,189010.82189535868,Haringey,Legal street art walls,E09000014,11/27/2022
Haringey,http://www.alexandrapalace.com/skate-park/,Alexandra Palace,,E09000014,,,,Alexandra,E05000266,-0.13248098618379253,529228.1036609351,51.59606981730947,190338.0272714194,Haringey,Legal street art walls,E09000014,11/27/2022
Haringey,,The Cause (Regular LGBTQ+ Programming),,,Ashley House,,,,,-0.062176540655198426,534114.0866755542,51.58998341564052,189787.99996935524,Haringey,LGBT+ night time venues,E09000014,11/27/2022
Haringey,,Stroud Green and Harringay Library,100023191010,E09000014,Stapleton Hall Road,,,Stroud Green,E05000279,-0.10480083494715371,531311.0001221001,51.57704541489623,188219.00012210011,Haringey,Libraries,E09000014,11/27/2022
Haringey,,Hornsey Library,10022939468,E09000014,Haringey Park,,,Crouch End,E05000269,-0.1203311709220847,530233.0001221001,51.57776290047537,188271.00012210011,Haringey,Libraries,E09000014,11/27/2022
Haringey,,St Ann's Library,100023153820,E09000014,Cissbury Road,,,St. Ann's,E05000277,-0.08137666242705024,532924.0001221001,51.58041501862387,188636.00012210011,Haringey,Libraries,E09000014,11/27/2022
Haringey,,Marcus Garvey Library,100023153172,E09000014,Philip Lane,,,Tottenham Green,E05000280,-0.07243694735977974,533522.0001221001,51.58767916930498,189460.00012210011,Haringey,Libraries,E09000014,11/27/2022
Haringey,,Muswell Hill Library,100023143844,E09000014,Queens Avenue,,,Fortis Green,E05000270,-0.1417898780822331,528710.0001221001,51.59062358746241,189663.00012210011,Haringey,Libraries,E09000014,11/27/2022
Haringey,,Wood Green Central Library and Customer Services,100023178365,E09000014,High Road,,,Noel Park,E05000275,-0.10805233238827805,531034.0001221001,51.59502191245585,190212.00012210011,Haringey,Libraries,E09000014,11/27/2022
Haringey,,Alexandra Park Library,100023179968,E09000014,Alexandra Park Road,,,Alexandra,E05000266,-0.13520779501435068,529144.0001221001,51.5983344781319,190532.00012210011,Haringey,Libraries,E09000014,11/27/2022
Haringey,,Coombes Croft Library,100023165934,E09000014,High Road,,,Northumberland Park,E05000276,-0.06669786693967332,533874.0001221001,51.60315254497201,191191.00012210011,Haringey,Libraries,E09000014,11/27/2022
Haringey,https://www.downlanestudios.com,Down Lane Studios,100023000000,E09000014,Down Lane Studio,Ashley House,Ashley House,Tottenham Hale,E05000281,-0.06212922482458336,534117.4432018708,51.5899563629862,189785.07911684562,Haringey,Makerspaces,E09000014,11/27/2022
Haringey,http://www.londondarkroom.com,North London Darkroom,10003976077,E09000014,North London Darkroom,Unit 3d,Milmead Industrial Centre,Tottenham Hale,E05000281,-0.05780374008943574,534412.3660406925,51.59152140035551,189967.0191264134,Haringey,Makerspaces,E09000014,11/27/2022
Haringey,https://www.thefashionbox.co.uk/contact,The Fashion Box,100023000000,E09000014,The Fashion Box,Unit 4,718-722 Seven Sister Road,St. Ann's,E05000277,-0.07803631833449517,533043.761794575,51.5804164002186,188695.38105321152,Haringey,Makerspaces,E09000014,11/27/2022
Haringey,https://www.furnells.com,Furnells,10003976593,E09000014,Unit 5 Crusader Industrial Estate,167 Hermitage Road,,Seven Sisters,E05000278,-0.08985252710139154,532349.0001221001,51.576227424294935,188155.00012210011,Haringey,Making and manufacturing,E09000014,11/27/2022
Haringey,http://www.haringey.gov.uk/leisure/brucecastlemuseum,Bruce Castle Museum,100023552396,E09000014,Bruce Castle Museum,Lordship Lane,NA,White Hart Lane,E05000283,-0.07384980307535736,533392.0001221001,51.59864748331867,190677.00012210011,Haringey,Museums and public galleries,E09000014,11/27/2022
Haringey,,Craft Productions Ltd,100000000000,E09000014,26 Pemberton Road,,,Harringay,E05000271,-0.10217453403429216,531485.000122197,51.57979994465002,188530.00012159348,Haringey,Music (office based businesses),E09000014,11/27/2022
Haringey,,Around The Way Music Publishing Ltd,100000000000,E09000014,43 Inderwick Road,,,Stroud Green,E05000279,-0.11262668801287452,530765.000122197,51.578376688711806,188353.00012159348,Haringey,Music (office based businesses),E09000014,11/27/2022
Haringey,,Moorish Music Ltd,100000000000,E09000014,1 Pemberton Road,,,Harringay,E05000271,-0.10330589592815546,531406.000122197,51.580016095452756,188552.00012159348,Haringey,Music (office based businesses),E09000014,11/27/2022
Haringey,,Cfn Records Ltd,100000000000,E09000014,29 Elmar Road,,,Tottenham Green,E05000280,-0.08082887528301093,532951.000122197,51.584165353978236,189054.00012159348,Haringey,Music (office based businesses),E09000014,11/27/2022
Haringey,www.calarecords.com,Cala Records Ltd,10003973212,E09000014,17 Shakespeare Gardens,,,Fortis Green,E05000270,-0.15630504760950378,527717.000122197,51.58622991699489,189149.00012159348,Haringey,Music (office based businesses),E09000014,11/27/2022
Haringey,,R2 Records Ltd,100000000000,E09000014,34 Stanmore Road,,,West Green,E05000282,-0.09476466187287501,531976.000122197,51.587504211310694,189400.00012159348,Haringey,Music (office based businesses),E09000014,11/27/2022
Haringey,,Sintra Records Ltd,100000000000,E09000014,64 Alexandra Gardens,,,Muswell Hill,E05000274,-0.13755511521629007,529008.000122197,51.58896461214888,189486.00012159348,Haringey,Music (office based businesses),E09000014,11/27/2022
Haringey,,Guerrero Records Ltd,100000000000,E09000014,4 Jansons Road,,,Tottenham Green,E05000280,-0.07517625707225958,533330.000122197,51.58845261160655,189541.00012159348,Haringey,Music (office based businesses),E09000014,11/27/2022
Haringey,,Dongola Records Ltd,100000000000,E09000014,52 Dongola Road,,,Bruce Grove,E05000268,-0.07838993236601809,533102.000122197,51.59030398722868,189741.00012159348,Haringey,Music (office based businesses),E09000014,11/27/2022
Haringey,,Bright Pink Records Ltd,100000000000,E09000014,82 Alexandra Road,,,Noel Park,E05000275,-0.10638151090794613,531158.000122197,51.592144029729894,189895.00012159348,Haringey,Music (office based businesses),E09000014,11/27/2022
Haringey,,D'metri Reality Entertainment Records Ltd,100000000000,E09000014,15 Willan Road,,,West Green,E05000282,-0.07890685798063755,533057.000122197,51.59345118809612,190090.00012159348,Haringey,Music (office based businesses),E09000014,11/27/2022
Haringey,,Deaf Fret Management Ltd,10003976660,E09000014,12 Rosebery Mews,Rosebery Road,,Alexandra,E05000266,-0.13631223058171488,529069.000122197,51.59781241641115,190472.00012159348,Haringey,Music (office based businesses),E09000014,11/27/2022
Haringey,,Musicbooky Ltd,100000000000,E09000014,13 Perth Road,,,Woodside,E05000284,-0.09921657377599695,531633.000122197,51.599483790269325,190724.00012159348,Haringey,Music (office based businesses),E09000014,11/27/2022
Haringey,,String Tree Records Ltd,100000000000,E09000014,21 Melrose Avenue,,,Woodside,E05000284,-0.09629592942337292,531834.000122197,51.59991310264017,190777.00012159348,Haringey,Music (office based businesses),E09000014,11/27/2022
Haringey,,Iridescent Music Ltd,100000000000,E09000014,452 White Hart Lane,,,White Hart Lane,E05000283,-0.08729064027130409,532439.000122197,51.606295947503135,191503.00012159348,Haringey,Music (office based businesses),E09000014,11/27/2022
Haringey,,The Cave Studios,,,Unit 58 Millmead Industrial Estate,Mill Mead Road,,,,-0.054204144166729015,534772.8808560967,51.591730799294446,189943.9647416994,Haringey,Music recording studios,E09000014,11/27/2022
Haringey,http://www.thechurchstudios.com/,The Church,,,145H Crouch Hill,Crouch Hill,,,,-0.12200911723553962,530118.6680427939,51.57709242355275,188193.46115639806,Haringey,Music recording studios,E09000014,11/27/2022
Haringey,http://www.snapstudios.co.uk/,Snap Studios,,,167 Hermitage Road,Harringey Warehouse District,,,,-0.08993347776992436,532345.3951248974,51.575537810328576,188078.17464009672,Haringey,Music recording studios,E09000014,11/27/2022
Haringey,https://www.konkstudios.com/,Konk Studios,,,84-86 Tottenham Lane,,,,,-0.11327716172410338,530701.4443254992,51.58482035996706,189068.31873639673,Haringey,Music recording studios,E09000014,11/27/2022
Haringey,http://www.livingstonstudios.co.uk,Livingston Recording Studios Ltd,10003979584,E09000014,Unit 1 Brook Road,,,Noel Park,E05000275,-0.11096530170459042,530838.000122197,51.59302732143208,189985.00012159348,Haringey,Music recording studios,E09000014,11/27/2022
Haringey,www.shockwavestudios.co.uk,Shockwave Studios Ltd,10003972997,E09000014,23 Crown Close,Winkfield Road,,Woodside,E05000284,-0.10220519183383252,531429.000122197,51.598461935181255,190605.00012159348,Haringey,Music recording studios,E09000014,11/27/2022
HARINGEY,www.ballystudios.co.uk,Bally Studios,100023166840,E09000014,Unit 16 Mill Mead Industrial Centre,Mill Mead Road,,Tottenham Hale,E05000281,-0.05459214946353765,534747.0,51.59139579493727,189906.0,Haringey,Music rehearsal studios,E09000014,11/27/2022
Harringay,https://newriverstudios.com/,New River Studios,,,199 Eade Rd,,,,,-0.08638375199308573,532594.7770764977,51.57435312297806,187952.87945569307,Haringey,Music rehearsal studios,E09000014,11/27/2022
Haringey,www.hermitageworksstudios.com,Hermitage Works Studios,100000000000,E09000014,Hermitage Works 7,Vale Grove,,Seven Sisters,E05000278,-0.09133537228446102,532251.000122197,51.5745967474932,187971.00012159348,Haringey,Music rehearsal studios,E09000014,11/27/2022
Haringey,www.apollostudiolondon.com,Apollo Studio London,0,E09000014,Unit 11 Crusader Industrial Estate,Hermitage Road,,Seven Sisters,E05000278,-0.08949295727907322,532375.000122197,51.57585283541907,188114.00012159348,Haringey,Music rehearsal studios,E09000014,11/27/2022
Haringey,www.bonafidestudio.co.uk,Bonafide Studio,10003975672,E09000014,14 The Viaduct,St. James Lane,,Muswell Hill,E05000274,-0.1406346420923596,528798.000122197,51.5877993331242,189351.00012159348,Haringey,Music rehearsal studios,E09000014,11/27/2022
Haringey,www.english-heritage.org.uk/visit/places/kenwood,Kenwood House,10091822697,E09000014,Kenwood House Hampstead Lane,,,Highgate,E05000272,-0.16053928822681002,527463.000122197,51.57218566613714,187580.00012159348,Haringey,Music venues (all),E09000014,11/27/2022
Haringey,,The Boogaloo,100000000000,E09000014,312 Archway Road,,,Highgate,E05000272,-0.1421463573668505,528727.000122197,51.57587097591712,188022.00012159348,Haringey,Music venues (all),E09000014,11/27/2022
Haringey,www.threecompasses.com,Three Compasses,100000000000,E09000014,62 High Street,,,Hornsey,E05000273,-0.11697108061240775,530440.000122197,51.58676546180693,189278.00012159348,Haringey,Music venues (all),E09000014,11/27/2022
Haringey,,The Green Gate Public House,10003976352,E09000014,492 West Green Road,,,West Green,E05000282,-0.09768467999762195,531774.000122197,51.58741668378081,189385.00012159348,Haringey,Music venues (all),E09000014,11/27/2022
Haringey,www.t-chances.com,Tchances Arts & Music Centre,100000000000,E09000014,399 High Road,,,Bruce Grove,E05000268,-0.06930591542811948,533734.000122197,51.58933646485325,189650.00012159348,Haringey,Music venues (all),E09000014,11/27/2022
Haringey,www.alexandrapalace.com,Alexandra Palace,10003974918,E09000014,Alexandra Palace ,,,Alexandra,E05000266,-0.12891729600467408,529592.000122197,51.59398044927847,190059.00012159348,Haringey,Music venues (all),E09000014,11/27/2022
Haringey,www.antwerparms.co.uk,Antwerp Arms,100000000000,E09000014,168-170 Church Road,,,Northumberland Park,E05000276,-0.07302510902238149,533441.000122197,51.60141293929977,190986.00012159348,Haringey,Music venues (all),E09000014,11/27/2022
Haringey,http://proairsoftsupplies.co.uk,Pro Airsoft Supplies,1.00023E+11,E09000014,252 Archway Road,,,Highgate,E05000272,-0.14044895953420497,528849.0001221001,51.574315197662536,187852.00012210011,Haringey,Prop and costume making,E09000014,11/27/2022
Haringey,http://www.setsappeal.co.uk/about/,Sets Appeal Limited,1.00023E+11,E09000014,New River Studios,199 Eade Road,,Seven Sisters,E05000278,-0.08654979517126755,532583.0001221001,51.574446851526986,187963.00012210011,Haringey,Prop and costume making,E09000014,11/27/2022
Haringey,,Maid Of Muswell,,E09000014,121 Alexandra Park Road,Muswell Hill,London,Alexandra,E05000266,-0.13706053363641463,529016.0001221001,51.59822900253004,190517.00012210011,Haringey,Pubs,E09000014,11/27/2022
Haringey,,Miller & Carter,,E09000014,87 Muswell Hill Broadway,Muswell Hill,London,Muswell Hill,E05000274,-0.1432134159818711,528615.0001221001,51.58935106515417,189519.00012210011,Haringey,Pubs,E09000014,11/27/2022
Haringey,,John Baird,,E09000014,122 Fortis Green Road,Muswell Hill,London,Muswell Hill,E05000274,-0.14441223440752424,528531.0001221001,51.58969379209894,189555.00012210011,Haringey,Pubs,E09000014,11/27/2022
Haringey,,Muswell Hillbilly Taproom,,E09000014,14 Avenue Mews,London,Muswell Hill,Muswell Hill,E05000274,-0.14231176245859664,528675.0001221001,51.59021815208353,189617.00012210011,Haringey,Pubs,E09000014,11/27/2022
Haringey,,Roseview Hotel,,E09000014,"2 Queens Avenue, Muswell Hill,",Muswell Hill,London,Fortis Green,E05000270,-0.14320688955826105,528609.0001221001,51.59163529603639,189773.00012210011,Haringey,Pubs,E09000014,11/27/2022
Haringey,,Famous Royal Oak,,E09000014,73 St James's Lane,Muswell Hill,London,Muswell Hill,E05000274,-0.13998170609505609,528843.0001221001,51.58787891975042,189361.00012210011,Haringey,Pubs,E09000014,11/27/2022
Haringey,,Mossy Well,,E09000014,258 Muswell Hill Broadway,London,Muswell Hill,Muswell Hill,E05000274,-0.14047415635369315,528802.0001221001,51.590314955125066,189631.00012210011,Haringey,Pubs,E09000014,11/27/2022
Haringey,,Victoria Stakes,,E09000014,1 Muswell Hill,Muswell Hill,London,Muswell Hill,E05000274,-0.13258368256148778,529358.0001221001,51.586969996048076,189273.00012210011,Haringey,Pubs,E09000014,11/27/2022
Haringey,,Jam in a jar,,E09000014,599 Green Lanes,Hornsey,,Harringay,E05000271,-0.09894941226908434,531695.0001221001,51.58444234512828,189052.00012210011,Haringey,Pubs,E09000014,11/27/2022
Haringey,,Ranelagh,,E09000014,82 Bounds Green Road,London,Bounds Green,Bounds Green,E05000267,-0.12386135543448126,529904.0001221001,51.60734493364153,191554.00012210011,Haringey,Pubs,E09000014,11/27/2022
Haringey,,Springfield Bar & Grill,,E09000014,133 Bounds Green Road,New Southgate,London,Bounds Green,E05000267,-0.1210469760140302,530106.0001221001,51.60484469878351,191281.00012210011,Haringey,Pubs,E09000014,11/27/2022
Haringey,,K K Mccools,,E09000014,265 West Green Road,South Tottenham,London,St. Ann's,E05000277,-0.08731509002708096,532497.0001221001,51.58578217325003,189222.00012210011,Haringey,Pubs,E09000014,11/27/2022
Haringey,,Green Gate,,E09000014,492 West Green Road,South Tottenham,London,West Green,E05000282,-0.09691986215132924,531828.0001221001,51.587062529235354,189347.00012210011,Haringey,Pubs,E09000014,11/27/2022
Haringey,,Five Miles,,E09000014,39b Markfield Road,South Tottenham,London,Tottenham Green,E05000280,-0.0631318786813678,534181.0001221001,51.582759367051516,188930.00012210011,Haringey,Pubs,E09000014,11/27/2022
Haringey,,Mannions Prince Arthur,,E09000014,158 Broad Lane,South Tottenham,London,Tottenham Green,E05000280,-0.06269448769424732,534207.0001221001,51.58421809423599,189093.00012210011,Haringey,Pubs,E09000014,11/27/2022
Haringey,,Fountain,,E09000014,125 West Green Road,South Tottenham,London,Tottenham Green,E05000280,-0.07671582693367551,533235.0001221001,51.584475737169974,189096.00012210011,Haringey,Pubs,E09000014,11/27/2022
Haringey,,True Craft,,E09000014,68 West Green Road,London,South Tottenham,Tottenham Green,E05000280,-0.07372539876895805,533444.0001221001,51.58384210334165,189031.00012210011,Haringey,Pubs,E09000014,11/27/2022
Haringey,,No.8,,E09000014,618 Seven Sisters Road,South Tottenham,London,Seven Sisters,E05000278,-0.08040385783817786,532999.0001221001,51.57780897055355,188348.00012210011,Haringey,Pubs,E09000014,11/27/2022
Haringey,,Balabam,,E09000014,58 High Road,South Tottenham,London,Seven Sisters,E05000278,-0.07110020954563705,533646.0001221001,51.57697288012069,188272.00012210011,Haringey,Pubs,E09000014,11/27/2022
Haringey,,Dutch House,,E09000014,148 High Road,South Tottenham,London,Seven Sisters,E05000278,-0.07079054832437892,533660.0001221001,51.579512961780466,188555.00012210011,Haringey,Pubs,E09000014,11/27/2022
Haringey,,No.8,,E09000014,724 High Road,Tottenham,London,Northumberland Park,E05000276,-0.06572176729789507,533946.0001221001,51.60165253046008,191026.00012210011,Haringey,Pubs,E09000014,11/27/2022
Haringey,,Coach & Horses,,E09000014,862 High Road,Tottenham,London,Northumberland Park,E05000276,-0.06620941884212088,533898.0001221001,51.60649008417328,191563.00012210011,Haringey,Pubs,E09000014,11/27/2022
Haringey,,Bill Nicholson,,E09000014,102 Northumberland Park,Tottenham,London,Northumberland Park,E05000276,-0.05975400554916386,534349.0001221001,51.60511545050902,191422.00012210011,Haringey,Pubs,E09000014,11/27/2022
Haringey,,New Moon,,E09000014,413 Lordship Lane,Tottenham,London,West Green,E05000282,-0.0896453322147574,532302.0001221001,51.59734081131954,190503.00012210011,Haringey,Pubs,E09000014,11/27/2022
Haringey,,Ship,,E09000014,499 High Road,Tottenham,London,Bruce Grove,E05000268,-0.06839563932468508,533788.0001221001,51.59241525818235,189994.00012210011,Haringey,Pubs,E09000014,11/27/2022
Haringey,,Elbow Room,,E09000014,503-505 High Road,Tottenham,London,Bruce Grove,E05000268,-0.06839563932468508,533788.0001221001,51.59241525818235,189994.00012210011,Haringey,Pubs,E09000014,11/27/2022
Haringey,,Elmhurst,,E09000014,131 Lordship Lane,London,Tottenham,Bruce Grove,E05000268,-0.07488507500593113,533323.0001221001,51.59772914598609,190573.00012210011,Haringey,Pubs,E09000014,11/27/2022
Haringey,,Antwerp Arms,,E09000014,168-170 Church Road,London,Tottenham,Northumberland Park,E05000276,-0.07302510902358691,533441.0001221001,51.60141293930434,190986.00012210011,Haringey,Pubs,E09000014,11/27/2022
Haringey,,Bricklayers Arms,,E09000014,803-805 High Road,Tottenham,London,Northumberland Park,E05000276,-0.06688190689110489,533854.0001221001,51.60561979919515,191465.00012210011,Haringey,Pubs,E09000014,11/27/2022
Haringey,,Beehive,,E09000014,Stoneleigh Road,London,Tottenham,Tottenham Hale,E05000281,-0.06706872398164516,533877.0001221001,51.593400683649634,190106.00012210011,Haringey,Pubs,E09000014,11/27/2022
Haringey,,Volunteer,,E09000014,131 Chesnut Road,Tottenham,London,Tottenham Hale,E05000281,-0.06295932358403321,534172.0001221001,51.58987041038928,189721.00012210011,Haringey,Pubs,E09000014,11/27/2022
Haringey,,High Cross,,E09000014,350 High Road,London,Tottenham,Tottenham Hale,E05000281,-0.06811455647386448,533818.0001221001,51.58883120600519,189596.00012210011,Haringey,Pubs,E09000014,11/27/2022
Haringey,,Ferry Boat Inn,,E09000014,Ferry Lane,London,Tottenham,Tottenham Hale,E05000281,-0.05343127903710395,534840.0001221001,51.58714058262011,189435.00012210011,Haringey,Pubs,E09000014,11/27/2022
Haringey,,Brewheadz,,E09000014,"Unit 16a, Rosebery Industrial Park",Tottenham,London,Tottenham Hale,E05000281,-0.056024091390832496,534636.0001221001,51.59539467215591,190348.00012210011,Haringey,Pubs,E09000014,11/27/2022
Haringey,,Bluecoats,,E09000014,614 High Road,London,Tottenham,Tottenham Hale,E05000281,-0.06673106142940582,533894.0001221001,51.595571554577276,190348.00012210011,Haringey,Pubs,E09000014,11/27/2022
Haringey,,Victoria,,E09000014,34 Scotland Green,Tottenham,London,Tottenham Hale,E05000281,-0.06625509850374421,533925.0001221001,51.596238226678956,190423.00012210011,Haringey,Pubs,E09000014,11/27/2022
Haringey,,Two Brewers,,E09000014,42 Scotland Green,Tottenham,London,Tottenham Hale,E05000281,-0.06625509850374421,533925.0001221001,51.596238226678956,190423.00012210011,Haringey,Pubs,E09000014,11/27/2022
Haringey,,Welcome Inn,,E09000014,451 Lordship Lane,Wood Green,London,Noel Park,E05000275,-0.09310418930206588,532062.0001221001,51.59750498887071,190515.00012210011,Haringey,Pubs,E09000014,11/27/2022
Haringey,,Nag's Head,,E09000014,203 High Road,Wood Green,London,Noel Park,E05000275,-0.10856829390486122,530994.0001221001,51.59650515968859,190376.00012210011,Haringey,Pubs,E09000014,11/27/2022
Haringey,,Spouters Corner,,E09000014,"Unit 5, Spouter's Corner, 180 High Rd",Wood Green,London,Noel Park,E05000275,-0.10707162373491799,531098.0001221001,51.59638209897921,190365.00012210011,Haringey,Pubs,E09000014,11/27/2022
Haringey,,Westbury,,E09000014,57 Westbury Avenue,Wood Green,London,Noel Park,E05000275,-0.09620881064661219,531859.0001221001,51.593364429929984,190049.00012210011,Haringey,Pubs,E09000014,11/27/2022
Haringey,,Karamel,,E09000014,4 Coburg Road,London,Wood Green,Noel Park,E05000275,-0.11148677961452319,530800.0001221001,51.59368324507435,190057.00012210011,Haringey,Pubs,E09000014,11/27/2022
Haringey,,Duke Of Edinburgh,,E09000014,83 Mayes Road,London,Wood Green,Noel Park,E05000275,-0.1113529591467408,530807.0001221001,51.59447251709349,190145.00012210011,Haringey,Pubs,E09000014,11/27/2022
Haringey,,Jolly Anglers,,E09000014,33 Station Road,Wood Green,London,Noel Park,E05000275,-0.10996520092130567,530898.0001221001,51.596248868692925,190345.00012210011,Haringey,Pubs,E09000014,11/27/2022
Haringey,,Phoenix,,E09000014,"Palm Court Entrance, Alexandra Palace, Alexandra Park",London,Wood Green,Alexandra,E05000266,-0.1289172960058847,529592.0001221001,51.59398044928303,190059.00012210011,Haringey,Pubs,E09000014,11/27/2022
Haringey,,Park Inn,,E09000014,12 Palace Gates Road,Wood Green,London,Alexandra,E05000266,-0.12092336054633009,530133.0001221001,51.59839441434692,190564.00012210011,Haringey,Pubs,E09000014,11/27/2022
Haringey,,Starting Gate,,E09000014,Station Road,London,Wood Green,Bounds Green,E05000267,-0.11809049195606527,530331.0001221001,51.5977554515033,190498.00012210011,Haringey,Pubs,E09000014,11/27/2022
Haringey,,Monaghan's Tavern,,E09000014,235-239 High Road,Wood Green,London,Woodside,E05000284,-0.10944071279799764,530930.0001221001,51.59775132350415,190513.00012210011,Haringey,Pubs,E09000014,11/27/2022
Haringey,,Lord Nelson,,E09000014,232-234 High Road,Wood Green,London,Woodside,E05000284,-0.10869739635109403,530982.0001221001,51.5975684702595,190494.00012210011,Haringey,Pubs,E09000014,11/27/2022
Haringey,,Step,,E09000014,101 Myddleton Road,Wood Green,London,Bounds Green,E05000267,-0.11629818628304824,530432.0001221001,51.60582080746732,191398.00012210011,Haringey,Pubs,E09000014,11/27/2022
Haringey,,Bohem Brewery Tap Room,,E09000014,120a Myddleton Rd,London,Bowes Park,Bounds Green,E05000267,-0.11674815932052307,530400.0001221001,51.6061158193655,191430.00012210011,Haringey,Pubs,E09000014,11/27/2022
Haringey,,Prince,,E09000014,1 Finsbury Road,London,Wood Green,Bounds Green,E05000267,-0.11477989884067287,530548.0001221001,51.60202817005628,190979.00012210011,Haringey,Pubs,E09000014,11/27/2022
Haringey,,Clissold Arms,,E09000014,105 Fortis Green,East Finchley,London,Fortis Green,E05000270,-0.1528803217503302,527943.0001221001,51.59022310278666,189599.00012210011,Haringey,Pubs,E09000014,11/27/2022
Haringey,,Brouhaha,,E09000014,499-501 Green Lanes,Finsbury Park,London,Harringay,E05000271,-0.09818599449817964,531759.0001221001,51.58059874100635,188626.00012210011,Haringey,Pubs,E09000014,11/27/2022
Haringey,,Beaconsfield,,E09000014,357 Green Lanes,Finsbury Park,London,Harringay,E05000271,-0.09720232254286783,531842.0001221001,51.57546548451097,188057.00012210011,Haringey,Pubs,E09000014,11/27/2022
Haringey,,Old Ale Emporium,,E09000014,405 Green Lanes,Finsbury Park,London,Harringay,E05000271,-0.09751669509670863,531815.0001221001,51.57726928529955,188257.00012210011,Haringey,Pubs,E09000014,11/27/2022
Haringey,,Salisbury,,E09000014,"1 Grand Parade, Green Lanes",London,Harringay,St. Ann's,E05000277,-0.09777977646390978,531785.0001221001,51.58133861730508,188709.00012210011,Haringey,Pubs,E09000014,11/27/2022
Haringey,,Twelve Pins,,E09000014,263 Seven Sisters Road,Finsbury Park,London,Harringay,E05000271,-0.10343566187266427,531441.0001221001,51.56476519524805,186856.00012210011,Haringey,Pubs,E09000014,11/27/2022
Haringey,,Faltering Fullback,,E09000014,19 Perth Road,Finsbury Park,London,Stroud Green,E05000279,-0.10698917894061884,531185.0001221001,51.5681501878181,187226.00012210011,Haringey,Pubs,E09000014,11/27/2022
Haringey,,Nicholas Nickleby,,E09000014,6 Ferme Park Road,Finsbury Park,Stroud Green,Stroud Green,E05000279,-0.11140548850430697,530861.0001221001,51.57440889308629,187914.00012210011,Haringey,Pubs,E09000014,11/27/2022
Haringey,,Wrestlers,,E09000014,98 North Road,Highgate,London,Highgate,E05000272,-0.14774271533810285,528345.0001221001,51.57383699958519,187786.00012210011,Haringey,Pubs,E09000014,11/27/2022
Haringey,,Bull,,E09000014,13 North Hill,London,Highgate,Highgate,E05000272,-0.1493421146077259,528231.0001221001,51.57496843296193,187909.00012210011,Haringey,Pubs,E09000014,11/27/2022
Haringey,,Gatehouse,,E09000014,1 North Road,London,Highgate,Highgate,E05000272,-0.14874856012861198,528282.0001221001,51.57146061390051,187520.00012210011,Haringey,Pubs,E09000014,11/27/2022
Haringey,,Red Lion & Sun,,E09000014,25 North Road,Highgate,London,Highgate,E05000272,-0.14851686670590344,528295.0001221001,51.572545166689736,187641.00012210011,Haringey,Pubs,E09000014,11/27/2022
Haringey,,Highgate,,E09000014,385 Archway Road,Highgate,London,Highgate,E05000272,-0.14740734819580534,528357.0001221001,51.57782479962998,188230.00012210011,Haringey,Pubs,E09000014,11/27/2022
Haringey,,Boogaloo,,E09000014,312 Archway Road,Highgate,London,Highgate,E05000272,-0.1425695594475376,528697.0001221001,51.576111506198394,188048.00012210011,Haringey,Pubs,E09000014,11/27/2022
Haringey,,Duke's Head,,E09000014,16 Highgate High Street,London,Highgate,Highgate,E05000272,-0.14496364596017403,528548.0001221001,51.57013275424239,187379.00012210011,Haringey,Pubs,E09000014,11/27/2022
Haringey,,Woodman,,E09000014,414 Archway Road,London,Highgate,Highgate,E05000272,-0.14532764815385035,528503.0001221001,51.57714441594981,188158.00012210011,Haringey,Pubs,E09000014,11/27/2022
Haringey,,Toll Gate,,E09000014,26-30 Turnpike Lane,Hornsey,London,Noel Park,E05000275,-0.10428761203106035,531311.0001221001,51.5893762019038,189591.00012210011,Haringey,Pubs,E09000014,11/27/2022
Haringey,,Wellington,,E09000014,679 Green Lanes,Hornsey,London,Harringay,E05000271,-0.09944023722408611,531657.0001221001,51.585826301660695,189205.00012210011,Haringey,Pubs,E09000014,11/27/2022
Haringey,,Hope & Anchor,,E09000014,128 Tottenham Lane,Hornsey,London,Hornsey,E05000273,-0.11487983108138078,530594.0001221001,51.583575171958245,188927.00012210011,Haringey,Pubs,E09000014,11/27/2022
Haringey,,Three Compasses,,E09000014,62 High Street,Hornsey,London,Hornsey,E05000273,-0.11786187632651737,530378.0001221001,51.58686968811525,189288.00012210011,Haringey,Pubs,E09000014,11/27/2022
Haringey,,Tav,,E09000014,18 Hornsey High St,London,Hornsey,Hornsey,E05000273,-0.11920109785734555,530286.0001221001,51.58660337006579,189256.00012210011,Haringey,Pubs,E09000014,11/27/2022
Haringey,,Great Northern Railway Tavern,,E09000014,67 High Street,Hornsey,London,Hornsey,E05000273,-0.11496325009408817,530577.0001221001,51.58748867646691,189362.00012210011,Haringey,Pubs,E09000014,11/27/2022
Haringey,,Kings Head,,E09000014,2 Crouch End Hill,London,Crouch End,Crouch End,E05000269,-0.12307189762545434,530044.0001221001,51.57745602879905,188232.00012210011,Haringey,Pubs,E09000014,11/27/2022
Haringey,,Railway Tavern,,E09000014,23 Crouch End Hill,Hornsey,Crouch End,Crouch End,E05000269,-0.12277011119722572,530066.0001221001,51.577073474556265,188190.00012210011,Haringey,Pubs,E09000014,11/27/2022
Haringey,,Princess Alexandra,,E09000014,120 Park Road,Hornsey,Crouch End,Muswell Hill,E05000274,-0.1259598428036198,529830.0001221001,51.58234068059098,188770.00012210011,Haringey,Pubs,E09000014,11/27/2022
Haringey,,Priory,,E09000014,169 Priory Road,Hornsey,Crouch End,Muswell Hill,E05000274,-0.13127850126765456,529449.0001221001,51.586760355205385,189252.00012210011,Haringey,Pubs,E09000014,11/27/2022
Haringey,,Small Beer,,E09000014,"22 Topsfield Parade, Tottenham Lane",Hornsey,Crouch End,Crouch End,E05000269,-0.12076658769097429,530195.0001221001,51.58050389390974,188575.00012210011,Haringey,Pubs,E09000014,11/27/2022
Haringey,,Maynard Arms,,E09000014,70 Park Road,Crouch End,London,Muswell Hill,E05000274,-0.12453462938278768,529932.0001221001,51.581193725015794,188645.00012210011,Haringey,Pubs,E09000014,11/27/2022
Haringey,,Kiss the Sky,,E09000014,18-20 Park Road,Hornsey,Crouch End,Crouch End,E05000269,-0.12298408286241759,530042.0001221001,51.58028757055179,188547.00012210011,Haringey,Pubs,E09000014,11/27/2022
Haringey,,Banners,,E09000014,21 Park Road,Hornsey,Crouch End,Crouch End,E05000269,-0.12339281331060739,530014.0001221001,51.58017719305554,188534.00012210011,Haringey,Pubs,E09000014,11/27/2022
Haringey,,Art House,,E09000014,159A Tottenham Lane,Hornsey,London,Crouch End,E05000269,-0.1179663574102373,530386.0001221001,51.58154722401173,188696.00012210011,Haringey,Pubs,E09000014,11/27/2022
Haringey,,Queens,,E09000014,26 Broadway Parade,Hornsey,Crouch End,Crouch End,E05000269,-0.12087539009727098,530189.0001221001,51.579966027523305,188515.00012210011,Haringey,Pubs,E09000014,11/27/2022
Haringey,,Funky Brownz,,E09000014,5 Tottenham Lane,Hornsey,London,Hornsey,E05000273,-0.11053201623248353,530890.0001221001,51.58537588645586,189135.00012210011,Haringey,Pubs,E09000014,11/27/2022
Haringey,,Harringay Arms,,E09000014,153 Crouch Hill,London,Crouch End,Crouch End,E05000269,-0.121743402120348,530138.0001221001,51.57676925201456,188158.00012210011,Haringey,Pubs,E09000014,11/27/2022
Haringey,http://www.manktelow.co.uk,Manktelow Limited,100000000000,E09000014,1a Saxon Road,,,Woodside,E05000284,-0.09533719113814133,531899.0001221001,51.60039218779137,190832.00012210011,Haringey,Set and exhibition building,E09000014,11/27/2022
Haringey,http://www.setbuilduk.com,Setbuild Limited,100000000000,E09000014,Unit 4D Triumph Trading Estate,Tariff Road,,Northumberland Park,E05000276,-0.05788559442624592,534475.0001221001,51.60625370335427,191552.00012210011,Haringey,Set and exhibition building,E09000014,11/27/2022
Haringey,http://www.setsappeal.co.uk/about/,Sets Appeal Limited,100000000000,E09000014,New River Studios,199 Eade Road,,Seven Sisters,E05000278,-0.08654979517126755,532583.0001221001,51.574446851526986,187963.00012210011,Haringey,Set and exhibition building,E09000014,11/27/2022
Haringey,,Alexandra-Palace,0,E09000014,,,,Alexandra,E05000266,-0.129270248821777,529564.3991088942,51.595089851414095,190181.7310790941,Haringey,Skate Parks,E09000014,11/27/2022
Haringey,,Finsbury-Park,0,E09000014,,,,Harringay,E05000271,-0.10315842937636535,531453.7766723931,51.566996180402334,187104.56426999718,Haringey,Skate Parks,E09000014,11/27/2022
Haringey,,West-Green,0,E09000014,,,,West Green,E05000282,-0.084385146180658,532673.8176879957,51.594749093185314,190224.3579101935,Haringey,Skate Parks,E09000014,11/27/2022
Haringey,,Muswell-Hill,0,E09000014,,,,Fortis Green,E05000270,-0.15610302938134973,527687.0900878981,51.601881066771305,190889.64172359556,Haringey,Skate Parks,E09000014,11/27/2022
Haringey,http://www.csjf.co.uk/,Cannon Street Jersey Fabrics,10022940861,E09000014,16 Ashley Road,,,Tottenham Hale,E05000281,-0.060285531202125237,534357.0001221001,51.58993416452718,189733.00012210011,Haringey,Textile design,E09000014,11/27/2022
Haringey,http://www.fashion-enter.com,Fashion Enter Ltd,100023183151,E09000014,Unit 14,167 Hermitage Road,,Seven Sisters,E05000278,-0.08973874447377339,532356.0001221001,51.57653135165382,188189.00012210011,Haringey,Textile design,E09000014,11/27/2022
Haringey,http://www.lemonheadprints.co.uk/,Lemon Head Prints,10003979446,E09000014,Unit B003,The  Chocolate Factory,5 Clarendon Road,Noel Park,E05000275,-0.11330483015682014,530673.0001221001,51.59406323466001,190096.00012210011,Haringey,Textile design,E09000014,11/27/2022
Haringey,www.nlpac.co.uk,NLPAC Performing Arts,10003973500,E09000014,76 St James Lane,Muswell Hill,,Muswell Hill,E05000274,-0.139610629108704,528756.8650235271,51.588144692433204,189444.32316059706,Haringey,Theatre rehearsal studio,E09000014,11/27/2022
Haringey,www.jacksonslane.org.uk,Jacksons Lane,100023196841,E09000014,269a Archway Road,,,Highgate,E05000272,-0.1463681108857015,528319.9921018824,51.57710994812624,188205.5914317838,Haringey,Theatre rehearsal studio,E09000014,11/27/2022
Haringey,www.theredhedgehog.co.uk,Red Hedgehog,10022938228,E09000014,255-257 Archway Road,,,Highgate,E05000272,-0.14374742117527436,528504.9527022621,51.5758995211053,188075.62539684784,Haringey,Theatre rehearsal studio,E09000014,11/27/2022
Haringey,https://totalboxer.com/,Total Boxer,200002799682,E09000014,21 Cranford Way,,,Stroud Green,E05000279,-0.1109297954930004,530760.3645135912,51.58215604153271,188829.45239032636,Haringey,Theatre rehearsal studio,E09000014,11/27/2022
Camden,http://lauderdalehouse.org.uk/,Lauderdale House,5132343,E09000007,Waterlow Park, Highgate Hill,NA,Highgate,E05000137,-0.14491124011958625,528440.5108451743,51.570165507552694,187436.0738217046,Haringey,Theatres,E09000014,11/27/2022
Haringey,http://www.upstairsatthegatehouse.com/,Upstairs at The Gatehouse,5166442,E09000014,Highgate Village,NA,NA,Highgate,E05000272,-0.15193565469927509,527947.3611892195,51.57246809026717,187679.7416605156,Haringey,Theatres,E09000014,11/27/2022
Haringey,http://www.theredhedgehog.co.uk/,The Red Hedgehog,100021000000,E09000014,255 - 257 Archway Road, Highgate,NA,Highgate,E05000272,-0.14557858750118682,528375.9791425845,51.57665106807653,188155.96110266278,Haringey,Theatres,E09000014,11/27/2022
Haringey,http://www.alexandrapalace.com/,Alexandra Palace Theatre,10003974918,E09000014,Alexandra Palace, Alexandra Palace Way,NA,Alexandra,E05000266,-0.1321109644549455,529256.8125759473,51.5949839472599,190217.95619697234,Haringey,Theatres,E09000014,11/27/2022
Haringey,https://www.theatren16.co.uk/,Theatre N16 ,10003979036,E09000014,5 Ashley Road,NA,NA,Tottenham Hale,E05000281,-0.06274564864095836,534072.680415642,51.59065970940856,189862.14495268028,Haringey,Theatres,E09000014,11/27/2022
Haringey,NA,Ralph Richardson Memorial Studios ,100021000000,E09000014,Mountview Theatre School, 104 Crouch Hill,NA,Crouch End,E05000269,-0.12348818803030576,529906.4268134837,51.57658776530412,188187.98163087777,Haringey,Theatres,E09000014,11/27/2022
Haringey,https://www.berniegrantcentre.co.uk/,Bernie Grant Arts Centre,10091817474,E09000014,Town Hall Approach Rd, Tottenham Green,NA,Tottenham Green,E05000280,-0.07400867718298278,533300.2656060165,51.58808292873386,189555.06886799302,Haringey,Theatres,E09000014,11/27/2022
Haringey,https://www.jacksonslane.org.uk/,Jacksons Lane,100023000000,E09000014,269A Archway Rd, Highgate,NA,Highgate,E05000272,-0.14797529212998115,528207.2419546065,51.577612608047424,188258.6538831847,Haringey,Theatres,E09000014,11/27/2022
Haringey,NA,Arthouse,100023000000,E09000014,159A Tottenham Lane,NA,NA,Hornsey,E05000273,-0.12154866956516953,530024.3444236105,51.582338135018,188830.75117713393,Haringey,Theatres,E09000014,11/27/2022
