borough_name,website,site_name,os_addressbase_uprn,borough_code,address1,address2,address3,ward_2018_name,ward_2018_code,longitude,easting,latitude,northing,BOROUGH,Cultural Venue Type,gss_code,runtime
Harrow,https://www.harrowschool.org.uk/The-Archive,Harrow School Archives,10070266096,E09000015,5 High Street,Harrow on the Hill,,Harrow on the Hill,E05000289,-0.3373830230332402,515099.8192672474,51.5722820843308,187350.44403590448,Harrow,Archives,E09000015,11/27/2022
Harrow,http://www.salvatorians.com/,Society of the Divine Saviour (Salvatorians),100023000000,E09000015,129 Spencer Road,Harrow Weald,,Wealdstone,E05000304,-0.3373896868539994,515028.89807600575,51.60015880621216,190449.91349443927,Harrow,Archives,E09000015,11/27/2022
Harrow,https://www.nlcs.org.uk/,North London Collegiate School,200000000000,E09000015,Canons Drive ,Edgware,,Canons,E05000286,-0.29470109982720466,517948.27324458817,51.61417689035562,192076.59629180084,Harrow,Archives,E09000015,11/27/2022
Harrow,http://www.harrow.gov.uk/info/100009/leisure_and_culture/183/harrow_local_history_centre,Harrow Local History Collection,200000000000,E09000015,Headstone Manor and Museum Pinner View,Harrow,,Headstone North,E05000292,-0.35261308223347515,513990.1061372784,51.59406081511603,189748.0404308905,Harrow,Archives,E09000015,11/27/2022
Harrow,www.usurp.org.uk,,200000000000,E09000015,Usurp Art,140 Vaughan Road,,West Harrow,E05000305,-0.3493606728198522,514253.0225246992,51.579042533493386,188083.290677669,Harrow,Artists workspaces,E09000015,11/27/2022
Brent,www.acava.org,Honeypot Lane,202208355,E09000005,"1-2 Palm Court, 1-2 Tulip Court, 1 Acacia Court",,,Queensbury,E05000099,-0.28381962272148176,518763.11430707236,51.59056613948688,189469.09879502543,Harrow,Artists workspaces,E09000015,11/27/2022
Harrow,www.acava.org,Whitefriars Avenue,100021000000,E09000015,Winsor & Newton Building,Whitefrairs Avenue,,Wealdstone,E05000304,-0.34039283106657015,514824.9382851585,51.598582672561434,190269.94489080674,Harrow,Artists workspaces,E09000015,11/27/2022
Harrow,https://harrowarts.com/,Harrow Arts Centre ,200000319916,E09000015,171 Uxbridge Road,Hatch End,,Hatch End,E05000291,-0.3638031612556714,513179.3026930188,51.60848854476744,191334.81759205525,Harrow,Arts centres,E09000015,11/27/2022
Harrow,,Vue Harrow,200000313205,E09000015,,St Anns Road,,Greenhill,E05000288,-0.33738970734283125,515187.0001221001,51.58096726765581,188263.00012210011,Harrow,Cinemas,E09000015,11/27/2022
Harrow,http://www.usurp.org.uk/exhibitions/#,Usurp,100021292207,E09000015,140 Vaughan Road,NA,NA,West Harrow,E05000305,-0.347784663372473,514472.9600829929,51.57854553008754,187977.3900756985,Harrow,Commercial galleries,E09000015,11/27/2022
Harrow,http://www.harrow.gov.uk/info/200244/housing_portal/1668/community_centre_halls,Marsh Road Community Centre,10070270312,E09000015,Marsh Road,Harrow,NA,Pinner South,E05000298,-0.3764287397980158,512463.67010499537,51.5885964847417,189050.55010989308,Harrow,Community centres,E09000015,11/27/2022
Harrow,http://www.harrow.gov.uk/info/200244/housing_portal/1668/community_centre_halls,Pinner Hill Hall,200004435039,E09000015,Pinner Hill Road,Harrow,NA,Pinner,E05000297,-0.3959778896682614,511077.0001221001,51.60195441057964,190506.00012210011,Harrow,Community centres,E09000015,11/27/2022
Harrow,http://www.harrow.gov.uk/info/200244/housing_portal/1668/community_centre_halls,Kenmore Park Hall,200000311926,E09000015,Warneford Road,Harrow,NA,Kenton East,E05000294,-0.29658927311367317,517983.0001221001,51.592738850918366,189637.00012210011,Harrow,Community centres,E09000015,11/27/2022
Harrow,http://www.harrow.gov.uk/info/200244/housing_portal/1668/community_centre_halls,Bede Anandappa Centre,200000306195,E09000015,Binyon Crescent,Harrow,NA,Stanmore Park,E05000303,-0.3308510128263924,515553.0001221001,51.61521956704939,192082.00012210011,Harrow,Community centres,E09000015,11/27/2022
Harrow,http://www.harrow.gov.uk/info/200244/housing_portal/1668/community_centre_halls,Northolt Road Hall,10094042923,E09000015,Northolt Road,Harrow,NA,Harrow on the Hill,E05000289,-0.34595216788423533,514627.0001221001,51.567778273578355,186783.00012210011,Harrow,Community centres,E09000015,11/27/2022
Harrow,,Savoy Court Community Centre,10070262953,E09000015,Station Road,Harrow,NA,Headstone South,E05000293,-0.3590839384844344,513671.1500854939,51.58615586143091,188805.99011229724,Harrow,Community centres,E09000015,11/27/2022
Harrow,http://www.harrow.gov.uk/info/200244/housing_portal/1668/community_centre_halls,Grange Farm Community Centre,100023029639,E09000015,65 Osmond Close,Harrow,NA,Harrow on the Hill,E05000289,-0.3491289875785048,514406.0001221001,51.56811979141418,186816.00012210011,Harrow,Community centres,E09000015,11/27/2022
Harrow,http://www.harrow.gov.uk/info/200244/housing_portal/1668/community_centre_halls,Churchill Place Hall,100023026872,E09000015,Sandridge Close,Harrow,NA,Marlborough,E05000296,-0.3339054765648596,515404.0001221001,51.59058558131898,189338.00012210011,Harrow,Community centres,E09000015,11/27/2022
Harrow,http://www.harrow.gov.uk/info/200244/housing_portal/1668/community_centre_halls,Julie Cook Hall,10000001851,E09000015,Augustine Road,Harrow,NA,Hatch End,E05000291,-0.35326641420668276,514034.0001221001,51.602172301817795,190596.00012210011,Harrow,Community centres,E09000015,11/27/2022
Harrow,,Beacon Centre Harrow,10000005511,E09000015,Scott Crescent,Harrow,NA,Roxbourne,E05000301,-0.35993055062864626,513652.0001221001,51.57032262738029,187044.1000976935,Harrow,Community centres,E09000015,11/27/2022
Harrow,http://www.harrow.gov.uk/info/200244/housing_portal/1668/community_centre_halls,Brookside Hall,200000320386,E09000015,Brookside Hall, Brookside Close, Harrow,Roxbourne,E05000301,-0.3776962957901282,512446.0001221001,51.56017253798592,185888.00012210011,Harrow,Community centres,E09000015,11/27/2022
Harrow,www.usurp.org.uk,Usurp Art,100021292207,E09000015,Usurp Art,Usurp Art,140 Vaughan Road,,,-0.347784663372473,514472.9600829929,51.57854553008754,187977.3900756985,Harrow,Creative workspaces,E09000015,11/27/2022
Harrow,https://www.pinnervillagehall.org.uk,Pinner Village Hall,200000320298,E09000015,11 Chapel Lane,,,Pinner South,E05000298,-0.384014347429379,511817.562565395,51.59325662585529,189610.10382156254,Harrow,Dance performance venues,E09000015,11/27/2022
Harrow,,Harrow Arts Centre,200000319916,E09000015,171 Uxbridge Road,,,Hatch End,E05000291,-0.3638031612556714,513179.3026930188,51.60848854476744,191334.81759205525,Harrow,Dance performance venues,E09000015,11/27/2022
Harrow,http://www.candoco.co.uk,Candoco Dance Company,10070269989,E09000015,2 Wood Lane,,,Canons,E05000286,-0.31023884034235716,516831.48248720623,51.63024680136543,193838.37832748814,Harrow,Dance performance venues,E09000015,11/27/2022
Harrow,https://www.pinnervillagehall.org.uk,Pinner Village Hall,200000320298,E09000015,11 Chapel Lane,,,Pinner South,E05000298,-0.384014347429379,511817.562565395,51.59325662585529,189610.10382156254,Harrow,Dance rehearsal studios,E09000015,11/27/2022
Harrow,,Harrow Arts Centre,200000319916,E09000015,171 Uxbridge Road,,,Hatch End,E05000291,-0.3638031612556714,513179.3026930188,51.60848854476744,191334.81759205525,Harrow,Dance rehearsal studios,E09000015,11/27/2022
Harrow,http://www.candoco.co.uk,Candoco Dance Company,10070269989,E09000015,2 Wood Lane,,,Canons,E05000286,-0.31023884034235716,516831.48248720623,51.63024680136543,193838.37832748814,Harrow,Dance rehearsal studios,E09000015,11/27/2022
Harrow,,B.Stossel Limited,10091970067,E09000015,Unit 3 1st Floor North,Cavendish House,,Edgware,E05000287,-0.2740071110805417,519511.0001221001,51.606447411759085,191198.00012210011,Harrow,Jewellery design,E09000015,11/27/2022
Harrow,,Bentley & Co Jewellery Limited,10091797300,E09000015,Avondale House,262 Uxbridge Road,,Hatch End,E05000291,-0.37153633524896085,512755.0001221001,51.60778714867404,191192.00012210011,Harrow,Jewellery design,E09000015,11/27/2022
Harrow,,Clara Betsy Limited,200004436156,E09000015,Handel House,95 High Street,,Canons,E05000286,-0.2785864315926123,519183.0001221001,51.610624587342734,191655.00012210011,Harrow,Jewellery design,E09000015,11/27/2022
Harrow,http://www.danjewellers.co.uk,Dan Jewellers Limited,200004434880,E09000015,Kenton House,666 Kenton Road,,Kenton East,E05000294,-0.28466714914061947,518828.0001221001,51.58534358674923,188834.00012210011,Harrow,Jewellery design,E09000015,11/27/2022
Harrow,http://www.diamco.co.uk,Diamco Limited,10070266436,E09000015,28 Church Road,Stanmore,,Stanmore Park,E05000303,-0.31048353309031107,516959.0001221001,51.616744799618104,192284.00012210011,Harrow,Jewellery design,E09000015,11/27/2022
Harrow,,Griffin of London Limited,10091093486,E09000015,7 Jardine House,Harrovian Business Village,,Greenhill,E05000288,-0.34009637323578656,515008.0001221001,51.57759714726773,187884.00012210011,Harrow,Jewellery design,E09000015,11/27/2022
Harrow,,JAY Shree Krishna Limited,100023543496,E09000015,10 Station Parade,Northolt Road,,Roxeth,E05000302,-0.35952124830141935,513711.0001221001,51.558040230034386,185679.00012210011,Harrow,Jewellery design,E09000015,11/27/2022
Harrow,http://www.katemc.net,Kate Mclauchlan Gemstone Traders Limited,10091970067,E09000015,"Cavendish House, Unit 2",Ground Floor,,Edgware,E05000287,-0.2740071110805417,519511.0001221001,51.606447411759085,191198.00012210011,Harrow,Jewellery design,E09000015,11/27/2022
Harrow,http://www.krystallondon.com,Krystal London Limited,100023027326,E09000015,Unit 7,Phoenix Industrial Estate,,Greenhill,E05000288,-0.32769996182273325,515840.0001221001,51.588150081308825,189077.00012210011,Harrow,Jewellery design,E09000015,11/27/2022
Harrow,,Millennium Jewellery Limited,10091970067,E09000015,Unit 3 1st Floor North,Cavendish House,,Edgware,E05000287,-0.2740071110805417,519511.0001221001,51.606447411759085,191198.00012210011,Harrow,Jewellery design,E09000015,11/27/2022
Harrow,,Orama London Ltd,10002293948,E09000015,79 College Road,Harrow,,Greenhill,E05000288,-0.3354414473320482,515326.0001221001,51.57937482292337,188089.00012210011,Harrow,Jewellery design,E09000015,11/27/2022
Harrow,,The Small Luxuries Trading Company Limited,10070270205,E09000015,35-37 Lowlands Road,Harrow,,Greenhill,E05000288,-0.33803600843148984,515147.0001221001,51.57907884880105,188052.00012210011,Harrow,Jewellery design,E09000015,11/27/2022
Harrow,,Roxeth,200000307802,E09000015,Northolt Road,Harrow,,Roxeth,E05000302,-0.3549594069565142,514017.0001221001,51.56211325217232,186139.00012210011,Harrow,Libraries,E09000015,11/27/2022
Harrow,,Gayton,10070263324,E09000015,St Johns Road,Harrow,,Greenhill,E05000288,-0.3302018743467672,515684.4000854939,51.58118266819803,188298.30010989308,Harrow,Libraries,E09000015,11/27/2022
Harrow,,Pinner,100023037203,E09000015,Marsh Road,Pinner,,Pinner South,E05000298,-0.3789120758243705,512285.98010249436,51.590900515380305,189302.93011479825,Harrow,Libraries,E09000015,11/27/2022
Harrow,,Kenton,200000313248,E09000015,Kenton Lane,Harrow,,Kenton West,E05000295,-0.30967833691774194,517078.0001221001,51.59214569465262,189550.00012210011,Harrow,Libraries,E09000015,11/27/2022
Harrow,,Wealdstone,200004437046,E09000015,High Street,Harrow,,Marlborough,E05000296,-0.3333747977763232,515433.0001221001,51.593644737608095,189679.00012210011,Harrow,Libraries,E09000015,11/27/2022
Harrow,,Stanmore,100023038856,E09000015,Stanmore Hill,Stanmore,,Stanmore Park,E05000303,-0.3100637171809983,516985.0001221001,51.617934854374425,192417.00012210011,Harrow,Libraries,E09000015,11/27/2022
Harrow,www.heathrobinsonmuseum.org,Heath Robinson Museum,10002293329,E09000015,Pinner Memorial Park,West End Lane,Pinner,Pinner South,E05000298,-0.38511177050026807,511853.9401244968,51.59197478991383,189412.88012699783,Harrow,Museums and public galleries,E09000015,11/27/2022
Harrow,http://www.harrow.gov.uk/info/200070/museums_and_galleries/190/harrow_museum,Harrow Museum and Heritage Centre,10002293456,E09000015,Headstone Manor,Pinner View,Â Harrow,Headstone North,E05000292,-0.35350554186854927,514038.0001221001,51.593964863962455,189683.00012210011,Harrow,Museums and public galleries,E09000015,11/27/2022
Harrow,www.bentleypriory.org,Bentley Priory Museum,10091091981,E09000015,Mansion House Drive Stanmore,NA,NA,Stanmore Park,E05000303,-0.33149338620789803,515481.1301269978,51.62601153754884,193281.00012210011,Harrow,Museums and public galleries,E09000015,11/27/2022
Harrow,http://www.harrow.gov.uk/museum,Headstone Manor & Museum (Harrow),200000320113,E09000015,Headstone Manor & Museum,Pinner View,Harrow,Headstone North,E05000292,-0.351051071124473,514209.0001221001,51.59356168151229,189642.00012210011,Harrow,Museums and public galleries,E09000015,11/27/2022
Harrow,www.soundforhealth.com,Sound For Health Ltd,100000000000,E09000015,2 Church Avenue,Harrow,,Rayners Lane,E05000300,-0.3732821835625584,512696.0001221001,51.58278332428045,188409.00012169778,Harrow,Music (office based businesses),E09000015,11/27/2022
Harrow,www.discwizards.com,Disc Wizards Ltd,10002294589,E09000015,59a Palmerston Road,Harrow,,Marlborough,E05000296,-0.3304673721125273,515637.0001221001,51.5926051637786,189568.00012169778,Harrow,Music (office based businesses),E09000015,11/27/2022
Harrow,,Cadillac Music & Publishing Ltd,100000000000,E09000015,3 Scot Grove,Harrow,,Hatch End,E05000291,-0.3832999894558901,511940.0001221001,51.60800372959406,191198.00012169778,Harrow,Music (office based businesses),E09000015,11/27/2022
Harrow,,Bronze Records Ltd,100000000000,E09000015,20 Sunningdale Close,Harrow,,Stanmore Park,E05000303,-0.3189646748290034,516389.0001221001,51.610067696552086,191528.00012169778,Harrow,Music (office based businesses),E09000015,11/27/2022
Harrow,,Waa Waa Records Ltd,100000000000,E09000015,34 Chenduit Way,Harrow,,Stanmore Park,E05000303,-0.32614336831184676,515878.0001221001,51.61556621636378,192128.00012169778,Harrow,Music (office based businesses),E09000015,11/27/2022
Harrow,,Independiente Music Publishing Ltd,100000000000,E09000015,20 Jesmond Way,Harrow,,Canons,E05000286,-0.2900795628242003,518368.0001221001,51.618050134315666,192462.00012169778,Harrow,Music (office based businesses),E09000015,11/27/2022
Harrow,,Mogul Publishing Ltd,100000000000,E09000015,7 Berry Hill,Harrow,,Canons,E05000286,-0.2958440586288972,517961.0001221001,51.62112871247198,192795.00012169778,Harrow,Music (office based businesses),E09000015,11/27/2022
Harrow,,Ten Eight Seven Mastering Ltd,100000000000,E09000015,21 Greenford Road,Harrow,,Harrow On The Hill,E05000289,-0.33161446808423756,515639.0001221001,51.56050656652195,185997.00012169778,Harrow,Music recording studios,E09000015,11/27/2022
Harrow,www.eastcotestudios.co.uk,Eastcote Studios Ltd,100000000000,E09000015,107 Hindes Road,Harrow,,Greenhill,E05000288,-0.3412679261331824,514911.0001221001,51.58387300778116,188580.00012169778,Harrow,Music recording studios,E09000015,11/27/2022
Harrow,www.castle-harrow.co.uk,Castle,100000000000,E09000015,30 West Street,Harrow,,Harrow On The Hill,E05000289,-0.33841371295372596,515140.0001221001,51.571493895661,187208.00012169778,Harrow,Music venues (all),E09000015,11/27/2022
Harrow,www.queensheadpinner.co.uk,Queens Head,10010598042,E09000015,31 High Street,Harrow,,Pinner,E05000297,-0.379138079470401,512263.0001221001,51.593872017042486,189633.00012169778,Harrow,Music venues (all),E09000015,11/27/2022
Harrow,www.harrowarts.com,Harrow Arts Centre,200000000000,E09000015,Uxbridge Road Harrow,,,Hatch End,E05000291,-0.3622419138725058,513398.0001221001,51.60799057485688,191229.00012169778,Harrow,Music venues (all),E09000015,11/27/2022
Harrow,,Kingsfield Arms,,E09000015,111 Bessborough Road,Harrow,,Greenhill,E05000288,-0.3415532183570871,514915.0001221001,51.57445212437897,187532.00012210011,Harrow,Pubs,E09000015,11/27/2022
Harrow,,Royal Oak,,E09000015,86 St Anns Road,Harrow,,Greenhill,E05000288,-0.3361128669893761,515275.0001221001,51.581147021152915,188285.00012210011,Harrow,Pubs,E09000015,11/27/2022
Harrow,,Castle,,E09000015,30 West Street,Harrow,,Harrow on the Hill,E05000289,-0.33808195004454533,515163.0001221001,51.571489197144416,187208.00012210011,Harrow,Pubs,E09000015,11/27/2022
Harrow,,Frankie & Benny's,,E09000015,St. George's Shopping Centre,Harrow,,Greenhill,E05000288,-0.33726051639897464,515196.0001221001,51.58094745065988,188261.00012210011,Harrow,Pubs,E09000015,11/27/2022
Harrow,,O'Neill's,,E09000015,335-339 Station Road,Harrow,,Greenhill,E05000288,-0.3327267820352322,515512.0001221001,51.58019064178914,188184.00012210011,Harrow,Pubs,E09000015,11/27/2022
Harrow,,Moon On The Hill,,E09000015,373-375 Station Road,Harrow,,Greenhill,E05000288,-0.332713819321602,515516.0001221001,51.578967375783506,188048.00012210011,Harrow,Pubs,E09000015,11/27/2022
Harrow,,Trinity Bar,,E09000015,380 Station Road,Harrow,,Greenhill,E05000288,-0.3322022993233897,515551.0001221001,51.57913997168724,188068.00012210011,Harrow,Pubs,E09000015,11/27/2022
Harrow,,Junction,,E09000015,8 Gayton Road,Harrow,,Greenhill,E05000288,-0.3309750295430927,515636.0001221001,51.579149501910756,188071.00012210011,Harrow,Pubs,E09000015,11/27/2022
Harrow,,Harrow,,E09000015,269-271 Station Road,Harrow,,Greenhill,E05000288,-0.3305019471794518,515660.0001221001,51.58260517305821,188456.00012210011,Harrow,Pubs,E09000015,11/27/2022
Harrow,,Wards,,E09000015,38-40 Lowlands Road,Harrow,,Greenhill,E05000288,-0.3382471662437928,515133.0001221001,51.578830028453076,188024.00012210011,Harrow,Pubs,E09000015,11/27/2022
Harrow,,Rising Sun,,E09000015,138 Greenford Road,Sudbury Hill,,Harrow on the Hill,E05000289,-0.3325726387397099,515576.0001221001,51.55916220315931,185846.00012210011,Harrow,Pubs,E09000015,11/27/2022
Harrow,,Maya Pub,,E09000015,"3 Shaftesbury Parade, Shaftesbury Ave",Harrow,,Harrow on the Hill,E05000289,-0.3530539939086266,514125.0001221001,51.57171828719958,187210.00012210011,Harrow,Pubs,E09000015,11/27/2022
Harrow,,White Horse,,E09000015,50 Middle Road,Harrow,,Harrow on the Hill,E05000289,-0.34425570350281276,514740.0001221001,51.56958896965243,186987.00012210011,Harrow,Pubs,E09000015,11/27/2022
Harrow,,Salt Bar,,E09000015,1 Roxeth Hill,South Harrow,,Harrow on the Hill,E05000289,-0.3438812359081146,514768.0001221001,51.56877429217616,186897.00012210011,Harrow,Pubs,E09000015,11/27/2022
Harrow,,Star,,E09000015,2 South Hill Ave,South Harrow,Harrow,Harrow on the Hill,E05000289,-0.350065358485002,514349.0001221001,51.56497633185373,186465.00012210011,Harrow,Pubs,E09000015,11/27/2022
Harrow,,Saras,,E09000015,"28 The Broadwalk, Pinner Road",North Harrow,,Headstone North,E05000292,-0.3608387062205617,513549.0001221001,51.58639631213372,188830.00012210011,Harrow,Pubs,E09000015,11/27/2022
Harrow,,Kohinur Restaurant & Bar,,E09000015,"14A Broadwalk,  Pinner Road",North Harrow,,Headstone North,E05000292,-0.3608387062205617,513549.0001221001,51.58639631213372,188830.00012210011,Harrow,Pubs,E09000015,11/27/2022
Harrow,,Three Wishes,,E09000015,"19-20 The Broadwalk, Pinner Road",North Harrow,Harrow,Headstone North,E05000292,-0.3608387062205617,513549.0001221001,51.58639631213372,188830.00012210011,Harrow,Pubs,E09000015,11/27/2022
Harrow,,McCafferty's Freehouse,,E09000015,"25 Broadwalk, Pinner Road",North Harrow,Harrow,Headstone North,E05000292,-0.3608387062205617,513549.0001221001,51.58639631213372,188830.00012210011,Harrow,Pubs,E09000015,11/27/2022
Harrow,,Blueroom Sports Venue,,E09000015,Headstone Lane,Headstone,,Headstone North,E05000292,-0.3594578939261415,513617.0001221001,51.59747463040569,190064.00012210011,Harrow,Pubs,E09000015,11/27/2022
Harrow,,Shawl,,E09000015,320 Northolt Road,South Harrow,,Roxeth,E05000302,-0.35435221788169086,514058.0001221001,51.56254540656967,186188.00012210011,Harrow,Pubs,E09000015,11/27/2022
Harrow,,O'Donnell's,,E09000015,399 Northolt Road,South Harrow,Harrow,Roxeth,E05000302,-0.356466233640545,513918.0001221001,51.559940016407374,185895.00012210011,Harrow,Pubs,E09000015,11/27/2022
Harrow,,Horseshoe,,E09000015,326 Eastcote Lane,South Harrow,,Roxbourne,E05000301,-0.3727161472803947,512789.0001221001,51.56104786036646,185993.00012210011,Harrow,Pubs,E09000015,11/27/2022
Harrow,,Man of Aran,,E09000015,424-426 Alexandra Avenue,Rayners Lane,Harrow,Rayners Lane,E05000300,-0.36933267609015125,512994.0001221001,51.572943892321355,187321.00012210011,Harrow,Pubs,E09000015,11/27/2022
Harrow,,Club KTM,,E09000015,32 Railway Approach,Wealdstone,Harrow,Greenhill,E05000288,-0.33108211173394403,515601.0001221001,51.59001486294117,189279.00012210011,Harrow,Pubs,E09000015,11/27/2022
Harrow,,Barretts Freehouse,,E09000015,9 Masons Ave,Wealdstone,,Marlborough,E05000296,-0.3325710764550577,515492.0001221001,51.592329302666315,189534.00012210011,Harrow,Pubs,E09000015,11/27/2022
Harrow,,Shanakee,,E09000015,91 High Street,Wealdstone,,Wealdstone,E05000304,-0.33442901721211565,515353.0001221001,51.59640263777606,189984.00012210011,Harrow,Pubs,E09000015,11/27/2022
Harrow,,Laurels,,E09000015,339 High Road,Harrow Weald,Harrow,Wealdstone,E05000304,-0.33821478555478496,515073.0001221001,51.6034530247659,190762.00012210011,Harrow,Pubs,E09000015,11/27/2022
Harrow,,Cosy Bar,,E09000015,6 Weald Lane,Harrow Weald,Harrow,Wealdstone,E05000304,-0.3383755402004698,515063.0001221001,51.603005640271434,190712.00012210011,Harrow,Pubs,E09000015,11/27/2022
Harrow,,Duck In The Pond,,E09000015,Kenton Lane,Harrow Weald,,Harrow Weald,E05000290,-0.32622696375405025,515901.0001221001,51.60426293987519,190871.00012210011,Harrow,Pubs,E09000015,11/27/2022
Harrow,,Leefe Robinson VC,,E09000015,375 Uxbridge Road,Harrow Weald,,Harrow Weald,E05000290,-0.3308799938094194,515557.0001221001,51.612854766982466,191819.00012210011,Harrow,Pubs,E09000015,11/27/2022
Harrow,,Bombay Central,,E09000015,328 High Road,Harrow Weald,Harrow,Harrow Weald,E05000290,-0.3378765431757685,515095.0001221001,51.60401480735938,190825.00012210011,Harrow,Pubs,E09000015,11/27/2022
Harrow,,Hare,,E09000015,Brookshill,Harrow Weald,,Harrow Weald,E05000290,-0.3414069715177068,514810.0001221001,51.620081629381,192606.00012210011,Harrow,Pubs,E09000015,11/27/2022
Harrow,,Case Is Altered,,E09000015,Old Redding,Harrow Weald,,Harrow Weald,E05000290,-0.34620723643967555,514478.0001221001,51.61997848682981,192587.00012210011,Harrow,Pubs,E09000015,11/27/2022
Harrow,,Grim's Dyke Hotel,,E09000015,Old Redding,Harrow Weald,,Harrow Weald,E05000290,-0.3424623128245263,514740.0001221001,51.61887346341573,192470.00012210011,Harrow,Pubs,E09000015,11/27/2022
Harrow,,TJ's Sports Bar,,E09000015,108 High Street,Wealdstone,Harrow,Marlborough,E05000296,-0.3336408771417386,515409.0001221001,51.595842863212084,189923.00012210011,Harrow,Pubs,E09000015,11/27/2022
Harrow,,Dalys,,E09000015,100 High Street,Wealdstone,Harrow,Marlborough,E05000296,-0.3336408771417386,515409.0001221001,51.595842863212084,189923.00012210011,Harrow,Pubs,E09000015,11/27/2022
Harrow,,Everest Lounge,,E09000015,60 Peel Road,Wealdstone,Harrow,Marlborough,E05000296,-0.33019724456872046,515653.0001221001,51.59367151523965,189687.00012210011,Harrow,Pubs,E09000015,11/27/2022
Harrow,,Beefeater,,E09000015,Kenton Road,Kenton,Harrow,Kenton West,E05000295,-0.31533615484544497,516712.0001221001,51.58205567742646,188419.00012210011,Harrow,Pubs,E09000015,11/27/2022
Harrow,,New Moon,,E09000015,25-26 Kenton Park Parade,Kenton,Harrow,Kenton West,E05000295,-0.3020908812949674,517617.0001221001,51.586918994810894,188981.00012210011,Harrow,Pubs,E09000015,11/27/2022
Harrow,,Funky Brownz,,E09000015,"Belmont Circle, Kenton Lane",Belmont,,Belmont,E05000285,-0.31702593085381636,516546.0001221001,51.601172590221466,190542.00012210011,Harrow,Pubs,E09000015,11/27/2022
Harrow,,Life Of Riley,,E09000015,7a Warwick Parade,Belmont,,Kenton West,E05000295,-0.31646573320339283,516587.0001221001,51.60031019838621,190447.00012210011,Harrow,Pubs,E09000015,11/27/2022
Harrow,,Circle Lounge,,E09000015,"12-13 Station Parade, Kenton Lane",Belmont,,Kenton West,E05000295,-0.31760331778103346,516508.0001221001,51.60039845695023,190455.00012210011,Harrow,Pubs,E09000015,11/27/2022
Harrow,,Badger Kelly's,,E09000015,"14 Station Parade, Kenton Lane",Belmont,,Kenton West,E05000295,-0.31760331778103346,516508.0001221001,51.60039845695023,190455.00012210011,Harrow,Pubs,E09000015,11/27/2022
Harrow,,Buckley's Bar,,E09000015,187 Streatfield Road,Queensbury,Harrow,Queensbury,E05000299,-0.2942360156537316,518139.0001221001,51.595429630292145,189940.00012210011,Harrow,Pubs,E09000015,11/27/2022
Harrow,,Frosty's,,E09000015,404 Kenton Road,Kenton,Harrow,Kenton East,E05000294,-0.29860005365650194,517859.0001221001,51.58684145506929,188978.00012210011,Harrow,Pubs,E09000015,11/27/2022
Harrow,,Oddfellows Arms,,E09000015,2 Waxwell Lane,Pinner,,Pinner,E05000297,-0.3829445882417595,511994.0001221001,51.596055909766626,189870.00012210011,Harrow,Pubs,E09000015,11/27/2022
Harrow,,Beer Asylum,,E09000015,"No. 1 Red Lion Parade, Bridge Street",Pinner,,Pinner,E05000297,-0.3809815227647126,512135.0001221001,51.5940053805898,189645.00012210011,Harrow,Pubs,E09000015,11/27/2022
Harrow,,Sync,,E09000015,Rickmansworth Road,Pinner,,Pinner,E05000297,-0.3955456299525388,511117.0001221001,51.597829636815334,190048.00012210011,Harrow,Pubs,E09000015,11/27/2022
Harrow,,Moon & Sixpence,,E09000015,250 Uxbridge Road,Hatch End,Pinner,Hatch End,E05000291,-0.37172561424876516,512742.0001221001,51.60774480878132,191187.00012210011,Harrow,Pubs,E09000015,11/27/2022
Harrow,,Village Inn,,E09000015,402-408 Rayners Lane,Rayners Lane,Pinner,Rayners Lane,E05000300,-0.3692819019109151,512989.0001221001,51.57637859603086,187703.00012210011,Harrow,Pubs,E09000015,11/27/2022
Harrow,,Pinner Arms,,E09000015,Whittington Way,Pinner,,Pinner South,E05000298,-0.3785406638655687,512326.0001221001,51.58510439962897,188659.00012210011,Harrow,Pubs,E09000015,11/27/2022
Harrow,,Queen's Head,,E09000015,31 High Street,Pinner,,Pinner,E05000297,-0.37929906979945166,512252.0001221001,51.59381128811429,189626.00012210011,Harrow,Pubs,E09000015,11/27/2022
Harrow,,Doolan's,,E09000015,897 Honeypot Lane,Canons Park,Stanmore,Belmont,E05000285,-0.29925165943968585,517765.0001221001,51.60572775413515,191077.00012210011,Harrow,Pubs,E09000015,11/27/2022
Harrow,,Purple Flame,,E09000015,433-437 Honeypot Lane,Queensbury,Stanmore,Queensbury,E05000299,-0.2935140359494935,518188.0001221001,51.595814838069,189984.00012210011,Harrow,Pubs,E09000015,11/27/2022
Harrow,,Canons Bar,,E09000015,"Canons Hall, 1-17 Wemborough Road",Canons Park,,Belmont,E05000285,-0.3020289039802319,517572.0001221001,51.60600178983973,191103.00012210011,Harrow,Pubs,E09000015,11/27/2022
Harrow,,Everest Abercorn,,E09000015,78 Stanmore Hill,Stanmore,,Stanmore Park,E05000303,-0.3143157064328409,516683.0001221001,51.62092778060717,192743.00012210011,Harrow,Pubs,E09000015,11/27/2022
Harrow,,Spice Rack Lounge,,E09000015,35 Church Road,Stanmore,,Stanmore Park,E05000303,-0.3107616241911355,516939.0001221001,51.6170365850494,192316.00012210011,Harrow,Pubs,E09000015,11/27/2022
Harrow,,Jamesons,,E09000015,"34 South Parade, Mollison Way",Queensbury,Edgware,Edgware,E05000287,-0.2770459470549181,519325.0001221001,51.59713905358893,190158.00012210011,Harrow,Pubs,E09000015,11/27/2022
Harrow,,Trilogy Bar & Restaurant,,E09000015,6-8 Whitchurch Parade  72-86 Whitchurch Lane,Edgware,,Edgware,E05000287,-0.28027091896774864,519071.0001221001,51.60885962132426,191456.00012210011,Harrow,Pubs,E09000015,11/27/2022
Harrow,,Moranos,,E09000015,12 Station Parade,Canons Park,Edgware,Canons,E05000286,-0.29435967215750064,518100.0001221001,51.60715863672156,191244.00012210011,Harrow,Pubs,E09000015,11/27/2022
Harrow,,Malibu Club,,E09000015,119 High Street (1st floor),Edgware,,Canons,E05000286,-0.2788687000038133,519163.0001221001,51.61079959881133,191674.00012210011,Harrow,Pubs,E09000015,11/27/2022
Harrow,,Zan Zi Bar,,E09000015,113 High Street,Edgware,,Canons,E05000286,-0.2788687000038133,519163.0001221001,51.61079959881133,191674.00012210011,Harrow,Pubs,E09000015,11/27/2022
Harrow,,Violet Bar & Grill,,E09000015,97-99 High Street,Edgware,,Canons,E05000286,-0.2788687000038133,519163.0001221001,51.61079959881133,191674.00012210011,Harrow,Pubs,E09000015,11/27/2022
Harrow,,Harrow,0,E09000015,,,,Marlborough,E05000296,-0.3241055742681726,516077.54187009484,51.59263166185939,189581.02929689735,Harrow,Skate Parks,E09000015,11/27/2022
Harrow,https://www.tagvenue.com/rooms/middlesex/1654/harrow-school/ryan-theatre,Ryan Theatre,100021000000,E09000015,5 Yew Walk, Harrow,NA,Harrow on the Hill,E05000289,-0.34130073258666443,514825.7788598521,51.57331898548574,187459.55989901948,Harrow,Theatres,E09000015,11/27/2022
Harrow,https://harrowarts.com/,Harrow Arts Centre,200000000000,E09000015,171 Uxbridge road, Hatch End,NA,Hatch End,E05000291,-0.3640872283515281,513158.4273770096,51.60897493234853,191388.45758166607,Harrow,Theatres,E09000015,11/27/2022
