borough_name,website,site_name,os_addressbase_uprn,borough_code,address1,address2,address3,ward_2018_name,ward_2018_code,longitude,easting,latitude,northing,BOROUGH,Cultural Venue Type,gss_code,runtime
Havering,,Vue Romford,200002674389,E09000016,,1-15 Waterloo Rd,,Romford Town,E05000319,0.1817007623480088,551168.3400878981,51.57439657333553,188477.9600829929,Havering,Cinemas,E09000016,11/27/2022
Havering,,South Hornchurch Community Association,10091576887,E09000016,South Hornchurch Social Hall Nelson Road, Rainham,NA,South Hornchurch,E05000321,0.18868942711601938,551801.0001221001,51.529782874538135,183532.00012210011,Havering,Community centres,E09000016,11/27/2022
Havering,,New Windmill Hall Community Association,10091576889,E09000016,302 St Maryâ€™s Lane, Upminster,NA,Upminster,E05000323,0.24694440506301726,555752.3201293945,51.55572153392045,186538.49011229724,Havering,Community centres,E09000016,11/27/2022
Havering,,Front Lane Community Association,100023517306,E09000016,Cranham Social Hall, 103 Front Lane, Cranham,Cranham,E05000307,0.26779521149013197,557174.1801147982,51.5624757939021,187334.0800780952,Havering,Community centres,E09000016,11/27/2022
Havering,,Bretons Community Association,200002675379,E09000016,Bretons Manor House 411 Rainham Road Rainham,NA,NA,Elm Park,E05000308,0.18737794241486133,551671.120117195,51.54149009962246,184830.9600829929,Havering,Community centres,E09000016,11/27/2022
Havering,http://www.hwnc.org.uk/,Harold Wood Neighbourhood Centre,100023216516,E09000016,The Old School, Gubbins Lane, Harold Wood,Harold Wood,E05000312,0.2353819271285347,554837.0701293945,51.58921008546693,190237.38012699783,Havering,Community centres,E09000016,11/27/2022
Havering,http://www.hhdca.co.uk/,Harold Hill & District Community Association,100023217173,E09000016,Gooshays Drive, Harold Hill,NA,Gooshays,E05000310,0.22767218661421745,554248.5100707933,51.60531730625401,192011.98010249436,Havering,Community centres,E09000016,11/27/2022
Havering,www.nrca.co.uk,North Romford Community Association,100023516607,E09000016,Clockhouse Lane Collier Row,NA,NA,Havering Park,E05000313,0.16535798612621996,549951.3300780952,51.60012564304783,191305.04010009766,Havering,Community centres,E09000016,11/27/2022
Havering,https://www.tweedwayhall.com/,Tweedway Hall Community Association,100023211949,E09000016,Tweedway Hall Tweed Way, Collier Row,NA,Pettits,E05000317,0.17957555292986388,550939.4801024944,51.59901312868742,191210.61010739952,Havering,Community centres,E09000016,11/27/2022
Havering,,Elm Park Community Association,100023213863,E09000016,Elm Park Assembly Hall, Eyhurst Avenue, Elm Park,St. Andrew's,E05000320,0.19989017855252303,552502.1600952,51.55238849381489,186068.73010249436,Havering,Community centres,E09000016,11/27/2022
Havering,,Mardyke Youth & Community Association,100023214801,E09000016,Mardyke Social Centre, South Street, Rainham,South Hornchurch,E05000321,0.17100190470371482,550580.3801269978,51.527964350066924,183293.25012210011,Havering,Community centres,E09000016,11/27/2022
Havering,http://www.theforestrowcentre.co.uk/,The Forest Row Community Centre,100023217426,E09000016,241 Lodge Lane, Collier Row,NA,Havering Park,E05000313,0.15511510541981866,549226.120117195,51.604994315580605,191825.41009519994,Havering,Community centres,E09000016,11/27/2022
Havering,www.ardleighhouse.org,Ardleigh House Community Association,100023515927,E09000016,42 Ardleigh Green Road,Havering,NA,Squirrel's Heath,E05000322,0.22332924700319529,554032.2401122972,51.58036352003472,189228.30010989308,Havering,Community centres,E09000016,11/27/2022
Havering,http://www.avelonroadcentre.com/,Avelon Road Centre,10033420082,E09000016,100 Avelon Road,Havering,NA,South Hornchurch,E05000321,0.20143605579399684,552671.4500731975,51.53382315981338,184007.75012210011,Havering,Community centres,E09000016,11/27/2022
Havering,,Wykeham Hall,100023211660,E09000016,Market Place,Havering,NA,Romford Town,E05000319,0.18259987004686565,551215.8601073995,51.57884602554836,188974.54010009766,Havering,Community centres,E09000016,11/27/2022
Havering,,Wennington Village Association,100021357962,E09000016,1a Church Lane Wennington, Rainham,NA,Rainham and Wennington,E05000318,0.21864609877864755,553957.5001221001,51.506346508596096,180988.8101195991,Havering,Community centres,E09000016,11/27/2022
Havering,,Rush Green Community Association,200002675419,E09000016,Rush Green Gardens  Rush Green Road, Romford,NA,Brooklands,E05000306,0.17238932025835174,550555.4500731975,51.5646440967756,187374.40008549392,Havering,Community centres,E09000016,11/27/2022
Havering,,Rainham Royals Youth Centre,100023214855,E09000016,Viking Way, Rainham,NA,Rainham and Wennington,E05000318,0.1923980292601972,552095.6000976935,51.518556332661525,182291.4700927958,Havering,Community centres,E09000016,11/27/2022
Havering,,Rainham & Wennington Community Association,10091577045,E09000016,Brenda Blakemore Community Centre, Davies Close, Rainham,Rainham and Wennington,E05000318,0.20733475133037793,553124.7800902948,51.520620932347754,182552.18011479825,Havering,Community centres,E09000016,11/27/2022
Havering,,Havering Asian Social & Welfare Association,10091576884,E09000016,Greenfields Kilmartin Way Elm Park,NA,NA,Elm Park,E05000308,0.20284703570099533,552736.0001221001,51.54376420733613,185116.00012210011,Havering,Community centres,E09000016,11/27/2022
Havering,,Emerson Park Community Association,100023213572,E09000016,Emerson Park Social Hall Slewins Lane Hornchurch,NA,NA,Squirrel's Heath,E05000322,0.21523067318046404,553490.3001098931,51.57470538986798,188582.16009519994,Havering,Community centres,E09000016,11/27/2022
Havering,,Cranham Community Association,100023215299,E09000016,115a Marlborough Gardens Cranham,NA,NA,Cranham,E05000307,0.2670499003990988,557105.2700805962,51.56748205233536,187889.1000976935,Havering,Community centres,E09000016,11/27/2022
Havering,,Briar Community Association,100023216866,E09000016,Betty Strathern Centre, 41 Myrtle Rd, Harold Hill,Heaton,E05000314,0.21530754393757529,553403.6400756985,51.60199916479714,191617.0200805962,Havering,Community centres,E09000016,11/27/2022
Havering,https://www.havering.gov.uk/info/20043/arts_and_music/274/fairkytes_arts_centre,London Borough Of Havering,100023213016,E09000016,Fairkytes Art Centre,Fairkytes Art Centre,Billet Lane,,,0.21985714315690869,553845.2600707933,51.56450633068744,187457.8900756985,Havering,Creative workspaces,E09000016,11/27/2022
Havering,http://www.queens-theatre.co.uk,The Queen's Theatre,100023213219,E09000016,59 Billet Lane,,,St. Andrew's,E05000320,0.2194442974728821,553700.1360083388,51.565210579829674,187588.64261193317,Havering,Dance performance venues,E09000016,11/27/2022
Havering,http://www.anthonycliffordstudios.co.uk,ACS Dance Centre,100023211192,E09000016,66 Albert Rd,,,Romford Town,E05000319,0.1899065102180928,551625.6230400902,51.573604486378414,188460.14463760133,Havering,Dance performance venues,E09000016,11/27/2022
Havering,,Havering College,100023213461,E09000016,42 Ardleigh Green Road,,,Squirrel's Heath,E05000322,0.22127333782014139,553771.4625115653,51.58159506329597,189414.0258318872,Havering,Dance rehearsal studios,E09000016,11/27/2022
Havering,http://www.anthonycliffordstudios.co.uk,ACS Dance Centre,100023211192,E09000016,66 Albert Rd,,,Romford Town,E05000319,0.1899065102180928,551625.6230400902,51.573604486378414,188460.14463760133,Havering,Dance rehearsal studios,E09000016,11/27/2022
Havering,,M & L Gold (Old) Limited,100023211773,E09000016,27 Quadrant Arcade,Romford,,Romford Town,E05000319,0.1828384221558506,551236.0001221001,51.57775746661299,188854.00012210011,Havering,Jewellery design,E09000016,11/27/2022
Havering,,Rainham Library,10024389958,E09000016,Celtic Farm Road,Rainham,,Rainham and Wennington,E05000318,0.19267087758305462,552120.5401000977,51.51675180905318,182091.40008549392,Havering,Libraries,E09000016,11/27/2022
Havering,,South Hornchurch Library,100023214503,E09000016,Rainham Road,Rainham,,South Hornchurch,E05000321,0.189177529884499,551835.120117195,51.52970163229515,183523.98010249436,Havering,Libraries,E09000016,11/27/2022
Havering,,Elm Park Library,100023214017,E09000016,St Nicholas Avenue,Hornchurch,,St. Andrew's,E05000320,0.20012538064998886,552519.7800902948,51.551994824857985,186025.45007319748,Havering,Libraries,E09000016,11/27/2022
Havering,,Upminster Library,100023215782,E09000016,Corbets Tey Road,Upminster,,Upminster,E05000323,0.24974536913711162,555950.1600952,51.55463794166202,186423.98010249436,Havering,Libraries,E09000016,11/27/2022
Havering,,Hornchurch Library,100023516053,E09000016,North Street,Hornchurch,,St. Andrew's,E05000320,0.22220022639913808,554008.0300902948,51.56438704761446,187449.5601195991,Havering,Libraries,E09000016,11/27/2022
Havering,,Gidea Park Library,100023216148,E09000016,Balgores Lane,Romford,,Squirrel's Heath,E05000322,0.20753371970786016,552940.9801024944,51.579490792745766,189098.1000976935,Havering,Libraries,E09000016,11/27/2022
Havering,,Romford Central Library,100023211636,E09000016,St Edwards Way,Romford,,Romford Town,E05000319,0.1851380658952052,551386.9600829929,51.580269995179506,189138.12011719495,Havering,Libraries,E09000016,11/27/2022
Havering,,Harold Wood Library,100023216526,E09000016,Arundel Road,Romford,,Harold Wood,E05000312,0.2371086984207637,554940.3001098931,51.594017883772516,190775.6000976935,Havering,Libraries,E09000016,11/27/2022
Havering,,Collier Row Library,100023217675,E09000016,Collier Row Road,Romford,,Mawneys,E05000316,0.16248297385042185,549759.3601073995,51.59796672334206,191059.1000976935,Havering,Libraries,E09000016,11/27/2022
Havering,,Harold Hill Library,100023217029,E09000016,Hilldene Avenue,Romford,,Gooshays,E05000310,0.22005353924990168,553714.5701293945,51.60723240877439,192208.86010739952,Havering,Libraries,E09000016,11/27/2022
Havering,www.haveringmuseum.org.uk/,Havering Museum,10070706838,E09000016,19-21 High St,Romford,NA,Romford Town,E05000319,0.1812041030642409,551123.9201049954,51.57741389832989,188812.42010499537,Havering,Museums and public galleries,E09000016,11/27/2022
Havering,,Nonamerecords Ltd,100000000000,E09000016,14 Westlyn Close,Havering,,Rainham And Wennington,E05000318,0.21047058111333677,553346.0001222938,51.519516940875256,182436.00012129545,Havering,Music (office based businesses),E09000016,11/27/2022
Havering,,A1 Records Ltd,100000000000,E09000016,45 Bellhouse Road,Havering,,Brooklands,E05000306,0.1673472322727605,550207.0001222938,51.56435602277249,187332.00012129545,Havering,Music (office based businesses),E09000016,11/27/2022
Havering,www.fictionclub.co.uk/romford,Fiction,10091833643,E09000016,108 South Street,Havering,,Romford Town,E05000319,0.18422107032951826,551342.0001222938,51.574682809834,188515.00012129545,Havering,Music (office based businesses),E09000016,11/27/2022
Havering,,Supersonic Sound Ltd,10091832892,E09000016,10 Western Road,Havering,,Romford Town,E05000319,0.185623263901798,551434.0001222938,51.57623062320969,188690.00012129545,Havering,Music (office based businesses),E09000016,11/27/2022
Havering,,Syn Cyr Records Ltd,100000000000,E09000016,161 Southend Arterial Road,Havering,,Emerson Park,E05000309,0.22724182451130695,554284.0001222938,51.586051713482355,189869.0001211986,Havering,Music (office based businesses),E09000016,11/27/2022
Havering,,Phoenix,10033424021,E09000016,Broadway Havering,,,Rainham And Wennington,E05000318,0.1914851296861917,552034.0001222938,51.51803852688059,182232.00012129545,Havering,Music venues (all),E09000016,11/27/2022
Havering,www.crumpledhornpub.co.uk,Crumpled Horn,100000000000,E09000016,33-37 Corbets Tey Road,Havering,,Upminster,E05000323,0.25035377984978996,555994.0001222938,51.55414976882229,186371.0001211986,Havering,Music venues (all),E09000016,11/27/2022
Havering,,The Cricketers,200000000000,E09000016,Havering ,,,St. Andrew's,E05000320,0.21834382951124007,553748.0001222938,51.56225148871991,187204.00012129545,Havering,Music venues (all),E09000016,11/27/2022
Havering,,The Fatling,100000000000,E09000016,109 High Street,Havering,,St. Andrew's,E05000320,0.2204246628069337,553892.0001222938,51.56231105203559,187215.00012129545,Havering,Music venues (all),E09000016,11/27/2022
Havering,www.spiritgroup.co.uk,Chequers,100000000000,E09000016,121 North Street,Havering,,St. Andrew's,E05000320,0.22116453516480655,553925.0001222938,51.56772038933632,187818.00012129545,Havering,Music venues (all),E09000016,11/27/2022
Havering,www.goldencrane.co.uk,Golden Crane,100000000000,E09000016,117 Avon Road,Havering,,Cranham,E05000307,0.26815762668980786,557179.0001223981,51.56835913972611,187989.0001211986,Havering,Music venues (all),E09000016,11/27/2022
Havering,,The Victoria,100000000000,E09000016,122 Victoria Road,Havering,,Romford Town,E05000319,0.19036426198875972,551767.0001222938,51.5748650708684,188548.00012129545,Havering,Music venues (all),E09000016,11/27/2022
Havering,www.thegoldenlion-pub.co.uk,Golden Lion,100000000000,E09000016,2 High Street,Havering,,Romford Town,E05000319,0.18166915707645256,551154.0001222938,51.578058026091604,188885.00012129545,Havering,Music venues (all),E09000016,11/27/2022
Havering,www.theshipgideapark.co.uk,Ship,100000000000,E09000016,93 Main Road,Havering,,Pettits,E05000317,0.20258654495879536,552575.0001222938,51.58643622127272,189860.00012129545,Havering,Music venues (all),E09000016,11/27/2022
Havering,,Caraway Lounge,,E09000016,290 North Street,Romford,,Brooklands,E05000306,0.17436355740567813,550626.0001221001,51.5846782215041,189606.00012210011,Havering,Pubs,E09000016,11/27/2022
Havering,,Harrow,,E09000016,130 Hornchurch Road,Hornchurch,,Hylands,E05000315,0.2065102551078782,552921.0001221001,51.56431843461589,187409.00012210011,Havering,Pubs,E09000016,11/27/2022
Havering,,Yates's,,E09000016,87-89 South Street,Romford,,Romford Town,E05000319,0.18449125582261933,551357.0001221001,51.57580201345683,188640.00012210011,Havering,Pubs,E09000016,11/27/2022
Havering,,Queens Theatre (Greene Room),,E09000016,Billet Lane,Hornchurch,,St. Andrew's,E05000320,0.22106060734063168,553928.0001221001,51.56470039442818,187482.00012210011,Havering,Pubs,E09000016,11/27/2022
Havering,,Chequers,,E09000016,121 North Street / Billet Lane,Hornchurch,,St. Andrew's,E05000320,0.22146190697164633,553950.0001221001,51.56641963154012,187674.00012210011,Havering,Pubs,E09000016,11/27/2022
Havering,,Fatling,,E09000016,109 High Street,Hornchurch,,St. Andrew's,E05000320,0.22121145445741466,553947.0001221001,51.56217024088566,187201.00012210011,Havering,Pubs,E09000016,11/27/2022
Havering,,Monty's Bar,,E09000016,155 Billet Lane,Hornchurch,,St. Andrew's,E05000320,0.22073723585978658,553895.0001221001,51.5678364065389,187830.00012210011,Havering,Pubs,E09000016,11/27/2022
Havering,,Ardleigh,,E09000016,124 Ardleigh Green Road,Hornchurch,Ardleigh Green,Squirrel's Heath,E05000322,0.2224547070330635,553961.0001221001,51.58351626962728,189577.00012210011,Havering,Pubs,E09000016,11/27/2022
Havering,,Toby Carvery,,E09000016,"Ground floor, The Brewery, Brewery Walk, Waterloo Road",Romford,,Romford Town,E05000319,0.18176194759114706,551169.0001221001,51.575475060134444,188598.00012210011,Havering,Pubs,E09000016,11/27/2022
Havering,,Frankie & Benny's,,E09000016,"Unit Fr2, 1st Floor, The Brewery",Romford,Romford,Romford Town,E05000319,0.18176194759114706,551169.0001221001,51.575475060134444,188598.00012210011,Havering,Pubs,E09000016,11/27/2022
Havering,,Number Ten,,E09000016,"1st Floor, The Brewery",Romford,,Romford Town,E05000319,0.18176194759114706,551169.0001221001,51.575475060134444,188598.00012210011,Havering,Pubs,E09000016,11/27/2022
Havering,,Golden Lion,,E09000016,2 High Street / North Street,Romford,,Romford Town,E05000319,0.1807823136295403,551094.0001221001,51.57762482121957,188835.00012210011,Havering,Pubs,E09000016,11/27/2022
Havering,,World's Inn,,E09000016,113-117 South Street,Romford,,Romford Town,E05000319,0.1848468157875762,551383.0001221001,51.57539066785969,188595.00012210011,Havering,Pubs,E09000016,11/27/2022
Havering,,Moon & Stars,,E09000016,99-103 South Street,Romford,,Romford Town,E05000319,0.1848468157875762,551383.0001221001,51.57539066785969,188595.00012210011,Havering,Pubs,E09000016,11/27/2022
Havering,,Slug & Lettuce,,E09000016,105/111 South Street,Romford,,Romford Town,E05000319,0.1848468157875762,551383.0001221001,51.57539066785969,188595.00012210011,Havering,Pubs,E09000016,11/27/2022
Havering,,Goose,,E09000016,143 South Street,Romford,,Romford Town,E05000319,0.18563299329290334,551442.0001221001,51.57402694224648,188445.00012210011,Havering,Pubs,E09000016,11/27/2022
Havering,,Kosho,,E09000016,72-74 South Street,Romford,,Romford Town,E05000319,0.1840837801769615,551330.0001221001,51.575431857447676,188598.00012210011,Havering,Pubs,E09000016,11/27/2022
Havering,,Crown,,E09000016,360 Hornchurch Road,Hornchurch,,Hylands,E05000315,0.19019530422401054,551788.0001221001,51.565046898126376,187456.00012210011,Havering,Pubs,E09000016,11/27/2022
Havering,,JJ Moon's,,E09000016,48-52 High Street,Hornchurch,,St. Andrew's,E05000320,0.21674574877592165,553637.0001221001,51.56232666951284,187209.00012210011,Havering,Pubs,E09000016,11/27/2022
Havering,,Rising Sun,,E09000016,64/68 High Street,Hornchurch,,St. Andrew's,E05000320,0.2186299780381973,553768.0001221001,51.562201107204665,187199.00012210011,Havering,Pubs,E09000016,11/27/2022
Havering,,Compasses [Harvester],,E09000016,125 Abbs Cross Lane / Devonshire Road,Hornchurch,,St. Andrew's,E05000320,0.21084409873833465,553245.0001221001,51.55727553268778,186635.00012210011,Havering,Pubs,E09000016,11/27/2022
Havering,,Good Intent,,E09000016,South End Road,South Hornchurch,Hornchurch,Elm Park,E05000308,0.20451615442215584,552864.0001221001,51.54009929190974,184712.00012210011,Havering,Pubs,E09000016,11/27/2022
Havering,,Vertigo Lounge,,E09000016,17-19 Station Lane,Hornchurch,,St. Andrew's,E05000320,0.222705255301437,554057.0001221001,51.56025321631941,186991.00012210011,Havering,Pubs,E09000016,11/27/2022
Havering,,Frankies Wine Bar,,E09000016,29 Station Lane,Hornchurch,,St. Andrew's,E05000320,0.222705255301437,554057.0001221001,51.56025321631941,186991.00012210011,Havering,Pubs,E09000016,11/27/2022
Havering,,Sutton Arms,,E09000016,14/16 Station Lane,Hornchurch,,St. Andrew's,E05000320,0.2221531467168768,554017.0001221001,51.56076733785977,187047.00012210011,Havering,Pubs,E09000016,11/27/2022
Havering,,Railway Hotel,,E09000016,Station Lane,Hornchurch,,Hacton,E05000311,0.22073655460068337,553941.0001221001,51.554201601909824,186314.00012210011,Havering,Pubs,E09000016,11/27/2022
Havering,,Durham Arms,,E09000016,101 Brentwood Road / Albert Road,Romford,,Romford Town,E05000319,0.19196305105569547,551888.0001221001,51.571795275470066,188210.00012210011,Havering,Pubs,E09000016,11/27/2022
Havering,,Wheatsheaf,,E09000016,45 Wheatsheaf Road / Brentwood Road,Romford,,Romford Town,E05000319,0.18946335971224698,551716.0001221001,51.57143723027963,188165.00012210011,Havering,Pubs,E09000016,11/27/2022
Havering,,Victoria,,E09000016,122 Victoria Road / Albert Road,Romford,,Romford Town,E05000319,0.18996884471223682,551740.0001221001,51.57474653858092,188534.00012210011,Havering,Pubs,E09000016,11/27/2022
Havering,,Albion,,E09000016,2 Rainham Road,Rainham,,South Hornchurch,E05000321,0.19361739805464726,552166.0001221001,51.522810425509135,182767.00012210011,Havering,Pubs,E09000016,11/27/2022
Havering,,Lennards,,E09000016,New Road,Wennington,Rainham,Rainham and Wennington,E05000318,0.22820102564059108,554637.0001221001,51.50146314592993,180466.00012210011,Havering,Pubs,E09000016,11/27/2022
Havering,,Willow Farm (Table Table),,E09000016,New Road,Wennington,Rainham,Rainham and Wennington,E05000318,0.22769512549418544,554586.0001221001,51.50615864766331,180987.00012210011,Havering,Pubs,E09000016,11/27/2022
Havering,,Saxon Horn,,E09000016,352 Upminster Road North,Rainham,,Rainham and Wennington,E05000318,0.2131507949128829,553527.0001221001,51.520977375449675,182604.00012210011,Havering,Pubs,E09000016,11/27/2022
Havering,,New Angel Inn,,E09000016,31 Broadway,Rainham,,Rainham and Wennington,E05000318,0.19148512968374903,552034.0001221001,51.51803852688787,182232.00012210011,Havering,Pubs,E09000016,11/27/2022
Havering,,Phoenix At Rainham,,E09000016,Broadway,Rainham,,Rainham and Wennington,E05000318,0.19148512968374903,552034.0001221001,51.51803852688787,182232.00012210011,Havering,Pubs,E09000016,11/27/2022
Havering,,Lamb,,E09000016,5 Market Place,Romford,,Romford Town,E05000319,0.18396298950623835,551308.0001221001,51.579535311330574,189054.00012210011,Havering,Pubs,E09000016,11/27/2022
Havering,,Liberty Bell (Beefeater),,E09000016,Mercury Gardens / Western Road,Romford,,Romford Town,E05000319,0.1882040160302565,551609.0001221001,51.57736970705732,188822.00012210011,Havering,Pubs,E09000016,11/27/2022
Havering,,Bull,,E09000016,74-76 Market Place,Romford,,Romford Town,E05000319,0.18456870402315986,551352.0001221001,51.578921444889744,188987.00012210011,Havering,Pubs,E09000016,11/27/2022
Havering,,80 - 84 Market Place,,E09000016,80/84 Market Place,Romford,,Romford Town,E05000319,0.18456870402315986,551352.0001221001,51.578921444889744,188987.00012210011,Havering,Pubs,E09000016,11/27/2022
Havering,,Golden Crane,,E09000016,117 Avon Road,Cranham,Upminster,Cranham,E05000307,0.26930616192696893,557259.0001221001,51.56823799250689,187978.00012210011,Havering,Pubs,E09000016,11/27/2022
Havering,,Plough,,E09000016,83 Front Lane,Cranham,Upminster,Cranham,E05000307,0.26806378127179165,557197.0001221001,51.56125569103315,187199.00012210011,Havering,Pubs,E09000016,11/27/2022
Havering,,Crumpled Horn,,E09000016,33-37 Corbets Tey Road,Upminster,,Upminster,E05000323,0.2501065215159992,555979.0001221001,51.5535249329231,186301.00012210011,Havering,Pubs,E09000016,11/27/2022
Havering,,Huntsman & Hounds,,E09000016,2 Ockendon Road,Upminster,Corbets Tey,Upminster,E05000323,0.2537913080567847,556272.0001221001,51.542553451411706,185089.00012210011,Havering,Pubs,E09000016,11/27/2022
Havering,,Windmill,,E09000016,167 Upminster Road,Upminster,Upminster Bridge,Hacton,E05000311,0.2399347879534964,555259.0001221001,51.557919811479415,186768.00012210011,Havering,Pubs,E09000016,11/27/2022
Havering,,Junction,,E09000016,70 Station Road,Upminster,,Upminster,E05000323,0.2520379567845085,556098.0001221001,51.55786793937461,186788.00012210011,Havering,Pubs,E09000016,11/27/2022
Havering,,Optimist Tavern,,E09000016,Little Gaynes Lane / Hacton Lane,Upminster,,Upminster,E05000323,0.2354784447567963,554983.0001221001,51.54825535926404,185684.00012210011,Havering,Pubs,E09000016,11/27/2022
Havering,,Upminster TapRoom,,E09000016,1b Sunnyside Gardens,Upminster,,Upminster,E05000323,0.25325941373175637,556195.0001221001,51.5542648715714,186390.00012210011,Havering,Pubs,E09000016,11/27/2022
Havering,,Jobber's Rest,,E09000016,St Mary's Lane,Cranham,Upminster,Upminster,E05000323,0.27788971281727337,557892.0001221001,51.55719785476418,186769.00012210011,Havering,Pubs,E09000016,11/27/2022
Havering,,Thatched House,,E09000016,348 St Mary's Lane,Cranham,Upminster,Upminster,E05000323,0.27788971281727337,557892.0001221001,51.55719785476418,186769.00012210011,Havering,Pubs,E09000016,11/27/2022
Havering,,Old White Horse,,E09000016,Ockendon Road,North Ockendon,Upminster,Upminster,E05000323,0.2977297142846909,559327.0001221001,51.54003693789294,184904.00012210011,Havering,Pubs,E09000016,11/27/2022
Havering,,Unicorn [Harvester],,E09000016,91 Main Road,Gidea Park,Romford,Pettits,E05000317,0.20213851278549785,552544.0001221001,51.586426643662,189858.00012210011,Havering,Pubs,E09000016,11/27/2022
Havering,,Ship,,E09000016,93 Main Road,Gidea Park,Romford,Pettits,E05000317,0.20213851278549785,552544.0001221001,51.586426643662,189858.00012210011,Havering,Pubs,E09000016,11/27/2022
Havering,,Gidea Park Micropub,,E09000016,236 Main Road,Gidea Park,Romford,Squirrel's Heath,E05000322,0.20251145899646425,552571.0001221001,51.58607787546671,189820.00012210011,Havering,Pubs,E09000016,11/27/2022
Havering,,Archers,,E09000016,194/204 Main Road,Gidea Park,Romford,Squirrel's Heath,E05000322,0.20251145899646425,552571.0001221001,51.58607787546671,189820.00012210011,Havering,Pubs,E09000016,11/27/2022
Havering,,Drill,,E09000016,Brentwood Road / Slewins Lane,Gidea Park,Heath Park,Emerson Park,E05000309,0.20896918497166905,553051.0001221001,51.576341989411084,188751.00012210011,Havering,Pubs,E09000016,11/27/2022
Havering,,New Inn,,E09000016,45 Squirrels Heath Lane,Gidea Park,Romford,Squirrel's Heath,E05000322,0.21211707958528506,553252.0001221001,51.581418195969206,189322.00012210011,Havering,Pubs,E09000016,11/27/2022
Havering,,Harold,,E09000016,51 Station Road / Arundel Road,Harold Wood,Romford,Harold Wood,E05000312,0.23614989728124353,554876.0001221001,51.59340119023646,190705.00012210011,Havering,Pubs,E09000016,11/27/2022
Havering,,Shepherd & Dog,,E09000016,91 Shepherds Hill,Harold Wood,Romford,Harold Wood,E05000312,0.24654410989964104,555604.0001221001,51.59100811034964,190461.00012210011,Havering,Pubs,E09000016,11/27/2022
Havering,,Bear,,E09000016,Noak Hill Road,Noak Hill,Romford,Heaton,E05000314,0.21908030080738125,553619.0001221001,51.61558040481631,193135.00012210011,Havering,Pubs,E09000016,11/27/2022
Havering,,Alderman,,E09000016,46 Chippenham Rd / Dartfields,Harold Hill,Romford,Gooshays,E05000310,0.22176714478556134,553840.0001221001,51.60522258106428,191989.00012210011,Havering,Pubs,E09000016,11/27/2022
Havering,,Saxon King,,E09000016,198 Petersfield Ave / St Neots,Harold Hill,Romford,Gooshays,E05000310,0.23869462564319757,555019.0001221001,51.60315603607111,191795.00012210011,Havering,Pubs,E09000016,11/27/2022
Havering,,Orange Tree,,E09000016,Orange Tree Hill,Havering-Atte-Bower,Romford,Havering Park,E05000313,0.1828287415817178,551116.0001221001,51.6136880595538,192849.00012210011,Havering,Pubs,E09000016,11/27/2022
Havering,,Royal Oak,,E09000016,North Road,Havering-Atte-Bower,Romford,Havering Park,E05000313,0.1842325038107744,551201.0001221001,51.61734940733997,193259.00012210011,Havering,Pubs,E09000016,11/27/2022
Havering,,Bell & Gate,,E09000016,248/250 Collier Row Lane,Collier Row (Romford),Romford,Mawneys,E05000316,0.16655922322681013,550054.0001221001,51.59421215719717,190650.00012210011,Havering,Pubs,E09000016,11/27/2022
Havering,,Colley Rowe Inn,,E09000016,54-56 Collier Row Road,Collier Row (Romford),Romford,Mawneys,E05000316,0.16266207250944587,549770.0001221001,51.598502152267464,191119.00012210011,Havering,Pubs,E09000016,11/27/2022
Havering,,Aspen Tree (Hungry Horse),,E09000016,Gobions Avenue / Chelmsford Avenue,Collier Row (Romford),Chase Cross,Havering Park,E05000313,0.17820509103578766,550841.0001221001,51.60009436327872,191328.00012210011,Havering,Pubs,E09000016,11/27/2022
Havering,,Havering Well,,E09000016,148 Rush Green Road,Romford,Rush Green,Brooklands,E05000306,0.1797787998592019,551065.0001221001,51.565402809432456,187474.00012210011,Havering,Pubs,E09000016,11/27/2022
Havering,,Mawney Arms,,E09000016,44 Mawney Road / Willow Street,Romford,,Brooklands,E05000306,0.17235597683565126,550507.0001221001,51.57860858621766,188927.00012210011,Havering,Pubs,E09000016,11/27/2022
Havering,,Prince Albert,,E09000016,32 St Andrews Road / Queen Street,Romford,,Romford Town,E05000319,0.1785730555625035,550955.0001221001,51.57338478696241,188359.00012210011,Havering,Pubs,E09000016,11/27/2022
Havering,,Crown,,E09000016,260 London Road / Spring Gardens,Romford,,Brooklands,E05000306,0.1663991269962744,550109.0001221001,51.57415885362119,188420.00012210011,Havering,Pubs,E09000016,11/27/2022
Havering,,Sun,,E09000016,45/47 London Road,Romford,,Romford Town,E05000319,0.17717497423709916,550854.0001221001,51.57463390730743,188495.00012210011,Havering,Pubs,E09000016,11/27/2022
Havering,,Romford,0,E09000016,,,,Hylands,E05000315,0.19027450241092617,551824.6536864936,51.55569013474208,186415.8192748949,Havering,Skate Parks,E09000016,11/27/2022
Havering,http://www.queens-theatre.co.uk/,Queen's Theatre Hornchurch,100023213219,E09000016,Billet Lane,Hornchurch,,St. Andrew's,E05000320,0.21943899856941676,553699.7660966532,51.565211399545156,187588.72259884683,Havering,Theatre rehearsal studio,E09000016,11/27/2022
Havering,http://www.queens-theatre.co.uk/,Queen's Theatre Hornchurch ,100023000000,E09000016,Billet Ln, Hornchurch,NA,St. Andrew's,E05000320,0.21779054439333426,553583.8345923924,51.5657199363651,187641.79350709065,Havering,Theatres,E09000016,11/27/2022
Havering,http://www.brooksidetheatre.com/,Brookside Theatre,100024000000,E09000016,21A Eastern Rd, Romford,NA,Romford Town,E05000319,0.18360228075900625,551178.7654769069,51.57665761575345,188786.51713615225,Havering,Theatres,E09000016,11/27/2022
