borough_name,website,site_name,os_addressbase_uprn,borough_code,address1,address2,address3,ward_2018_name,ward_2018_code,longitude,easting,latitude,northing,BOROUGH,Cultural Venue Type,gss_code,runtime
Islington,,Writers and Scholars Educational Trust (Index on Censorship),5300001787,E09000019,6-8 Amwell St,,,Clerkenwell,E05000370,-0.10847310863580012,531088.3767909216,51.52727965313077,182732.728599407,Islington,Archives,E09000019,11/27/2022
Islington,https://www.survivalinternational.org/,Survival International,5300018843,E09000019,6 Charterhouse Buildings,,,Bunhill,E05000367,-0.09828900921743923,531807.2110273987,51.5229243516096,182266.82121092,Islington,Archives,E09000019,11/27/2022
Islington,https://pen-international.org/,International PEN,5300018851,E09000019,9-10 Charterhouse Buildings ,Goswell Road,,Bunhill,E05000367,-0.09853053547654018,531790.2148279822,51.523009204037024,182275.8197581643,Islington,Archives,E09000019,11/27/2022
Islington,http://www.sog.org.uk/,Society of Genealogists,5300018857,E09000019,14 Charterhouse Buildings ,Goswell Road,,Bunhill,E05000367,-0.09855804917057791,531789.2145404107,51.52269490471264,182240.82638162945,Islington,Archives,E09000019,11/27/2022
Islington,https://www.hac.org.uk/home/,Honourable Artillery Company,5300019875,E09000019,Armoury House ,City Road,,Bunhill,E05000367,-0.08841060799345134,532492.0651284626,51.52301548170287,182294.79870996438,Islington,Archives,E09000019,11/27/2022
Islington,https://www.marx-memorial-library.org/,Marx Memorial Library,5300021024,E09000019,37a Clerkenwell Green,,,Clerkenwell,E05000370,-0.10579774333375344,531286.3261202018,51.52296493612978,182257.81961510144,Islington,Archives,E09000019,11/27/2022
Islington,https://www.corpssecurity.co.uk/,Corps of Commissionaires (Corps Security),5300024887,E09000019,85 Cowcross Street,,,Clerkenwell,E05000370,-0.10273366301136301,531507.2724368339,51.52003774334992,181937.88241560338,Islington,Archives,E09000019,11/27/2022
Islington,https://www.rss.org.uk/,Royal Statistical Society,5300031223,E09000019,12 Errol Street,,,Bunhill,E05000367,-0.09089616222437483,532321.1006946715,51.52252541643513,182235.81462165609,Islington,Archives,E09000019,11/27/2022
Islington,https://www.actiononhearingloss.org.uk/,Royal National Institute for the Deaf,5300033046,E09000019,Head Office,1- 3 Highbury Station Road,,Bunhill,E05000367,-0.08856532319578482,532477.0710900512,51.524483813905135,182457.76649335446,Islington,Archives,E09000019,11/27/2022
Islington,https://www.mencap.org.uk/,Mencap,5300036426,E09000019,123 Golden Lane,,,Bunhill,E05000367,-0.09565435130295027,531987.1742659188,51.52387977400425,182377.79535570194,Islington,Archives,E09000019,11/27/2022
Islington,https://www.scope.org.uk/history,Scope (formerly the Spastics Society),5300060248,E09000019,6 Market Road,,,Holloway,E05000375,-0.1187420269562714,530319.574013086,51.54710286681222,184918.3197041583,Islington,Archives,E09000019,11/27/2022
Islington,https://www.cityoflondon.gov.uk/things-to-do/london-metropolitan-archives/visitor-information/Pages/archives-guildhall-library.aspx,Guildhall Library Manuscripts Section,5300067716,E09000019,40 Northampton Road,,,Clerkenwell,E05000370,-0.10752849253640263,531159.3579759385,51.52537594646614,182522.7688049277,Islington,Archives,E09000019,11/27/2022
Islington,https://www.cityoflondon.gov.uk/things-to-do/london-metropolitan-archives/Pages/default.aspx,London Metropolitan Archives: City of London,5300067716,E09000019,40 Northampton Road,,,Clerkenwell,E05000370,-0.10752849253640263,531159.3579759385,51.52537594646614,182522.7688049277,Islington,Archives,E09000019,11/27/2022
Islington,https://www.city.ac.uk/,"City, University of London",5300067719,E09000019,Northampton Square,,,Clerkenwell,E05000370,-0.10258775571792003,531495.2872897811,51.52770618350995,182790.72129871562,Islington,Archives,E09000019,11/27/2022
Islington,http://www.prisonreformtrust.org.uk/,Prison Reform Trust,5300067920,E09000019,15 Northburgh Street,,,Bunhill,E05000367,-0.10029720349807829,531665.2433954972,51.523856185489514,182366.80313980498,Islington,Archives,E09000019,11/27/2022
Islington,https://www.ukace.org/,Association for the Conservation of Energy,5300075757,E09000019,Westgate House ,2a Prebend Street,,St. Peter's,E05000380,-0.09686313372981865,531869.2216525876,51.53567981659257,183687.5349659967,Islington,Archives,E09000019,11/27/2022
Islington,https://www.ukcisa.org.uk/,UKCISA: UK Council for International Student Affairs,5300084159,E09000019,9-17 St Albans Place,,,St. Mary's,E05000379,-0.10442271349906376,531342.3365523554,51.53662961935972,183779.52762909117,Islington,Archives,E09000019,11/27/2022
Islington,http://museumstjohn.org.uk/,Museum of Order of St John,5300085644,E09000019,St John's Gate ,St John's Lane,,Clerkenwell,E05000370,-0.10251113968126638,531517.2730163886,51.52192262085998,182147.843505729,Islington,Archives,E09000019,11/27/2022
Islington,https://www.bps.org.uk/about-us/history-psychology-centre,British Psychological Society: History of Psychology Centre,5300089442,E09000019,30 Tabernacle St,,,Bunhill,E05000367,-0.0860822538539598,532653.0311478691,51.5231933158545,182318.78986170067,Islington,Archives,E09000019,11/27/2022
Islington,http://www.tavinstitute.org/,Tavistock Institute of Human Relations,5300089442,E09000019,30 Tabernacle Street,,,Bunhill,E05000367,-0.0860822538539598,532653.0311478691,51.5231933158545,182318.78986170067,Islington,Archives,E09000019,11/27/2022
Islington,http://www.wmciu.org.uk/,Working Men's Club & Institute Union Ltd,5300094941,E09000019,253-254 Upper Street,,,St. Mary's,E05000379,-0.1034415082867641,531384.3402409354,51.54566033595098,184785.31971723324,Islington,Archives,E09000019,11/27/2022
Islington,https://bda.org.uk/,British Deaf Association,5300099044,E09000019,1-3 Worship Street,,,Bunhill,E05000367,-0.08655173709362374,532623.0358348356,51.52231070353526,182219.81061370397,Islington,Archives,E09000019,11/27/2022
Islington,https://www.savethechildren.org.uk/,Save the Children UK,10001298735,E09000019,1 St John's Lane,,,Clerkenwell,E05000370,-0.10211241904071244,531548.2643499614,51.52076509979216,182019.86782949482,Islington,Archives,E09000019,11/27/2022
Hackney,https://www.railfuture.org.uk/Welcome+to+Railfuture,Railfuture,10008240634,E09000012,207 The Colourworks ,2 Abbot Street,,Dalston,E05009370,-0.07498148747669109,533352.8918678341,51.54712953781063,185000.14146571083,Islington,Archives,E09000019,11/27/2022
Hackney,https://bettertransport.org.uk/,Campaign for Better Transport ,10008319406,E09000012,16 Waterside ,44-48 Wharf Road,,Hoxton West,E05009378,-0.09615274146698316,531929.2019685949,51.53197230062713,183276.617865666,Islington,Archives,E09000019,11/27/2022
Islington,NA,National Council for Voluntary Youth Services,10008978268,E09000019,Third Floor ,Lancaster House,33 Islington High Street,Barnsbury,E05000366,-0.10647446833028684,531210.3592528916,51.53305669988256,183378.60725111066,Islington,Archives,E09000019,11/27/2022
Islington,https://www.actionaid.org.uk/changelives/donate?src=ppc&utm_content=A197_A822_A000329&ds_rl=1248098&gclid=EAIaIQobChMIwvjprfb23gIVieJ3Ch1CzQ8qEAAYASAAEgLH_vD_BwE&gclsrc=aw.ds,ActionAid Central Archive,10012791132,E09000019,Resource Centre Hamlyn House ,Macdonald Road ,Archway,Junction,E05000376,-0.13560724282812378,529097.8422547678,51.565680990045486,186953.8957004316,Islington,Archives,E09000019,11/27/2022
Islington,,National Council of Voluntary Child Care Organisations,10023216009,E09000019,Unit 25,1st Floor,Angel Gate,Bunhill,E05000367,-0.10142772905825495,531571.2732756229,51.52925214192813,182964.6878641413,Islington,Archives,E09000019,11/27/2022
Islington,https://www.churchtimes.co.uk/,Church Times,10090262788,E09000019,108-114 Golden Lane,,,Bunhill,E05000367,-0.09499115398056324,532034.1636709687,51.52353626788522,182340.80126800417,Islington,Archives,E09000019,11/27/2022
Islington,https://www.islington.gov.uk/libraries-arts-and-heritage/heritage/local-history-centre,Islington Local History Centre,10091003195,E09000019,Finsbury Library,Islington Museum and Local History Centre and Finsbury Housing Office 245 St John St,,Clerkenwell,E05000370,-0.1045270017088627,531364.3142407511,51.52648754808226,182651.7467688293,Islington,Archives,E09000019,11/27/2022
Islington,https://volunteeringmatters.org.uk/news/national-charity-community-service-volunteers-csv-becomes-volunteering-matters/,Community Service Volunteers,10093112761,E09000019,237 Pentonville Road,,,Clerkenwell,E05000370,-0.11818377968335327,530404.5340198941,51.53092501803064,183120.65181839996,Islington,Archives,E09000019,11/27/2022
Hackney,https://www.museumoflondon.org.uk/collections/other-collection-databases-and-libraries/museum-london-archaeological-archive,Museum of London: London Archaeological Archive and Research Centre,100023000000,E09000012,Mortimer Wheeler House ,46 Eagle Wharf Road,,Hoxton West,E05009378,-0.09070233118903123,532299.1291850264,51.53473431182592,183593.53757116717,Islington,Archives,E09000019,11/27/2022
Haringey,https://www.georgepadmoreinstitute.org/,George Padmore Institute,100023000000,E09000014,76 Stroud Green Road,,,Stroud Green,E05000279,-0.10944747072564008,530903.3877292739,51.568130876667404,187272.80663878762,Islington,Archives,E09000019,11/27/2022
Islington,http://cubittartists.org.uk/,,10012791474,E09000019,8 Angel Mews,,,Barnsbury,E05000366,-0.10784469715996838,531117.3785225413,51.53235040267073,183297.62260933797,Islington,Artists workspaces,E09000019,11/27/2022
Hackney,http://www.v22collection.com,Worship Street,10008400568,E09000012,50 Worship St,Shoreditch,,Hoxton East & Shoreditch,E05009377,-0.08382905234147528,532812.9947509109,51.52192450310802,182181.81313252682,Islington,Artists workspaces,E09000019,11/27/2022
Hackney,http://www.whitechapelgallery.org/first-thursdays/galleries/southgate-studios/,Southgate Studios,10008307552,E09000012,2-4 Southgate Road,,,De Beauvoir,E05009371,-0.08604994580423678,532613.0676180276,51.537706907122065,183932.44786787836,Islington,Artists workspaces,E09000019,11/27/2022
Islington,www.spacestudios.org.uk,Peabody Yard,10023223942,E09000019,Greenman Street,Islington,,St. Peter's,E05000380,-0.09639553859548546,531892.2228614277,51.53893654096107,184050.45693224733,Islington,Artists workspaces,E09000019,11/27/2022
Hackney,www.artcoreint.net,Limberg Films,10008297950,E09000012,169 Balls Pond Rd,,,De Beauvoir,E05009371,-0.0826134123805808,532826.0186225004,51.54639143733322,184904.20386797766,Islington,Artists workspaces,E09000019,11/27/2022
Hackney,http://www.v22collection.com,Dalston,10008241411,E09000012,"10-16 Ashwin Street, London, E8 3DL",,,Dalston,E05009370,-0.0743055913247518,533400.8820640557,51.54674073882041,184958.147422368,Islington,Artists workspaces,E09000019,11/27/2022
Hackney,http://www.bootstrapcompany.co.uk/,,10008346228,E09000012,18 Ashwin St,,,Dalston,E05009370,-0.07472887821417483,533370.8882577483,51.54696351939817,184982.14422611624,Islington,Artists workspaces,E09000019,11/27/2022
Hackney,http://opensource.london/about,Unit 7 Stamford Works,10008242129,E09000012,Gillett Square ,,,Dalston,E05009370,-0.07649003437914138,533241.9103758698,51.549321529464954,185241.09395037655,Islington,Artists workspaces,E09000019,11/27/2022
Islington,www.florencetrust.org,,5300000172,E09000019,St Saviours church,Aberdeen Park,,Highbury East,E05000372,-0.093967121556433,532022.188954897,51.55218806495508,185528.1191678263,Islington,Artists workspaces,E09000019,11/27/2022
Islington,http://www.thelumenstudio.london/,,10093110026,E09000019,5 Thane Works ,,,Finsbury Park,E05000371,-0.11368203018642034,530633.4958248533,51.55994393828645,186355.01926405338,Islington,Artists workspaces,E09000019,11/27/2022
Islington,www.arbeit.org.uk / www.arebyte.com,Archway,10008976813,E09000019,Holloway Road 681-689,Archway,,Junction,E05000376,-0.13394003887487785,529214.8167489487,51.56516889788501,186899.91047012527,Islington,Artists workspaces,E09000019,11/27/2022
Islington,www.bombfactory.org.uk/about,,5300030670,E09000019,Unit 2 9-15 Elthorne Rd,,,Junction,E05000376,-0.1311790848241663,529403.7712213323,51.56599722686528,186996.89174466813,Islington,Artists workspaces,E09000019,11/27/2022
Islington,,"Vue Islington 




",010001296728,E09000019,Angel Central,Central Shopping Mall,36 Parkfield Street,St. Mary's,E05000379,-0.10440903349066345,531463.0001221001,51.5337262212976,183403.00012210011,Islington,Cinemas,E09000019,11/27/2022
Islington,,Everyman Screen on the Green,005300094504,E09000019,,83 Upper Street,Islington,St. Mary's,E05000379,-0.1021356371021251,531613.0001221001,51.53637853365987,183702.00012210011,Islington,Cinemas,E09000019,11/27/2022
Islington,,Odeon Holloway,005300048412,E09000019,419-427 Holloway Rd,,Holloway,St. George's,E05000378,-0.11986780914295775,530321.0001221001,51.55821260194776,186098.00012210011,Islington,Cinemas,E09000019,11/27/2022
Islington,http://www.emmahilleagle.com/#,Eagle Gallery,5300033028,E09000019,159 Farringdon Road,NA,NA,Clerkenwell,E05000370,-0.10817231883974543,531231.0001221001,51.52365123141501,182276.00012210011,Islington,Commercial galleries,E09000019,11/27/2022
Islington,http://workgallery.co.uk/#,Work,10091003649,E09000019,308 Essex Road,NA,NA,Canonbury,E05000369,-0.08977259046793404,532453.0001221001,51.54232944454154,184386.00012210011,Islington,Commercial galleries,E09000019,11/27/2022
Islington,https://adremgroup.com/dreamspace-gallery/#,Dreamspace Gallery,5300028758,E09000019,3 Dufferin Street,NA,NA,Bunhill,E05000367,-0.09082226978678988,532439.0001221001,51.52207499889632,182132.00012210011,Islington,Commercial galleries,E09000019,11/27/2022
Islington,http://www.bloombergspace.com/#,Bloomberg Space,5300033404,E09000019,50 Finsbury Square,NA,NA,Bunhill,E05000367,-0.08555330502467778,532812.0001221001,51.5194888845963,181854.00012210011,Islington,Commercial galleries,E09000019,11/27/2022
Islington,http://arcadefinearts.com/#,Arcade,5300056285,E09000019,87 Lever Street,NA,NA,Bunhill,E05000367,-0.09483273018680012,532148.0001221001,51.52650210727838,182617.00012210011,Islington,Commercial galleries,E09000019,11/27/2022
Islington,http://www.sway-gallery.com/#,Sway Gallery,5300069554,E09000019,70-72 Old Street,NA,NA,Bunhill,E05000367,-0.0935932370986991,532242.0001221001,51.523729927834914,182311.00012210011,Islington,Commercial galleries,E09000019,11/27/2022
Islington,http://www.islingtonartsfactory.org/#,Islington Arts Factory,5300075947,E09000019,2 Parkhurst Rd,NA,NA,Holloway,E05000375,-0.12126529495189677,530237.0001221001,51.5537112525942,185595.00012210011,Islington,Commercial galleries,E09000019,11/27/2022
Islington,http://www.sesameart.com/#,James Freeman Gallery,5300095173,E09000019,354 Upper Street,NA,NA,St. Peter's,E05000380,-0.10292269841256453,531565.0001221001,51.53409790726736,183447.00012210011,Islington,Commercial galleries,E09000019,11/27/2022
Islington,http://curiousdukegallery.com/#,Curious Duke Gallery,5300102398,E09000019,173 Whitecross Street,NA,NA,Bunhill,E05000367,-0.09194414235573631,532358.0001221001,51.52317248787824,182252.00012210011,Islington,Commercial galleries,E09000019,11/27/2022
Islington,http://www.modernart.net/#,Modern Art 1,10008977815,E09000019,4-8 Helmet Row,NA,NA,Bunhill,E05000367,-0.09293991604387153,532285.0001221001,51.5245287293645,182401.00012210011,Islington,Commercial galleries,E09000019,11/27/2022
Islington,http://www.allvisualarts.org/,All Visual Arts,10012789978,E09000019,2 Omega Place,NA,NA,Caledonian,E05000368,-0.11881391655016113,530472.0001221001,51.530954295890766,183069.00012210011,Islington,Commercial galleries,E09000019,11/27/2022
Islington,http://cubittartists.org.uk/#,Cubitt Gallery,10012791474,E09000019,8 Angel Mews,NA,NA,Barnsbury,E05000366,-0.10626101465789825,531340.0001221001,51.531840508522315,183190.00012210011,Islington,Commercial galleries,E09000019,11/27/2022
Islington,http://www.medici.co.uk/,Medici Gallery,10090266504,E09000019,"19-23 White Lion Street,",NA,NA,Barnsbury,E05000366,-0.10653504356881591,531320.0001221001,51.53218668812738,183228.00012210011,Islington,Commercial galleries,E09000019,11/27/2022
Islington,http://www.guardian.co.uk/gnmexhibitions#,Guardian News & Media,10090266525,E09000019,"Kings Place, 90 York Way",NA,NA,Caledonian,E05000368,-0.11996600884198419,530382.0001221001,51.534489245864684,183460.00012210011,Islington,Commercial galleries,E09000019,11/27/2022
Islington,http://beerslondon.com/#,Beers London,10090548970,E09000019,1 Baldwin Street,NA,NA,Bunhill,E05000367,-0.08730670292879472,532670.0001221001,51.52649652768447,182630.00012210011,Islington,Commercial galleries,E09000019,11/27/2022
Islington,http://www.pangolinlondon.com/#,Pangolin London,10090550427,E09000019,90 York Way,NA,NA,Caledonian,E05000368,-0.11996600884198419,530382.0001221001,51.534489245864684,183460.00012210011,Islington,Commercial galleries,E09000019,11/27/2022
Islington,http://williambeningtongallery.co.uk/#,William Benington,10091004086,E09000019,20 Arlington Way,NA,NA,Clerkenwell,E05000370,-0.10451904810235907,531467.0001221001,51.52968988757034,182954.00012210011,Islington,Commercial galleries,E09000019,11/27/2022
Islington,www.thespacegroup.org/contact-us/,The Arc Centre,10090265601,E09000019,98 St Paul Street,Islington,NA,St. Peter's,E05000380,-0.09434287149650282,532156.0001221001,51.53546974188606,183615.00012210011,Islington,Community centres,E09000019,11/27/2022
Islington,http://www.piliontrust.info/,Ringcross Community Centre,5300058839,E09000019,60 Lough Road,Islington,NA,Holloway,E05000375,-0.11311261506847638,530815.0001221001,51.549218540728624,185110.00012210011,Islington,Community centres,E09000019,11/27/2022
Islington,,Bentham Community Centre,5300029420,E09000019,New Bentham Court, Ecclesbourne Road, London,St. Peter's,E05000380,-0.09211781765672812,532296.0001221001,51.54039802228347,184167.00012210011,Islington,Community centres,E09000019,11/27/2022
Islington,,St Johns' Community Centre,10001298762,E09000019,Elthorne Estate,Holland Walk,Islington,Hillrise,E05000374,-0.12713147861487195,529793.0001221001,51.56683663727638,187044.00012210011,Islington,Community centres,E09000019,11/27/2022
Islington,,Aubert Court Community Centre,10010440652,E09000019,70 Avenell Road,Islington,NA,Highbury West,E05000373,-0.10016062751240595,531693.0001221001,51.556096401415644,185898.00012210011,Islington,Community centres,E09000019,11/27/2022
Islington,,Earlstoke Estate Community Room,10010441490,E09000019,Manningford Close,Islington,NA,Clerkenwell,E05000370,-0.10023719865055172,531768.0001221001,51.528289560388615,182806.00012210011,Islington,Community centres,E09000019,11/27/2022
Islington,https://www.canonbury-snt-panel.org/walter-sickert-community-centre,Walter Sickert Community Centre,10012787909,E09000019,Canonbury Crescent,Islington,NA,Canonbury,E05000369,-0.09187116965787809,532308.0001221001,51.54215674968744,184363.00012210011,Islington,Community centres,E09000019,11/27/2022
Islington,,Providence Place Community Centre,10093108754,E09000019,1a Providence Court,Providence Place,Islington,St. Mary's,E05000379,-0.10218468331942566,531609.0001221001,51.536586179206594,183725.00012210011,Islington,Community centres,E09000019,11/27/2022
Islington,,Brickworks Community Centre,10093111210,E09000019,42 Crouch Hill,Islington,NA,Tollington,E05000381,-0.11665147412168157,530506.0001221001,51.5714534157737,187576.00012210011,Islington,Community centres,E09000019,11/27/2022
Islington,,Hind House Community Rooms,10093620607,E09000019,74 Hornsey Road,Islington,NA,Highbury West,E05000373,-0.10875835765554288,531096.0001221001,51.556469156632716,185924.00012210011,Islington,Community centres,E09000019,11/27/2022
Islington,,Goodinge Community Centre,10093621811,E09000019,2 Goodinge Road,Islington,NA,Holloway,E05000375,-0.12417395088726034,530053.0001221001,51.54753428428254,184903.00012210011,Islington,Community centres,E09000019,11/27/2022
Islington,,Halfmoon Crescent Co-op,5300099584,E09000019,183 Wynford Road,Islington,NA,Barnsbury,E05000366,-0.11182285781357901,530949.0001221001,51.53368392180804,183385.00012210011,Islington,Community centres,E09000019,11/27/2022
Islington,,York Way Community Centre,5300092135,E09000019,Tiber Gardens,Islington,NA,Caledonian,E05000368,-0.11906391799930746,530442.0001221001,51.53538313114312,183561.00012210011,Islington,Community centres,E09000019,11/27/2022
Islington,http://directory.islington.gov.uk/kb5/islington/directory/service.page?id=G3Jy2lOy1-8,Westbourne Community Centre,5300079082,E09000019,43 Roman Way,Islington,NA,Caledonian,E05000368,-0.11363709396760334,530787.0001221001,51.54630407719981,184785.00012210011,Islington,Community centres,E09000019,11/27/2022
Islington,http://directory.islington.gov.uk/kb5/islington/directory/service.page?id=lMrJHwKnvao,Nailour Hall Community Centre,5300010607,E09000019,52 Blundell Street,Islington,NA,Caledonian,E05000368,-0.11894348313512107,530425.0001221001,51.54424882947728,184547.00012210011,Islington,Community centres,E09000019,11/27/2022
Islington,http://www.almorahcommunity.org.uk,Almorah Community Centre,5300001394,E09000019,58 Almorah Road,Islington,NA,Canonbury,E05000369,-0.08514510692504572,532780.0001221001,51.54021245121901,184159.00012210011,Islington,Community centres,E09000019,11/27/2022
Islington,https://www.hilldrop.org.uk/,Hilldrop Community Centre,5300022801,E09000019,Community Lane,Hilldrop Road,Islington,St. George's,E05000378,-0.12845224855602722,529746.0001221001,51.55119103348493,185302.00012210011,Islington,Community centres,E09000019,11/27/2022
Islington,http://www.hargravehall.co.uk/,Hargrave Hall Community Centre,5300040886,E09000019,42 Hargrave Road,Islington,NA,Junction,E05000376,-0.13191291297133156,529472.0001221001,51.56319855626431,186631.00012210011,Islington,Community centres,E09000019,11/27/2022
Islington,http://hleca.org.uk/,Hornsey Lane Community Centre,5300042147,E09000019,Hornsey Lane Estate,Hazellville Road,Islington,Hillrise,E05000374,-0.1305888001570619,529538.0001221001,51.57226088720968,187641.00012210011,Islington,Community centres,E09000019,11/27/2022
Islington,,Loraine Community Centre,5300048071,E09000019,325 Holloway Road,Islington,NA,Holloway,E05000375,-0.11394272141618897,530743.0001221001,51.55425927284566,185669.00012210011,Islington,Community centres,E09000019,11/27/2022
Islington,,Margery Street Community Centre,5300060076,E09000019,Margery Street Estate,Lloyd Baker Street,Islington,Clerkenwell,E05000370,-0.11129361043953813,531007.0001221001,51.52626470578957,182561.00012210011,Islington,Community centres,E09000019,11/27/2022
Islington,,New Orleans Community Centre,5300066093,E09000019,New Orleans Walk,Islington,NA,Hillrise,E05000374,-0.12497230860993397,529927.0001221001,51.5723151600737,187657.00012210011,Islington,Community centres,E09000019,11/27/2022
Islington,,Weston Rise Community Centre,5300073284,E09000019,187 Pentonville Road,Islington,NA,Clerkenwell,E05000370,-0.11369513316344003,530828.0001221001,51.53060227700592,183039.00012210011,Islington,Community centres,E09000019,11/27/2022
Islington,,Popham and Cumming Community Centre,5300075537,E09000019,14 Popham Street,Islington,NA,St. Peter's,E05000380,-0.09504976715541416,532102.0001221001,51.537190003531954,183805.00012210011,Islington,Community centres,E09000019,11/27/2022
Islington,http://mildmaycp.wordpress.com,Mildmay Community Centre,5300098973,E09000019,Woodville Road,Islington,NA,Mildmay,E05000377,-0.08082408742057591,533050.0001221001,51.550358533742596,185295.00012210011,Islington,Community centres,E09000019,11/27/2022
Islington,,Stephen's Ink Community Centre,10008978440,E09000019,104 Gillespie Road,Islington,NA,Highbury West,E05000373,-0.10285011721096993,531500.0001221001,51.558379316429175,186147.00012210011,Islington,Community centres,E09000019,11/27/2022
Islington,https://bemerton.wordpress.com/jean-stokes-community-centre/,Jean Stokes Community Centre,10010440359,E09000019,Carnoustie Drive,Islington,NA,Caledonian,E05000368,-0.11625690951321511,530623.0001221001,51.54014963014876,184096.00012210011,Islington,Community centres,E09000019,11/27/2022
Islington,,Brunswick Estate Community Centre,10010440550,E09000019,Tompion Street,Islington,NA,Clerkenwell,E05000370,-0.1001814175221794,531778.0001221001,51.52616617232598,182570.00012210011,Islington,Community centres,E09000019,11/27/2022
Islington,,Chestnuts Community Centre,10010441199,E09000019,1 Highbury Grange,Islington,NA,Highbury East,E05000372,-0.09620955585778955,531971.0001221001,51.55466532905689,185746.00012210011,Islington,Community centres,E09000019,11/27/2022
Islington,,Williamson Street Community Centre,10010441453,E09000019,76 Parkhurst Road,Islington,NA,Holloway,E05000375,-0.11913421391160053,530378.0001221001,51.55606038608114,185860.00012210011,Islington,Community centres,E09000019,11/27/2022
Islington,https://highburyquadrant.co.uk/birchmore-hall/,Birchmore Hall Community Hall,10010441763,E09000019,Highbury Quadrant,Islington,NA,Highbury East,E05000372,-0.09212632820563071,532243.0001221001,51.558466217894605,186176.00012210011,Islington,Community centres,E09000019,11/27/2022
Islington,,Tompion Hall Community Centre,10023215945,E09000019,40 Percival Street,Islington,NA,Bunhill,E05000367,-0.10044000855638122,531762.0001221001,51.52549584236228,182495.00012210011,Islington,Community centres,E09000019,11/27/2022
Islington,http://www.octopuscommunities.org.uk/our-projects/community-hubs/about-the-hubs/finsbury-park-community-hub-andover-community-centre/,Andover Estate Community Centre,5300024110,E09000019,56 Corker Walk,Islington,NA,Finsbury Park,E05000371,-0.11174949694653326,530870.0001221001,51.562974687578674,186642.00012210011,Islington,Community centres,E09000019,11/27/2022
Islington,https://www.newlon.org.uk/residents/community-services/community-facilities/,Barnsbury Estate Community Centre Hall,10023220325,E09000019,12 Jays Street,Islington,NA,Barnsbury,E05000366,-0.1136481539816333,530817.0001221001,51.53557495717237,183592.00012210011,Islington,Community centres,E09000019,11/27/2022
Islington,,Highbury Roundhouse Community Centre,5300079437,E09000019,71 Ronalds Road,Islington,NA,Highbury East,E05000372,-0.10239120818385189,531555.0001221001,51.550340664145864,185254.00012210011,Islington,Community centres,E09000019,11/27/2022
Islington,,City of London Community Education Centre,10001295847,E09000019,99 Golden Lane,Islington,NA,Bunhill,E05000367,-0.09381417569114542,532230.0001221001,51.52258233931429,182183.00012210011,Islington,Community centres,E09000019,11/27/2022
Islington,http://www.hng.org.uk/,The Holloway Neighbourhood Group,10008977169,E09000019,84 Mayton Street,Islington,NA,Finsbury Park,E05000371,-0.115601406388328,530617.0001221001,51.55810817494562,186094.00012210011,Islington,Community centres,E09000019,11/27/2022
Islington,,Bayes House Community Centre,10023222753,E09000019,Augustas Lane,Islington,NA,Barnsbury,E05000366,-0.1081145428618672,531180.0001221001,51.54277960358187,184403.00012210011,Islington,Community centres,E09000019,11/27/2022
Islington,http://www.stjoanofarcparish.co.uk/community-centre,St Joan of Arc Community Centre,5300053806,E09000019,Kelross Road,Islington,NA,Highbury East,E05000372,-0.09509671609265731,532046.0001221001,51.55540272169201,185830.00012210011,Islington,Community centres,E09000019,11/27/2022
Islington,http://www.peelinstitute.org.uk/,Peel Institute Three Corners Centre,10090264827,E09000019,Northampton Road,Islington,NA,Clerkenwell,E05000370,-0.10525372596594185,531430.0001221001,51.52484522940489,182414.00012210011,Islington,Community centres,E09000019,11/27/2022
Islington,,York Way Estate,5300067349,E09000019,Market Road,London,NA,Holloway,E05000375,-0.12447741485510996,530035.0001221001,51.546468907383776,184784.00012210011,Islington,Community centres,E09000019,11/27/2022
Islington,https://www.facebook.com/pg/prospex.charity/about/?ref=page_internal,Underground Youth Centre,10023218792,E09000019,Piper Close,London,NA,Holloway,E05000375,-0.11378771775404402,530770.0001221001,51.548590857157244,185039.00012210011,Islington,Community centres,E09000019,11/27/2022
Islington,,Mersey Estate TRA Flat,5300057849,E09000019,2 Birkenhead House,Mersey Estate,Liverpool Road,St. Mary's,E05000379,-0.10858896124311826,531131.0001221001,51.54838123843609,185025.00012210011,Islington,Community centres,E09000019,11/27/2022
Islington,,Durham Road Community Room,5300010980,E09000019,Bolton Walk,Durham Road,London,Finsbury Park,E05000371,-0.1117074170055238,530870.0001221001,51.56399027752129,186755.00012210011,Islington,Community centres,E09000019,11/27/2022
Islington,,Bennett Court Community Centre,10008977973,E09000019,Axminster Road,London ,NA,Finsbury Park,E05000371,-0.1165834632055419,530545.0001221001,51.55948196638334,186245.00012210011,Islington,Community centres,E09000019,11/27/2022
Islington,,Menard Court Community Centre,10012786377,E09000019,Pleydell Estate,Galway Street,NA,Bunhill,E05000367,-0.0915465047323022,532376.0001221001,51.526475659719004,182620.00012210011,Islington,Community centres,E09000019,11/27/2022
Islington,,St Lukes TRA Community Room,10090549514,E09000019,Bath Court,Bath Street,NA,Bunhill,E05000367,-0.08835717560533116,532599.0001221001,51.525857122221474,182557.00012210011,Islington,Community centres,E09000019,11/27/2022
Islington,,Peregrine Hall Community Centre,10010440292,E09000019,Peregrine House,Hall Street London ,NA,Bunhill,E05000367,-0.0989545944215814,531854.0001221001,51.52931203290479,182922.00012210011,Islington,Community centres,E09000019,11/27/2022
Islington,,King Square Community Centre,10090549145,E09000019,Ground floor,Rahere House,King Square,Bunhill,E05000367,-0.09609380248106056,532056.0001221001,51.528069481958134,182789.00012210011,Islington,Community centres,E09000019,11/27/2022
Islington,,Betty Brunker Hall,10091003650,E09000019,Gambier House,Mora Street,NA,Bunhill,E05000367,-0.09098719963446372,532412.0001221001,51.527437864892,182728.00012210011,Islington,Community centres,E09000019,11/27/2022
Islington,,Brecknock Estate TRA Flat,5300011414,E09000019,Flat 1,Blake House,Brecknock Road Estate,St. George's,E05000378,-0.13189394631311813,529503.0001221001,51.552747808043506,185469.00012210011,Islington,Community centres,E09000019,11/27/2022
Islington,,Harry Rice Hall Community Centre ,5300040787,E09000019,72 â€“ 74 Hargrave Park ,London,NA,Junction,E05000376,-0.13855185740658957,529011.0001221001,51.56351992406857,186655.00012210011,Islington,Community centres,E09000019,11/27/2022
Islington,,Girdlestone Community Centre,10012785327,E09000019,Under 151,Salisbury Walk,Girdlestone Estate,Junction,E05000376,-0.1377106230736892,529066.0001221001,51.56468472013852,186786.00012210011,Islington,Community centres,E09000019,11/27/2022
Islington,,Holly Hall Community Centre,5300010632,E09000019,Blythwood Road, London,NA,Hillrise,E05000374,-0.11786275434137974,530418.0001221001,51.57287583854522,187732.00012210011,Islington,Community centres,E09000019,11/27/2022
Islington,,Charles Rowan House TRA Flat,5300062006,E09000019,88 Charles Rowan House,Margery Street,NA,Clerkenwell,E05000370,-0.10841429853805132,531205.0001221001,51.526856845945524,182632.00012210011,Islington,Community centres,E09000019,11/27/2022
Islington,www.thornhillhousesra.com,Thornhill Houses TRA Flat,5300090456,E09000019,Block 70-83 Thornhill Houses,NA,NA,Barnsbury,E05000366,-0.10875954954001617,531136.0001221001,51.54252919209111,184374.00012210011,Islington,Community centres,E09000019,11/27/2022
Islington,,Finsbury Unity Room,10090549066,E09000019,Ground Floor,Michael Cliffe House,Finsbury Estate,Clerkenwell,E05000370,-0.10422993285014712,531498.0001221001,51.52588992699608,182532.00012210011,Islington,Community centres,E09000019,11/27/2022
Islington,,Calcott Community Centre,5300017533,E09000019,Calcott Community Centre,Palmer Estate,30A Cathcart Hill,Junction,E05000376,-0.13627652906389406,529180.0001221001,51.559526665439265,186215.00012210011,Islington,Community centres,E09000019,11/27/2022
Islington,https://barnsburyliving.wordpress.com/,Hugh Cubitt Community Centre,10001295469,E09000019,Hugh Cubitt,48 Collier Street,London,Barnsbury,E05000366,-0.11377681048244451,530818.0001221001,51.53211450813055,183207.00012210011,Islington,Community centres,E09000019,11/27/2022
Islington,https://www.shgroup.org.uk/media/233108/liverpool-road.pdf,Liverpool Road Community Centre,10010440334,E09000019,Liverpool Road Community Centre,Samuel Lewis Trust Dwellings,Liverpool Road,St. Mary's,E05000379,-0.10506976735290209,531390.0001221001,51.54316214604281,184451.00012210011,Islington,Community centres,E09000019,11/27/2022
Islington,http://www.huckletree.com/,Huckletree,5300019055,E09000019,Huckletree,87 Charterhouse Street,Clerkenwell,Clerkenwell,E05000370,-0.10045580925719574,531779.0001221001,51.51922756968814,181798.00012210011,Islington,Creative co-working desk space,E09000019,11/27/2022
Islington,http://www.thegreenhouselondon.com/coworking/,The Green House,5300037627,E09000019,The Green House E9,Greenhouse,49 Green Lanes,Mildmay,E05000377,-0.0863780555916055,532659.0001221001,51.552418858194606,185514.00012210011,Islington,Creative co-working desk space,E09000019,11/27/2022
Islington,https://uncommon.co.uk/,The Carlyle Group,5300051070,E09000019,Uncommon,25 Horsell Road,,Highbury East,E05000372,-0.10656763970306513,531267.0001221001,51.54981457647742,185188.00012210011,Islington,Creative co-working desk space,E09000019,11/27/2022
Islington,http://www.huckletree.com/,Huckletree,10091002838,E09000019,Huckletree,18 Finsbury Square,The Alphabeta Buildinh,Bunhill,E05000367,-0.08507791840861112,532840.0001221001,51.521198901926816,182045.00012210011,Islington,Creative co-working desk space,E09000019,11/27/2022
Islington,www.arkcoworking.com,Ark Coworking,10093112761,E09000019,Ark Coworking,237 Pentonville Road,King's Cross,Clerkenwell,E05000370,-0.11660115213519286,530627.0001221001,51.5304151453387,183013.00012210011,Islington,Creative co-working desk space,E09000019,11/27/2022
Islington,https://www.bombfactory.org.uk/artists,The Bomb Factory Art Foundation Ltd,5300010995,E09000019,The Bomb Factory Studios,Unit 2,Boothby Road,,,-0.13026813699247355,529580.0001221001,51.56530381263069,186868.00012210011,Islington,Creative workspaces,E09000019,11/27/2022
Camden,https://www.2northdown.com/,2northdown,5300068234,E09000019,2northdown,2 Northdown Street,,,,-0.11762197001698654,530555.0001221001,51.53083624307337,183058.00012210011,Islington,Creative workspaces,E09000019,11/27/2022
Islington,http://anomalousspace.co.uk/about/,Anomalous Collective,5300073069,E09000019,Anomalous Collective,38 Pentoville Road,,,,-0.10597299458465699,531356.0001221001,51.5332208667081,183344.00012210011,Islington,Creative workspaces,E09000019,11/27/2022
Islington,http://www.tileyard.co.uk/,Tileyard Studios,5300091012,E09000019,Tileyard Studios,35 Tileyard Road,London,,,-0.12131125985947906,530267.0001221001,51.54209235385854,184303.00012210011,Islington,Creative workspaces,E09000019,11/27/2022
Islington,https://candidarts.wordpress.com,Candid Arts Trust,5300092108,E09000019,Candid Arts,3-5 Torrens Street,,,,-0.10346881605927336,531534.0001221001,51.53171445024085,183181.00012210011,Islington,Creative workspaces,E09000019,11/27/2022
Islington,http://www.thelumenstudio.london/,The Lumen Studio,10093110021,E09000019,The Lumen Studio,5 Thane Works,,,,-0.11209806337557925,530856.0001221001,51.559436851183136,186248.00012210011,Islington,Creative workspaces,E09000019,11/27/2022
Islington,,Islington Assembly Hall,5300094897,E09000019,?222 Upper Street,,,St. Mary's,E05000379,-0.10361212675213433,531376.3407794111,51.54433219345228,184637.3515467053,Islington,Dance performance venues,E09000019,11/27/2022
Islington,https://www.parktheatre.co.uk,Park Theatre,10090266645,E09000019,13 Clifton Terrace,,,Finsbury Park,E05000371,-0.10864188873866733,530966.3834227113,51.56563594094724,186996.86514007242,Islington,Dance performance venues,E09000019,11/27/2022
Islington,http://www.kingsheadtheatrepub.co.uk,The King's Head Theatre,5300094557,E09000019,115 Upper Street,,,St. Mary's,E05000379,-0.10281017665850987,531449.316353261,51.53830315585424,183968.4886583889,Islington,Dance performance venues,E09000019,11/27/2022
Islington,http://www.rosemarybranchtheatre.co.uk,The Rosemary Branch,5300082551,E09000019,2A Shepperton Road,,,Canonbury,E05000369,-0.08693312001556831,532552.0804243142,51.537622409430384,183921.45322628593,Islington,Dance performance venues,E09000019,11/27/2022
Islington,http://www.londonmet.ac.uk/contact-us/how-to-find-us/tower-building/graduate-centre/,London Metropolitan University Graduate Centre,5300047823,E09000019,182-198 Holloway Rd,,,Highbury West,E05000373,-0.11035420323320108,530888.4504749835,51.55147327374649,185419.20454365067,Islington,Dance performance venues,E09000019,11/27/2022
Islington,http://www.platformislington.org.uk,Lift Islington - Platform Theatre,10012794343,E09000019,2 Tiltman Place,,,Finsbury Park,E05000371,-0.1157416039179951,530486.5257491982,51.5614248705854,186515.99107545655,Islington,Dance performance venues,E09000019,11/27/2022
Islington,http://www.sadlerswells.com,Sadler's Wells Theatre,5300080047,E09000019,177 Rosebery Ave,,,Clerkenwell,E05000370,-0.1062646136474187,531235.3477497051,51.52942925041774,182975.6838956953,Islington,Dance performance venues,E09000019,11/27/2022
Islington,http://londondanceacademy.co.uk,London Dance Academy,5300017733,E09000019,51 Central Street,,,Bunhill,E05000367,-0.09662222324864979,531915.192546338,51.5255591465995,182562.76120298408,Islington,Dance performance venues,E09000019,11/27/2022
Hackney,http://www.arcolatheatre.com,Arcola,10008321023,E09000012,24 Ashwin Street,,,Dalston,E05009370,-0.0749473466957685,533355.8920249861,51.54691315471493,184976.146726495,Islington,Dance performance venues,E09000019,11/27/2022
Islington,https://www.pleasance.co.uk,Pleasance,10094608227,E09000019,41 North Mews,,,Holloway,E05000375,-0.121673379465882,530111.6228379998,51.54876851276606,185098.28363759606,Islington,Dance performance venues,E09000019,11/27/2022
Islington,,Old Red Lion,5300085363,E09000019,418 St John Street,,,Bunhill,E05000367,-0.10584777886832213,531258.3460945036,51.53148185041091,183204.64045713365,Islington,Dance performance venues,E09000019,11/27/2022
Islington,http://www.sadlerswells.com/venue-hire/lilian-baylis-studio/,Lilian Baylis Studio,5300080050,E09000019,183 Rosebery Avenue,,,Clerkenwell,E05000370,-0.10587919015184069,531261.342431507,51.529683816032346,183004.67853260704,Islington,Dance performance venues,E09000019,11/27/2022
Islington,http://www.delistudios.co.uk/broadgate,Theatre Delicatessen (Guardian House),10093624103,E09000019,119 Farringdon Road,,,Clerkenwell,E05000370,-0.10845386132237624,531101.3677578324,51.52322361924053,182281.8124814998,Islington,Dance performance venues,E09000019,11/27/2022
Islington,https://www.city-academy.com/,"City Dance Academy  - THE IVORIES STUDIO 

",10023224245,E09000019,6-18 Northampton Street,Unit 13,,Canonbury,E05000369,-0.09535275624030427,531956.2140773587,51.541806222181876,184371.38453678752,Islington,Dance rehearsal studios,E09000019,11/27/2022
Islington,www.factoryrehearsalstudios.com,The Factory,5300050786,E09000019,407-409 Hornsey Rd,,,Tollington,E05000381,-0.12175694386633129,530055.6117773707,51.56635035774082,187052.8797525334,Islington,Dance rehearsal studios,E09000019,11/27/2022
Islington,http://www.fourthmonkey.co.uk,Monkey House,5300081823,E09000019,97-101 Seven Sisters Rd,,,Finsbury Park,E05000371,-0.11497097841438046,530542.515953308,51.56052221555517,186417.0106252092,Islington,Dance rehearsal studios,E09000019,11/27/2022
Hackney,https://www.istd.org/istd2-hire/,ISTD Dance Studios,100022933360,E09000012,22-26 Paul Street,Imperial House,,Hoxton East & Shoreditch,E05009377,-0.08416290133988333,532786.0030596268,51.523242893688554,182327.78419530264,Islington,Dance rehearsal studios,E09000019,11/27/2022
Islington,http://polepeople.co.uk,Pole People & Dance Studio,5300102337,E09000019,33-34 Chiswell Street,,,Bunhill,E05000367,-0.09069966545046132,532339.0941061209,51.521020434401514,182068.8472064106,Islington,Dance rehearsal studios,E09000019,11/27/2022
Islington,http://londonschoolofcapoeira.com,London School of Capoeira,5300055778,E09000019,Leeds Place,Unit 1-2,,Tollington,E05000381,-0.11461367229775135,530548.4858237279,51.56707204013069,187145.8522579713,Islington,Dance rehearsal studios,E09000019,11/27/2022
Islington,,Rehearsal space,5300084516,E09000019,73 Saint John Street,,,Clerkenwell,E05000370,-0.10198167974289088,531555.2638639127,51.52148240419818,182099.85303810227,Islington,Dance rehearsal studios,E09000019,11/27/2022
Islington,http://www.thehopetheatre.com,The Hope Theatre,5300094879,E09000019,207 Upper Street,,,St. Mary's,E05000379,-0.10354167675842327,531384.33808364,51.54325194380294,184517.37696392805,Islington,Dance rehearsal studios,E09000019,11/27/2022
Islington,,Out of Joint,5300089989,E09000019,7 Thane Works,,,Finsbury Park,E05000371,-0.11399029301626046,530611.500311413,51.56016472087733,186379.01524103928,Islington,Dance rehearsal studios,E09000019,11/27/2022
Islington,http://www.unionchapel.org.uk,Union Chapel,5300023057,E09000019,19 Compton Terrance,,,St. Mary's,E05000379,-0.10274346921410946,531435.3284188831,51.54475877693107,184686.33951261756,Islington,Dance rehearsal studios,E09000019,11/27/2022
Islington,http://www.theurdangacademy.com,Urdang Academy,5300079780,E09000019,Rosebery Avenue,,,Clerkenwell,E05000370,-0.10815553446981568,531111.3711501634,51.526941801319346,182695.73576506996,Islington,Dance rehearsal studios,E09000019,11/27/2022
Islington,https://theurdang.london/about-us/our-facilities/,Urdang 2,10090263567,E09000019,259-263 Goswell Road,,,Bunhill,E05000367,-0.1030421760834338,531457.2996304174,51.529952715561535,183039.67286074086,Islington,Dance rehearsal studios,E09000019,11/27/2022
Islington,https://www.claremont-project.org,Claremont Project Upper Hall,5300097468,E09000019,24-27 White Lion Street,,,Barnsbury,E05000366,-0.10850153515954941,531071.3888747869,51.5325048801352,183313.61956521415,Islington,Dance rehearsal studios,E09000019,11/27/2022
Islington,http://www.peelinstitute.org.uk,The Peel ,10090264827,E09000019,Three Corners Centre,Northampton Road,,Clerkenwell,E05000370,-0.10683735434935968,531207.3472645709,51.52535580221016,182521.7695980374,Islington,Dance rehearsal studios,E09000019,11/27/2022
Islington,https://www.2northdown.com/about/,2 Northdown ,5300068234,E09000019,2 Northdown Street,,,Caledonian,E05000368,-0.11920450552314721,530332.55079904,51.5313460581406,183165.64245939068,Islington,Dance rehearsal studios,E09000019,11/27/2022
Islington,http://www.londonmet.ac.uk/contact-us/how-to-find-us/tower-building/graduate-centre/,London Metropolitan University Graduate Centre,5300047823,E09000019,182-198 Holloway Rd,,,Highbury West,E05000373,-0.11035420323320108,530888.4504749835,51.55147327374649,185419.20454365067,Islington,Dance rehearsal studios,E09000019,11/27/2022
Islington,http://www.platformislington.org.uk,Lift Islington - Platform Theatre,10012794343,E09000019,2 Tiltman Place,,,Finsbury Park,E05000371,-0.1157416039179951,530486.5257491982,51.5614248705854,186515.99107545655,Islington,Dance rehearsal studios,E09000019,11/27/2022
Islington,http://www.sadlerswells.com,Sadler's Wells Theatre,5300080047,E09000019,177 Rosebery Ave,,,Clerkenwell,E05000370,-0.1062646136474187,531235.3477497051,51.52942925041774,182975.6838956953,Islington,Dance rehearsal studios,E09000019,11/27/2022
Islington,http://londondanceacademy.co.uk,London Dance Academy,5300017733,E09000019,51 Central Street,,,Bunhill,E05000367,-0.09662222324864979,531915.192546338,51.5255591465995,182562.76120298408,Islington,Dance rehearsal studios,E09000019,11/27/2022
Hackney,http://www.arcolatheatre.com,Arcola,10008321023,E09000012,24 Ashwin Street,,,Dalston,E05009370,-0.0749473466957685,533355.8920249861,51.54691315471493,184976.146726495,Islington,Dance rehearsal studios,E09000019,11/27/2022
Islington,https://www.pleasance.co.uk,Pleasance,10094608227,E09000019,41 North Mews,,,Holloway,E05000375,-0.121673379465882,530111.6228379998,51.54876851276606,185098.28363759606,Islington,Dance rehearsal studios,E09000019,11/27/2022
Islington,,Old Red Lion,5300085363,E09000019,418 St John Street,,,Bunhill,E05000367,-0.10584777886832213,531258.3460945036,51.53148185041091,183204.64045713365,Islington,Dance rehearsal studios,E09000019,11/27/2022
Islington,http://www.sadlerswells.com/venue-hire/lilian-baylis-studio/,Lilian Baylis Studio,5300080050,E09000019,183 Rosebery Avenue,,,Clerkenwell,E05000370,-0.10587919015184069,531261.342431507,51.529683816032346,183004.67853260704,Islington,Dance rehearsal studios,E09000019,11/27/2022
Islington,http://www.delistudios.co.uk/broadgate,Theatre Delicatessen (Guardian House),10093624103,E09000019,119 Farringdon Road,,,Clerkenwell,E05000370,-0.10845386132237624,531101.3677578324,51.52322361924053,182281.8124814998,Islington,Dance rehearsal studios,E09000019,11/27/2022
Islington,http://www.arilondonstudio.com/,Ari London,5300019987,E09000019,Kemp House,160 City Road,,Bunhill,E05000367,-0.08889407857070336,532446.0833790718,51.5273038836578,182770.70338001166,Islington,Fashion and design,E09000019,11/27/2022
Islington,http://nylandercouture.com/,Nylander Couture,5300067838,E09000019,Unit 2 The Ivories,6-18 Northampton Street,,Canonbury,E05000369,-0.09535275624030427,531956.2140773587,51.541806222181876,184371.38453678752,Islington,Fashion and design,E09000019,11/27/2022
Islington,,Aura Diamond Jewels Limited,5300012553,E09000019,21 Bunhill Row,,,Bunhill,E05000367,-0.08804738623048579,532632.0001221001,51.521894889557956,182117.00012210011,Islington,Jewellery design,E09000019,11/27/2022
Islington,,Buckle Up Limited,10091779971,E09000019,130 Old Street,,,Bunhill,E05000367,-0.0906695169456194,532443.0001221001,51.52434789169104,182385.00012210011,Islington,Jewellery design,E09000019,11/27/2022
Islington,,Candymax Designs Limited,5300010984,E09000019,9 Bonhill Street,,,Bunhill,E05000367,-0.08348389161284304,532948.0001221001,51.522081217695984,182146.00012210011,Islington,Jewellery design,E09000019,11/27/2022
Islington,,Fos Jewellery Limited,10015251517,E09000019,Po Box 698 2nd Floor,Titchfield House,,Clerkenwell,E05000370,-0.11043345864641219,531073.0001221001,51.52405641999789,182317.00012210011,Islington,Jewellery design,E09000019,11/27/2022
Islington,,Gala Creations Limited,10091777374,E09000019,Unit 1.2,42 Britton Street,,Clerkenwell,E05000370,-0.10128373676476966,531718.0001221001,51.52046410475864,181934.00012210011,Islington,Jewellery design,E09000019,11/27/2022
Islington,,Margot & Mila Ltd,5300022871,E09000019,13a Compton Road,,,Canonbury,E05000369,-0.09757871610241986,531906.0001221001,51.54432696999796,184594.00012210011,Islington,Jewellery design,E09000019,11/27/2022
Islington,http://www.mayamagal.co.uk,Maya Magal Jewellery Limited,5300094850,E09000019,193 Upper Street,,,St. Mary's,E05000379,-0.10171303184506875,531626.0001221001,51.54202864429372,184331.00012210011,Islington,Jewellery design,E09000019,11/27/2022
Islington,,Rachel Jackson London Ltd,5300084438,E09000019,3-5 St. John Street,,,Clerkenwell,E05000370,-0.10034299725528176,531786.0001221001,51.519513537240094,181830.00012210011,Islington,Jewellery design,E09000019,11/27/2022
Islington,,Stephen Tyler Limited,10012787092,E09000019,2nd 113-117 Farringdon Road,,,Clerkenwell,E05000370,-0.10648158295331162,531352.0001221001,51.52235585195992,182135.00012210011,Islington,Jewellery design,E09000019,11/27/2022
Islington,,Treasure House Limited,5300084613,E09000019,2nd Floor,Crusader House,,Clerkenwell,E05000370,-0.10109708858355049,531724.0001221001,51.52287136354972,182202.00012210011,Islington,Jewellery design,E09000019,11/27/2022
Islington,,Multiple businesses ,5300019988,E09000019,Kemp House,152-160 City Road,,Bunhill,E05000367,-0.08730867994938371,532669.0001221001,51.52679334854174,182663.00012210011,Islington,Jewellery design,E09000019,11/27/2022
Islington,,Multiple businesses ,5300019771,E09000019,30 City Road,,,Bunhill,E05000367,-0.08587882467550836,532782.0001221001,51.522039388008125,182137.00012210011,Islington,Jewellery design,E09000019,11/27/2022
Hackney,http://dalstonsuperstore.com/,Dalston Superstore,,E09000012,117 Kingsland High Street,,,Shacklewell,E05009382,-0.07716035500803806,533193.5378799177,51.5499743427932,185312.45255020424,Islington,LGBT+ night time venues,E09000019,11/27/2022
,www.kingsheadtheatre.com,King's Head Theatre (Regular LGBTQ+ Programming),,,115 Upper St,,,,,-0.10283335323774993,531447.4768998323,51.53838383513019,183977.41687579238,Islington,LGBT+ night time venues,E09000019,11/27/2022
,www.hackneyshowroom.com,Hackney Showroom (Regular LGBTQ+ Programming),,,5 Felton St,,,,,-0.08579635413873227,532632.8866153137,51.536937911169225,183847.41215921345,Islington,LGBT+ night time venues,E09000019,11/27/2022
Islington,,Kolis (Regular LGBTQ+ Programming),,,1 Archway Rd,,,,,-0.13507698030572302,529133.3831968467,51.566104434509796,187001.91149584338,Islington,LGBT+ night time venues,E09000019,11/27/2022
Hackney,,Arcola (Regular LGBTQ+ Programming),,,24 Ashwin Street,,,,,-0.0746767930071141,533374.6063247377,51.54692676304922,184978.15265649155,Islington,LGBT+ night time venues,E09000019,11/27/2022
Islington,,The Garage (Regular LGBTQ+ Programming),,,20-22 Highbury Corner,,,,,-0.10371679469981025,531362.2365701671,51.54670842024193,184901.35030557605,Islington,LGBT+ night time venues,E09000019,11/27/2022
,,Karoke Hole,,,95 Kingsland High St,Dalston,London,,,-0.07547062066406335,533312.4047665792,51.549377871896446,185249.21460066998,Islington,LGBT+ night time venues,E09000019,11/27/2022
Islington,,Finsbury Library,5300084848,E09000019,St John Street,,,Clerkenwell,E05000370,-0.10294311761155996,531587.0001221001,51.52597704259145,182544.00012210011,Islington,Libraries,E09000019,11/27/2022
Islington,,Lewis Carroll Children's Library,10012791189,E09000019,Copenhagen Street,,,Caledonian,E05000368,-0.11571286470390038,530671.0001221001,51.53656146079448,183698.00012210011,Islington,Libraries,E09000019,11/27/2022
Islington,,South Library,5300031416,E09000019,Essex Road,,,St. Mary's,E05000379,-0.09714275322884533,531953.0001221001,51.538528044233615,183950.00012210011,Islington,Libraries,E09000019,11/27/2022
Islington,,West Library,5300011807,E09000019,Bridgeman Road,,,Caledonian,E05000368,-0.1145949767477778,530738.0001221001,51.54023085085222,184108.00012210011,Islington,Libraries,E09000019,11/27/2022
Islington,,Mildmay Library,5300062563,E09000019,Mildmay Park,,,Mildmay,E05000377,-0.08272113128320258,532928.0001221001,51.54709790859908,184929.00012210011,Islington,Libraries,E09000019,11/27/2022
Islington,,Islington Central Library,5300033298,E09000019,Fieldway Crescent,,,Highbury East,E05000372,-0.10554530774297236,531341.0001221001,51.54872783904106,185069.00012210011,Islington,Libraries,E09000019,11/27/2022
Islington,,John Barnes Library,10093108781,E09000019,Rowstock Gardens,,,Holloway,E05000375,-0.12421346734390343,530042.0001221001,51.55043082981359,185225.00012210011,Islington,Libraries,E09000019,11/27/2022
Islington,,North Library,5300060053,E09000019,Manor Gardens,,,Finsbury Park,E05000371,-0.1201730082702408,530295.0001221001,51.55990827296202,186286.00012210011,Islington,Libraries,E09000019,11/27/2022
Islington,,N4 Library,10001298318,E09000019,Blackstock Road,,,Highbury West,E05000373,-0.10193701829442835,531549.0001221001,51.56332897539022,186699.00012210011,Islington,Libraries,E09000019,11/27/2022
Islington,,Archway Library,10012791132,E09000019,Highgate Hill,,,Junction,E05000376,-0.13402530604386248,529320.0001221001,51.56517476642984,186847.00012210011,Islington,Libraries,E09000019,11/27/2022
Islington,http://www.heretoday-heretomorrow.com/,"Here Today, Here Tomorrow",10023220837,E09000019,"Here Today, Here Tomorrow",30a Balls Pond Road,Dalston,Mildmay,E05000377,-0.07714109601679586,533205.930120599,51.54619381403967,184892.1775813371,Islington,Makerspaces,E09000019,11/27/2022
Hackney,http://www.rapideye.uk.com,Rapid Eye,10008245856,E09000012,Rapid Eye,79 Leonard Street,,Hoxton East & Shoreditch,E05009377,-0.08269832287199094,532882.9858709942,51.52481963834056,182505.74422125623,Islington,Makerspaces,E09000019,11/27/2022
Islington,www.â€‹estorickcollection.â€‹com,The Estorick Collection of Modern Italian Art,5300016244,E09000019,39A Canonbury Square,NA,NA,St. Mary's,E05000379,-0.09898888267543711,531811.0001221001,51.54336953448509,184485.00012210011,Islington,Museums and public galleries,E09000019,11/27/2022
Islington,http://www.culture24.org.uk/se000445,John WesleyÊ¼s House and The Museum of Methodism,5300019876,E09000019,Wesley's Chapel,49 City Road,NA,Bunhill,E05000367,-0.08546051309956235,532808.0001221001,51.52307581774844,182253.00012210011,Islington,Museums and public galleries,E09000019,11/27/2022
Islington,http://www.wesleychapel.org.uk/,"Wesleyâ€™s Chapel, Museum of Methodism and John Wesleyâ€™s House",5300019879,E09000019,49 City Road,NA,NA,Bunhill,E05000367,-0.0849339348839189,532844.0001221001,51.52325608598946,182274.00012210011,Islington,Museums and public galleries,E09000019,11/27/2022
Islington,http://www.canalmuseum.org.uk/,London Canal Museum,5300066428,E09000019,12/13 New Wharf Road,Kingâ€™s Cross,NA,Caledonian,E05000368,-0.11871455625086842,530471.0001221001,51.53371372199426,183376.00012210011,Islington,Museums and public galleries,E09000019,11/27/2022
Islington,http://www.museumstjohn.org.uk/,Museum of the Order of St John,5300085644,E09000019,St Johnâ€™s Gate,26 St John's Ln,NA,Clerkenwell,E05000370,-0.1009271558019526,531740.0001221001,51.52141165130495,182040.00012210011,Islington,Museums and public galleries,E09000019,11/27/2022
Islington,http://www.thecharterhouse.org/,Charterhouse,10023218636,E09000019,Sutton's Hospital,Charterhouse Square,NA,Bunhill,E05000367,-0.09845837358037024,531913.0001221001,51.52080505241114,181977.00012210011,Islington,Museums and public galleries,E09000019,11/27/2022
Islington,NA,Islington Museum,10091003195,E09000019,Â 245 St John St,Clerkenwell,NA,Clerkenwell,E05000370,-0.10294311761155996,531587.0001221001,51.52597704259145,182544.00012210011,Islington,Museums and public galleries,E09000019,11/27/2022
Islington,,Negart Records Ltd,0,E09000019,145-157 St John St Clerkenwell,,,Clerkenwell,E05000370,-0.10108118555310187,531725.000122197,51.522907080387064,182206.00012159348,Islington,Music (office based businesses),E09000019,11/27/2022
Islington,www.okmedial.biz,Ok Media Ltd,0,E09000019,22 Coleman Fields Islington,,,St. Peter's,E05000380,-0.09336322132060008,532219.000122197,51.537171593831495,183806.00012159348,Islington,Music (office based businesses),E09000019,11/27/2022
Islington,,East City Management,10023221148,E09000019,Old Workshop Almorah Road,Islington,,Canonbury,E05000369,-0.08683836957988524,532665.000122197,51.53938569179176,184064.00012159348,Islington,Music (office based businesses),E09000019,11/27/2022
Islington,,Autonomy Music Group,0,E09000019,7 Tileyard Rd London,,,Caledonian,E05000368,-0.12188965009239949,530227.000122197,51.54205664841134,184298.00012159348,Islington,Music (office based businesses),E09000019,11/27/2022
Islington,,Karma Artists Music Management,10093108867,E09000019,Unit 31 Tileyard Studios,Tileyard Road,Islington,Caledonian,E05000368,-0.12124694177557496,530271.000122197,51.542253207301755,184321.00012159348,Islington,Music (office based businesses),E09000019,11/27/2022
Islington,,Everybody's,5300024611,E09000019,53 Corsica Street,Islington,,Highbury East,E05000372,-0.0990121289052065,531794.000122197,51.5486940952481,185077.00012159348,Islington,Music (office based businesses),E09000019,11/27/2022
Islington,,Syncbox Post,10091003102,E09000019,195 St. John Street,Islington,,Clerkenwell,E05000370,-0.10192115569134992,531664.000122197,51.52385601016399,182310.00012159348,Islington,Music recording studios,E09000019,11/27/2022
Islington,http://www.angelstudios.co.uk,Angel Recording Studios Ltd,5300095127,E09000019,311-312 Upper Street,Islington,,St. Mary's,E05000379,-0.10078265446521711,531704.000122197,51.53735491941826,183813.00012159348,Islington,Music recording studios,E09000019,11/27/2022
Islington,www.theurdanacademy.com,Urdang2,0,E09000019,Urdang Academy Old Finsbury Town Hall,Rosebery Avenue,,Clerkenwell,E05000370,-0.10646741443397453,531341.000122197,51.526519648375896,182598.00012159348,Islington,Music rehearsal studios,E09000019,11/27/2022
Islington,www.thenewrose.co.uk,The New Rose,5300031362,E09000019,84-86 Essex Road,Islington,,St. Peter's,E05000380,-0.09737001556695368,531939.000122197,51.53792016833322,183882.00012159348,Islington,Music rehearsal studios,E09000019,11/27/2022
Islington,www.johnhenrys.com,John Henry,0,E09000019,16-24 Brewery Road ,,,Caledonian,E05000368,-0.11891160125506406,530425.000122197,51.54502176201778,184633.00012159348,Islington,Music rehearsal studios,E09000019,11/27/2022
Islington,www.strummersstudios.com,Strummers Studios,5300035125,E09000019,43046 Georges Road,Islington,,Holloway,E05000375,-0.10969277758482951,531049.000122197,51.5502876739047,185235.00012159348,Islington,Music rehearsal studios,E09000019,11/27/2022
Islington,www.islingtonartsfactory.org,Islington Arts Factory,5300071066,E09000019,2 Parkhurst Road,Islington,,Holloway,E05000375,-0.12154517163110419,530219.000122197,51.55322109104998,185540.00012159348,Islington,Music rehearsal studios,E09000019,11/27/2022
Islington,www.stormrehearsalstudios.co.uk,Storm Rehearsal Studios,0,E09000019,Arches 6 & & 303 Holloway Road,,,Junction,E05000376,-0.13073574400858282,529551.000122197,51.56410613600137,186734.00012159348,Islington,Music rehearsal studios,E09000019,11/27/2022
Islington,www.slimjimsliquorstore.com,Slim Jim's Liquor Store,,,112 Upper St,,,,,-0.10128058967253106,531669.1093750969,51.53748087983675,183826.10937449336,Islington,Music venues (all),E09000019,11/27/2022
Islington,www.thegarage.london/listings/#=.thousand-island,Thousand Island,0,E09000019,20-22 Highbury Corner Highbury East,,,Highbury East,E05000372,-0.10241761004299621,531565.000122197,51.546240033794874,184798.00012159348,Islington,Music venues (all),E09000019,11/27/2022
Islington,,South Place Hotel,10090266586,E09000019,3 South Place,Islington,,Bunhill,E05000367,-0.08488737941949984,532861.000122197,51.518524689473885,181748.00012159348,Islington,Music venues (all),E09000019,11/27/2022
Islington,www.beduinbar.co.uk/smithfields,Beduin,10010439992,E09000019,57-59 Charterhouse Street,Islington,,Clerkenwell,E05000370,-0.10194354472791758,531677.000122197,51.5188109716377,181749.00012159348,Islington,Music venues (all),E09000019,11/27/2022
Islington,www.fabriclondon.com,Fabric,5300037740,E09000019,77a Charterhouse St London,,,Clerkenwell,E05000370,-0.10093494982033525,531746.000122197,51.51914539356765,181788.00012159348,Islington,Music venues (all),E09000019,11/27/2022
Islington,www.reina.london,Reina Bar And Kitchen,5300019054,E09000019,85 Charterhouse Street,Islington,,Clerkenwell,E05000370,-0.10062943040892089,531767.000122197,51.519212394558735,181796.00012159348,Islington,Music venues (all),E09000019,11/27/2022
Islington,www.thefenceuk.co.uk,Fence,5300024880,E09000019,67-69 Cowcross Street,Islington,,Clerkenwell,E05000370,-0.10211495969882785,531663.000122197,51.51954222635541,181830.00012159348,Islington,Music venues (all),E09000019,11/27/2022
Islington,www.pianoworks.bar,The Piano Works - Farringdon,10012787103,E09000019,113 Corner Of Farringdon Rd,Farringdon,London,Clerkenwell,E05000370,-0.10648158295210498,531352.000122197,51.522355851955346,182135.00012159348,Islington,Music venues (all),E09000019,11/27/2022
Islington,www.betsey.pub,Betsey Trotwood,5300032921,E09000019,56 Farringdon Road,Islington,,Clerkenwell,E05000370,-0.10644666729199817,531353.000122197,51.52284993498186,182190.00012159348,Islington,Music venues (all),E09000019,11/27/2022
Islington,www.cryptonthegreen.com,Crypt On The Green,5300020940,E09000019,53a Clerkenwell Close,Islington,,Clerkenwell,E05000370,-0.10385186455681208,531533.000122197,51.52284398584867,182194.00012159348,Islington,Music venues (all),E09000019,11/27/2022
Islington,www.theslaughteredlambpub.com,The Slaughtered Lamb,10008975751,E09000019,34-35 Great Sutton Street,Islington,,Bunhill,E05000367,-0.09965823541009933,531824.000122197,51.522803089920295,182197.00012159348,Islington,Music venues (all),E09000019,11/27/2022
Islington,www.theeaglefarringdon.co.uk,The Eagle,5300033028,E09000019,159 Farringdon Road,Islington,,Clerkenwell,E05000370,-0.10817231883853881,531231.000122197,51.52365123141042,182276.00012159348,Islington,Music venues (all),E09000019,11/27/2022
Islington,www.nomadlondon.com/,Nomad London,5300069544,E09000019,58 Old Street,Islington,,Bunhill,E05000367,-0.09423467162176169,532198.000122197,51.5235604809071,182291.00012159348,Islington,Music venues (all),E09000019,11/27/2022
Islington,www.mcqueen-shoreditch.co.uk/,Mcqueen,10008977886,E09000019,55-61 Tabernacle Street,Islington,,Bunhill,E05000367,-0.08415306693439832,532896.000122197,51.523998795069055,182358.00012159348,Islington,Music venues (all),E09000019,11/27/2022
Islington,www.lso.co.uk/lso-st-lukes.html,Lso St. Luke's,5300069641,E09000019,161 Old Street,Islington,,Bunhill,E05000367,-0.09237275606994746,532324.000122197,51.52464541587101,182415.00012159348,Islington,Music venues (all),E09000019,11/27/2022
Islington,www.magicroundabout.co,The Magic Roundabout,10093110770,E09000019,16 St. Agnes Well,Islington,,Bunhill,E05000367,-0.08591178352976783,532771.000122197,51.52503479482535,182470.00012159348,Islington,Music venues (all),E09000019,11/27/2022
Islington,www.xoyo.co.uk,Xoyo,5300025027,E09000019,32-37 Cowper Street,Islington,,Bunhill,E05000367,-0.08425488689015664,532886.000122197,51.52500774162982,182470.00012159348,Islington,Music venues (all),E09000019,11/27/2022
Islington,www.clubaquarium.co.uk,Club Aquarium,5300069826,E09000019,256-260 Old Street,Islington,,Bunhill,E05000367,-0.08357589990912749,532932.000122197,51.525383373447326,182513.00012159348,Islington,Music venues (all),E09000019,11/27/2022
Islington,,Britannia,5300052261,E09000019,94 Ironmonger Row,Islington,,Bunhill,E05000367,-0.09291618177219621,532280.000122197,51.526821708645194,182656.00012159348,Islington,Music venues (all),E09000019,11/27/2022
Islington,www.sadlerswells.com,Sadler's Wells,5300080047,E09000019,Rosebery Avenue Islington,,,Clerkenwell,E05000370,-0.10468083892137667,531458.000122197,51.5289190551349,182868.00012159348,Islington,Music venues (all),E09000019,11/27/2022
Islington,www.harlequinpub.co.uk,Harlequin,5300003134,E09000019,27 Arlington Way,Islington,,Clerkenwell,E05000370,-0.10463260753778865,531460.000122197,51.52938594138187,182920.00012159348,Islington,Music venues (all),E09000019,11/27/2022
Islington,www.thefellow.co.uk,Fellow,5300100120,E09000019,24 York Way,Islington,,Caledonian,E05000368,-0.12072488896216808,530339.000122197,51.531119833693715,183084.00012159348,Islington,Music venues (all),E09000019,11/27/2022
Islington,www.oldredliontheatre.co.uk/pub.html,Old Red Lion,5300085363,E09000019,418 St. John Street,Islington,,Bunhill,E05000367,-0.10426391814995302,531481.000122197,51.530971844515854,183097.00012159348,Islington,Music venues (all),E09000019,11/27/2022
Islington,,Simmons Bar,10012787685,E09000019,32 Caledonian Road,Islington,,Caledonian,E05000368,-0.11894282409007167,530462.000122197,51.53132509896572,183110.00012159348,Islington,Music venues (all),E09000019,11/27/2022
Islington,www.thelexington.co.uk,The Lexington,5300073232,E09000019,96-98 Pentonville Road,Islington,,Barnsbury,E05000366,-0.1098323478091274,531094.000122197,51.53125957406819,183119.00012159348,Islington,Music venues (all),E09000019,11/27/2022
Islington,www.thecharleslambpub.com,Charles Lamb,5300029797,E09000019,16 Elia Street,Islington,,St. Peter's,E05000380,-0.10023441543374574,531759.000122197,51.53147324076396,183160.00012159348,Islington,Music venues (all),E09000019,11/27/2022
Islington,,King Charles I,5300068335,E09000019,55-57 Northdown Street,Islington,,Caledonian,E05000368,-0.1181524004983748,530515.000122197,51.531959955278175,183182.00012159348,Islington,Music venues (all),E09000019,11/27/2022
Islington,,Electrowerkz,5300092109,E09000019,7 Torrens Street,Islington,,St. Peter's,E05000380,-0.10330096472344916,531545.000122197,51.53193657519563,183206.00012159348,Islington,Music venues (all),E09000019,11/27/2022
Islington,,Lincoln Lounge,5300100130,E09000019,52 York Way,Islington,,Caledonian,E05000368,-0.12061650163416486,530342.000122197,51.53270096146321,183260.00012159348,Islington,Music venues (all),E09000019,11/27/2022
Islington,www.academymusicgroup.com/o2academyislington,O2 Academy Islington,10001296717,E09000019,16 Parkfield Street,Islington,,St. Mary's,E05000379,-0.10421736733376434,531477.000122197,51.53348029725511,183376.00012159348,Islington,Music venues (all),E09000019,11/27/2022
Islington,www.theislington.com,The Islington,5300092055,E09000019,1 Tolpuddle Street,Islington,,Barnsbury,E05000366,-0.10718396437564205,531270.000122197,51.53392392622108,183420.00012159348,Islington,Music venues (all),E09000019,11/27/2022
Islington,www.kingsplace.co.uk,Kings Place,10091005851,E09000019,Kings Place 90,York Way,Islington,Caledonian,E05000368,-0.11996600884077638,530382.000122197,51.53448924586011,183460.00012159348,Islington,Music venues (all),E09000019,11/27/2022
Islington,www.greeneking-pubs.co.uk/pub/camden-head-islington,Camden Head,5300015325,E09000019,2 Camden Walk,Islington,,St. Peter's,E05000380,-0.10120690507553946,531681.000122197,51.53513138403271,183565.00012159348,Islington,Music venues (all),E09000019,11/27/2022
Islington,,Radicals And Victuallers,5300094451,E09000019,59 Upper Street,Islington,,St. Mary's,E05000379,-0.10270192509097499,531577.000122197,51.53524551258111,183575.00012159348,Islington,Music venues (all),E09000019,11/27/2022
Islington,www.starofkings.co.uk,The Star Of Kings,5300100171,E09000019,126 York Way,Islington,,Caledonian,E05000368,-0.1204721280360727,530343.000122197,51.53585538234229,183611.00012159348,Islington,Music venues (all),E09000019,11/27/2022
Islington,www.ladybirdbar.co.uk,Ladybird / Basement Club,10091816806,E09000019,70 Upper Street,Islington,,St. Mary's,E05000379,-0.10235700925142602,531600.000122197,51.5355637010666,183611.00012159348,Islington,Music venues (all),E09000019,11/27/2022
Islington,www.wenlockandessex.com,Wenlock And Essex,0,E09000019,18-26 Essex Rd ,,,St. Peter's,E05000380,-0.09950731763314664,531796.000122197,51.53612013074271,183678.00012159348,Islington,Music venues (all),E09000019,11/27/2022
Islington,www.crownislington.co.uk,Crown,5300021757,E09000019,116 Cloudesley Road,Islington,,Barnsbury,E05000366,-0.10794448920716973,531209.000122197,51.5367961485146,183738.00012159348,Islington,Music venues (all),E09000019,11/27/2022
Islington,,The Old Queens Head,5300031307,E09000019,44 Essex Road,Islington,,St. Peter's,E05000380,-0.09869071574844772,531851.000122197,51.53668248476534,183742.00012159348,Islington,Music venues (all),E09000019,11/27/2022
Islington,www.barriobars.com/angel,Barrio North,10012788013,E09000019,45 Essex Road,Islington,,St. Mary's,E05000379,-0.09921645486853978,531814.000122197,51.536870877130454,183762.00012159348,Islington,Music venues (all),E09000019,11/27/2022
Islington,,Kings Head,5300031332,E09000019,59 Essex Road,Islington,,St. Mary's,E05000379,-0.09888965982171898,531836.000122197,51.53709941354374,183788.00012159348,Islington,Music venues (all),E09000019,11/27/2022
Islington,,The Lighthouse,0,E09000019,Unit 1a 190 New North Road,Islington,,St. Peter's,E05000380,-0.08970039694863813,532473.000122197,51.53716595752969,183812.00012159348,Islington,Music venues (all),E09000019,11/27/2022
Islington,www.rosemarybranchtheatre.co.uk,Rosemary Branch Theatre,5300082551,E09000019,2 Shepperton Road,Islington,,Canonbury,E05000369,-0.08534732709112017,532775.000122197,51.53711296709065,183814.00012159348,Islington,Music venues (all),E09000019,11/27/2022
Islington,www.kingsheadtheatrepub.co.uk,Kings Head,5300094557,E09000019,115 Upper Street,Islington,,St. Mary's,E05000379,-0.10122587556889914,531672.000122197,51.53779378625638,183861.00012159348,Islington,Music venues (all),E09000019,11/27/2022
Islington,www.stmaryislington.org,St. Mary's Church,5300095124,E09000019,St. Marys Church Office Upper Street,Islington,,St. Mary's,E05000379,-0.10039952828336142,531729.000122197,51.537897322603435,183874.00012159348,Islington,Music venues (all),E09000019,11/27/2022
Islington,,New Unity,5300095057,E09000019,277 Upper Street,Islington,,St. Mary's,E05000379,-0.10075835971268807,531698.000122197,51.54001662041453,184109.00012159348,Islington,Music venues (all),E09000019,11/27/2022
Islington,www.islingtonassemblyhall.co.uk,Islington Assembly Hall,10091816915,E09000019,Town Hall Upper Street,Islington,,St. Mary's,E05000379,-0.10056482835881085,531708.000122197,51.54120063649735,184241.00012159348,Islington,Music venues (all),E09000019,11/27/2022
Islington,www.thedeaddollshouse.co.uk/,Dead Dolls House Islington,5300094836,E09000019,181 Upper Street,Islington,,St. Mary's,E05000379,-0.10164488233470871,531632.000122197,51.541586857091396,184282.00012159348,Islington,Music venues (all),E09000019,11/27/2022
Islington,www.foursistersbars.com,The Four Sisters Bar,5300015680,E09000019,Canonbury Lane Islington,,,St. Mary's,E05000379,-0.10120202557809142,531660.000122197,51.54252401249372,184387.00012159348,Islington,Music venues (all),E09000019,11/27/2022
Islington,www.hopeandanchor-islington.co.uk,Hope & Anchor,5300094879,E09000019,207 Upper Street,Islington,,St. Mary's,E05000379,-0.10195733634674611,531607.000122197,51.54274308862329,184410.00012159348,Islington,Music venues (all),E09000019,11/27/2022
Islington,www.thecanonbury.co.uk,Canonbury Tavern,5300015877,E09000019,21 Canonbury Place,Islington,,Canonbury,E05000369,-0.09598439204664287,532017.000122197,51.544166198303564,184579.00012159348,Islington,Music venues (all),E09000019,11/27/2022
Islington,www.unionchapel.org.uk,Union Chapel,10008975865,E09000019,19a Compton Terrace,Islington,,St. Mary's,E05000379,-0.10110902875046933,531661.000122197,51.544411153626264,184597.00012159348,Islington,Music venues (all),E09000019,11/27/2022
Islington,www.theduchessofkent.co.uk,Duchess Of Kent,5300057928,E09000019,441 Liverpool Road,Islington,,St. Mary's,E05000379,-0.10726741638710202,531230.000122197,51.545814749779964,184742.00012159348,Islington,Music venues (all),E09000019,11/27/2022
Islington,www.thegaragehighbury.com,The Garage,10008978416,E09000019,20-26 Highbury Corner,Islington,,Highbury East,E05000372,-0.10213081342460245,531585.000122197,51.54619941976346,184794.00012159348,Islington,Music venues (all),E09000019,11/27/2022
Islington,,The Railway Tavern,5300086206,E09000019,4 St. Jude Street,Islington,,Mildmay,E05000377,-0.07772535740054472,533271.000122197,51.54823927356701,185065.00012159348,Islington,Music venues (all),E09000019,11/27/2022
Islington,www.snootyfoxlondon.co.uk,Snooty Fox,5300038424,E09000019,75 Grosvenor Avenue,Islington,,Mildmay,E05000377,-0.08973855515540899,532437.000122197,51.54865136700771,185089.00012159348,Islington,Music venues (all),E09000019,11/27/2022
Islington,www.bostonmusicroom.co.uk,The Boston Arms,5300053516,E09000019,178 Junction Road,Islington,,Junction,E05000376,-0.13684962387268151,529148.000122197,51.55680174642457,185911.00012159348,Islington,Music venues (all),E09000019,11/27/2022
Islington,www.dometufnellpark.co.uk,The Dome,5300027158,E09000019,2 Dartmouth Park Hill,Islington,,Junction,E05000376,-0.1371443270966329,529127.000122197,51.55700428334761,185933.00012159348,Islington,Music venues (all),E09000019,11/27/2022
Islington,www.nambucca.co.uk,Nambucca,5300048656,E09000019,596 Holloway Road,Islington,,Finsbury Park,E05000371,-0.12215319782300453,530156.000122197,51.56052456402281,186351.00012159348,Islington,Music venues (all),E09000019,11/27/2022
Islington,,Jj Moons,5300055447,E09000019,37 Landseer Road,Islington,,Tollington,E05000381,-0.12125386718776637,530213.000122197,51.5623898082522,186560.00012159348,Islington,Music venues (all),E09000019,11/27/2022
Islington,www.northnineteen.co.uk,North Nineteen,5300089189,E09000019,194-196 Sussex Way,Islington,,Tollington,E05000381,-0.12025759561012757,530277.000122197,51.56415456376268,186758.00012159348,Islington,Music venues (all),E09000019,11/27/2022
Islington,,Orleans Winebar,5300082109,E09000019,259-261 Seven Sisters Road,Islington,,Finsbury Park,E05000371,-0.10346408841705118,531441.000122197,51.56408214697456,186780.00012159348,Islington,Music venues (all),E09000019,11/27/2022
Islington,www.worldsendfinsburypark.com,Worlds End,10007028978,E09000019,21-23 Stroud Green Road,Islington,,Finsbury Park,E05000371,-0.10677057713355421,531205.000122197,51.56646487300561,187039.00012159348,Islington,Music venues (all),E09000019,11/27/2022
Islington,,Shaftesbury,5300051016,E09000019,534 Hornsey Road,Islington,,Tollington,E05000381,-0.1220387266590516,530139.000122197,51.56925542142368,187322.00012159348,Islington,Music venues (all),E09000019,11/27/2022
Islington,www.stapletontavern.com,Stapleton,5300025673,E09000019,2 Crouch Hill,Islington,,Tollington,E05000381,-0.11369173690643954,530714.000122197,51.57043457001914,187468.00012159348,Islington,Music venues (all),E09000019,11/27/2022
Islington,www.slimjimsliquorstore.com,Slim Jim's Liquor Store,,,112 Upper St,,,,,-0.10128058967253106,531669.1093750969,51.53748087983675,183826.10937449336,Islington,Music venues (grassroots),E09000019,11/27/2022
Islington,www.thegarage.london/listings/#=.thousand-island,Thousand Island,0,E09000019,20-22 Highbury Corner Highbury East,,,Highbury East,E05000372,-0.10241761004299621,531565.000122197,51.546240033794874,184798.00012159348,Islington,Music venues (grassroots),E09000019,11/27/2022
Islington,www.fabriclondon.com,Fabric,5300037740,E09000019,77a Charterhouse St London,,,Clerkenwell,E05000370,-0.10093494982033525,531746.000122197,51.51914539356765,181788.00012159348,Islington,Music venues (grassroots),E09000019,11/27/2022
Islington,www.pianoworks.bar,The Piano Works - Farringdon,10012787103,E09000019,113 Corner Of Farringdon Rd,Farringdon,London,Clerkenwell,E05000370,-0.10648158295210498,531352.000122197,51.522355851955346,182135.00012159348,Islington,Music venues (grassroots),E09000019,11/27/2022
Islington,www.betsey.pub,Betsey Trotwood,5300032921,E09000019,56 Farringdon Road,Islington,,Clerkenwell,E05000370,-0.10644666729199817,531353.000122197,51.52284993498186,182190.00012159348,Islington,Music venues (grassroots),E09000019,11/27/2022
Islington,www.theslaughteredlambpub.com,The Slaughtered Lamb,10008975751,E09000019,34-35 Great Sutton Street,Islington,,Bunhill,E05000367,-0.09965823541009933,531824.000122197,51.522803089920295,182197.00012159348,Islington,Music venues (grassroots),E09000019,11/27/2022
Islington,www.xoyo.co.uk,Xoyo,5300025027,E09000019,32-37 Cowper Street,Islington,,Bunhill,E05000367,-0.08425488689015664,532886.000122197,51.52500774162982,182470.00012159348,Islington,Music venues (grassroots),E09000019,11/27/2022
Islington,www.thelexington.co.uk,The Lexington,5300073232,E09000019,96-98 Pentonville Road,Islington,,Barnsbury,E05000366,-0.1098323478091274,531094.000122197,51.53125957406819,183119.00012159348,Islington,Music venues (grassroots),E09000019,11/27/2022
Islington,,Electrowerkz,5300092109,E09000019,7 Torrens Street,Islington,,St. Peter's,E05000380,-0.10330096472344916,531545.000122197,51.53193657519563,183206.00012159348,Islington,Music venues (grassroots),E09000019,11/27/2022
Islington,www.theislington.com,The Islington,5300092055,E09000019,1 Tolpuddle Street,Islington,,Barnsbury,E05000366,-0.10718396437564205,531270.000122197,51.53392392622108,183420.00012159348,Islington,Music venues (grassroots),E09000019,11/27/2022
Islington,www.hopeandanchor-islington.co.uk,Hope & Anchor,5300094879,E09000019,207 Upper Street,Islington,,St. Mary's,E05000379,-0.10195733634674611,531607.000122197,51.54274308862329,184410.00012159348,Islington,Music venues (grassroots),E09000019,11/27/2022
Islington,www.thegaragehighbury.com,The Garage,10008978416,E09000019,20-26 Highbury Corner,Islington,,Highbury East,E05000372,-0.10213081342460245,531585.000122197,51.54619941976346,184794.00012159348,Islington,Music venues (grassroots),E09000019,11/27/2022
Islington,www.bostonmusicroom.co.uk,The Boston Arms,5300053516,E09000019,178 Junction Road,Islington,,Junction,E05000376,-0.13684962387268151,529148.000122197,51.55680174642457,185911.00012159348,Islington,Music venues (grassroots),E09000019,11/27/2022
Islington,www.dometufnellpark.co.uk,The Dome,5300027158,E09000019,2 Dartmouth Park Hill,Islington,,Junction,E05000376,-0.1371443270966329,529127.000122197,51.55700428334761,185933.00012159348,Islington,Music venues (grassroots),E09000019,11/27/2022
Islington,www.nambucca.co.uk,Nambucca,5300048656,E09000019,596 Holloway Road,Islington,,Finsbury Park,E05000371,-0.12215319782300453,530156.000122197,51.56052456402281,186351.00012159348,Islington,Music venues (grassroots),E09000019,11/27/2022
Islington,https://www.backgroundsprophire.co.uk,Backgrounds Prop Hire,10090549981,E09000019,40 Brewery Road,,,Caledonian,E05000368,-0.11952404754187511,530383.0001221001,51.54486070472273,184614.00012210011,Islington,Prop and costume making,E09000019,11/27/2022
Islington,http://www.cosprop.com,CosProp,5300048478,E09000019,469-475 Holloway Road,,,St. George's,E05000378,-0.12241426678527675,530140.0001221001,51.559791274973264,186269.00012210011,Islington,Prop and costume making,E09000019,11/27/2022
Islington,,Harlequin,,E09000019,27 Arlington Way,London,Finsbury,Clerkenwell,E05000370,-0.10452278167672048,531467.0001221001,51.52960001220874,182944.00012210011,Islington,Pubs,E09000019,11/27/2022
Islington,,Peasant,,E09000019,240 St John Street,London,Finsbury,Clerkenwell,E05000370,-0.10167910375485843,531676.0001221001,51.52551590485401,182495.00012210011,Islington,Pubs,E09000019,11/27/2022
Islington,,St John,,E09000019,26 St John Street,London,Farringdon,Bunhill,E05000367,-0.09984046611705284,531820.0001221001,51.5198111781185,181864.00012210011,Islington,Pubs,E09000019,11/27/2022
Islington,,Bar Smith,,E09000019,20 St John Street,London,Farringdon,Bunhill,E05000367,-0.09984046611705284,531820.0001221001,51.5198111781185,181864.00012210011,Islington,Pubs,E09000019,11/27/2022
Islington,,Clerkenwell & Social,,E09000019,2-5 St John's Square,London,Farringdon,Clerkenwell,E05000370,-0.10170868932204317,531685.0001221001,51.52168511795356,182069.00012210011,Islington,Pubs,E09000019,11/27/2022
Islington,,BrewDog,,E09000019,45-47 Clerkenwell Road,London,Farringdon,Clerkenwell,E05000370,-0.10301784877557264,531594.0001221001,51.52175126888457,182074.00012210011,Islington,Pubs,E09000019,11/27/2022
Islington,,Jerusalem Tavern,,E09000019,55 Britton Street,Farringdon,,Clerkenwell,E05000370,-0.10235060611185753,531642.0001221001,51.52115589136586,182009.00012210011,Islington,Pubs,E09000019,11/27/2022
Islington,,Fox & Anchor,,E09000019,115 Charterhouse Street,London,Farringdon,Bunhill,E05000367,-0.09905391850855151,531874.0001221001,51.520005284082714,181887.00012210011,Islington,Pubs,E09000019,11/27/2022
Islington,,Hope,,E09000019,94 Cowcross Street,London,Farringdon,Clerkenwell,E05000370,-0.10070763965630847,531761.0001221001,51.519411520144914,181818.00012210011,Islington,Pubs,E09000019,11/27/2022
Islington,,Fence,,E09000019,67-69 Cowcross Street,London,Farringdon,Clerkenwell,E05000370,-0.1008915543039759,531748.0001221001,51.519495440802665,181827.00012210011,Islington,Pubs,E09000019,11/27/2022
Islington,,Three Compasses,,E09000019,66 Cowcross Street,London,Farringdon,Clerkenwell,E05000370,-0.1008915543039759,531748.0001221001,51.519495440802665,181827.00012210011,Islington,Pubs,E09000019,11/27/2022
Islington,,Castle,,E09000019,34-35 Cowcross Street,London,Farringdon,Clerkenwell,E05000370,-0.10264014416718126,531626.0001221001,51.519739589563116,181851.00012210011,Islington,Pubs,E09000019,11/27/2022
Islington,,Lazy Bones,,E09000019,"Unit 5, 19-25 Cowcross Street",London,Farringdon,Clerkenwell,E05000370,-0.10210636463887725,531663.0001221001,51.51974893975639,181853.00012210011,Islington,Pubs,E09000019,11/27/2022
Islington,,Sports Bar & Grill (Farringdon),,E09000019,"Unit 3 Cowcross Place,19-25 Cowcross St,",London,Farringdon,Clerkenwell,E05000370,-0.10210636463887725,531663.0001221001,51.51974893975639,181853.00012210011,Islington,Pubs,E09000019,11/27/2022
Islington,,Sutton Arms,,E09000019,6 Carthusian Street,Farringdon,Farringdon,Bunhill,E05000367,-0.09655225618458736,532047.0001221001,51.520189547521554,181912.00012210011,Islington,Pubs,E09000019,11/27/2022
Islington,,Erebuni,,E09000019,2-5 Carthusian Street,London,Farringdon,Bunhill,E05000367,-0.09655225618458736,532047.0001221001,51.520189547521554,181912.00012210011,Islington,Pubs,E09000019,11/27/2022
Islington,,Beduin,,E09000019,57-59 Charterhouse Street,London,Farringdon,Clerkenwell,E05000370,-0.1021190322829607,531665.0001221001,51.51875085659071,181742.00012210011,Islington,Pubs,E09000019,11/27/2022
Islington,,Draft House Farringdon,,E09000019,55 Charterhouse Street,London,Farringdon,Clerkenwell,E05000370,-0.1021190322829607,531665.0001221001,51.51875085659071,181742.00012210011,Islington,Pubs,E09000019,11/27/2022
Islington,,Smiths of Smithfield,,E09000019,67-77 Charterhouse Street,London,Farringdon,Clerkenwell,E05000370,-0.10080716488911004,531755.0001221001,51.51909835631782,181783.00012210011,Islington,Pubs,E09000019,11/27/2022
Islington,,Simmons,,E09000019,105 Charterhouse Street,London,Farringdon,Bunhill,E05000367,-0.09972315723502097,531829.0001221001,51.5195124889262,181831.00012210011,Islington,Pubs,E09000019,11/27/2022
Islington,,Sourced Market,,E09000019,7-21 Goswell Road,Barbican,,Bunhill,E05000367,-0.09597798001857304,532084.0001221001,51.52116952053352,182022.00012210011,Islington,Pubs,E09000019,11/27/2022
Islington,,Horseshoe,,E09000019,24 Clerkenwell Close,London,Clerkenwell,Clerkenwell,E05000370,-0.10511209612109294,531444.0001221001,51.523394975328216,182253.00012210011,Islington,Pubs,E09000019,11/27/2022
Islington,,Bowler,,E09000019,32 Bowling Green Lane,London,Clerkenwell,Clerkenwell,E05000370,-0.10638751175965959,531354.0001221001,51.523928209039525,182310.00012210011,Islington,Pubs,E09000019,11/27/2022
Islington,,Green,,E09000019,29 Clerkenwell Green,London,Clerkenwell,Clerkenwell,E05000370,-0.10405222657791338,531520.0001221001,51.522532449785,182159.00012210011,Islington,Pubs,E09000019,11/27/2022
Islington,,Three Kings,,E09000019,7 Clerkenwell Close,London,Clerkenwell,Clerkenwell,E05000370,-0.10437724559570148,531497.0001221001,51.52269059448203,182176.00012210011,Islington,Pubs,E09000019,11/27/2022
Islington,,Crown Tavern,,E09000019,42 Clerkenwell Green,London,Clerkenwell,Clerkenwell,E05000370,-0.1035966417151238,531551.0001221001,51.522740929805344,182183.00012210011,Islington,Pubs,E09000019,11/27/2022
Islington,,Sekforde,,E09000019,34 Sekforde Street,London,Clerkenwell,Clerkenwell,E05000370,-0.10288812058065865,531598.0001221001,51.52348493169957,182267.00012210011,Islington,Pubs,E09000019,11/27/2022
Islington,,Bourne & Hollingsworth Buildings,,E09000019,42 Northampton Road,London,Clerkenwell,Clerkenwell,E05000370,-0.1057926466886272,531392.0001221001,51.525060786946916,182437.00012210011,Islington,Pubs,E09000019,11/27/2022
Islington,,George & Monkey,,E09000019,68 Amwell Street,London,Finsbury,Clerkenwell,E05000370,-0.1087591550709533,531173.0001221001,51.52966840028808,182944.00012210011,Islington,Pubs,E09000019,11/27/2022
Islington,,Shakespeares Head,,E09000019,1 Arlington Way,London,Finsbury,Clerkenwell,E05000370,-0.10494685189162717,531437.0001221001,51.52980472343169,182966.00012210011,Islington,Pubs,E09000019,11/27/2022
Islington,,Eagle,,E09000019,159 Farringdon Road,London,Clerkenwell,Clerkenwell,E05000370,-0.10850916044926118,531207.0001221001,51.52387251021705,182300.00012210011,Islington,Pubs,E09000019,11/27/2022
Islington,,Piano Works,,E09000019,113-117 Farringdon Road,London,Clerkenwell,Clerkenwell,E05000370,-0.1094704117800339,531137.0001221001,51.52503019279642,182427.00012210011,Islington,Pubs,E09000019,11/27/2022
Islington,,City Pride,,E09000019,28 Farringdon Lane,London,Clerkenwell,Clerkenwell,E05000370,-0.10507998713703705,531449.0001221001,51.52243214362983,182146.00012210011,Islington,Pubs,E09000019,11/27/2022
Islington,,Betsey Trotwood,,E09000019,56 Farringdon Road,London,Clerkenwell,Clerkenwell,E05000370,-0.10636208807469226,531359.0001221001,51.52280360148514,182185.00012210011,Islington,Pubs,E09000019,11/27/2022
Islington,,Ninth Ward,,E09000019,99-101 Farringdon Road,London,Clerkenwell,Clerkenwell,E05000370,-0.10603510021817918,531384.0001221001,51.52199789290708,182096.00012210011,Islington,Pubs,E09000019,11/27/2022
Islington,,Coach,,E09000019,26-28 Ray Street,London,Clerkenwell,Clerkenwell,E05000370,-0.1075683272155191,531276.0001221001,51.52257125151493,182157.00012210011,Islington,Pubs,E09000019,11/27/2022
Islington,,Caravan,,E09000019,11-13 Exmouth Street,London,Clerkenwell,Clerkenwell,E05000370,-0.10841676538687459,531210.0001221001,51.5250581716238,182432.00012210011,Islington,Pubs,E09000019,11/27/2022
Islington,,Exmouth Arms,,E09000019,23 Exmouth Market,Clerkenwell,Finsbury,Clerkenwell,E05000370,-0.10738584160165293,531280.0001221001,51.525581154165344,182492.00012210011,Islington,Pubs,E09000019,11/27/2022
Islington,,Coin Laundry,,E09000019,70 Exmouth Market,London,Clerkenwell,Clerkenwell,E05000370,-0.10644371772731491,531345.0001221001,51.525700850685645,182507.00012210011,Islington,Pubs,E09000019,11/27/2022
Islington,,Wilmington,,E09000019,69 Rosebery Avenue,London,Clerkenwell,Clerkenwell,E05000370,-0.10848197990320192,531204.0001221001,51.52557185698614,182489.00012210011,Islington,Pubs,E09000019,11/27/2022
Islington,,Old China Hand,,E09000019,8 Tysoe Street,London,Clerkenwell,Clerkenwell,E05000370,-0.10745911697036874,531273.0001221001,51.52624786091258,182566.00012210011,Islington,Pubs,E09000019,11/27/2022
Islington,,Sutton Arms,,E09000019,16 Great Sutton Street,London,Finsbury,Bunhill,E05000367,-0.09876349060585318,531886.0001221001,51.52282456280225,182201.00012210011,Islington,Pubs,E09000019,11/27/2022
Islington,,Slaughtered Lamb,,E09000019,34-35 Gt Sutton Street,London,Finsbury,Bunhill,E05000367,-0.09981708902461622,531813.0001221001,51.522796670226256,182196.00012210011,Islington,Pubs,E09000019,11/27/2022
Islington,,19:20,,E09000019,19-20 Great Sutton Street,London,Finsbury,Bunhill,E05000367,-0.09999296891608914,531801.0001221001,51.52272757105813,182188.00012210011,Islington,Pubs,E09000019,11/27/2022
Islington,,Brewhouse & Kitchen,,E09000019,Torrens Street,London,Angel,St. Peter's,E05000380,-0.10346881605927336,531534.0001221001,51.53171445024085,183181.00012210011,Islington,Pubs,E09000019,11/27/2022
Islington,,Royal Star,,E09000019,220 City Road,London,Finsbury,Bunhill,E05000367,-0.09077306995570933,532426.0001221001,51.52773116776038,182761.00012210011,Islington,Pubs,E09000019,11/27/2022
Islington,,Britannia,,E09000019,94 Ironmonger Row,London,Finsbury,Bunhill,E05000367,-0.0926342659916841,532301.0001221001,51.5263224768521,182601.00012210011,Islington,Pubs,E09000019,11/27/2022
Islington,,Jamies Italian,,E09000019,409-411 St John St,London,Finsbury,Clerkenwell,E05000370,-0.10528119131002585,531411.0001221001,51.53078143041806,183074.00012210011,Islington,Pubs,E09000019,11/27/2022
Islington,,Artisan (of Clerkenwell),,E09000019,53 St John's Square,London,Finsbury,Clerkenwell,E05000370,-0.10254358492561207,531625.0001221001,51.522409121813176,182148.00012210011,Islington,Pubs,E09000019,11/27/2022
Islington,,Dovetail,,E09000019,9 Jerusalem Passage,London,Finsbury,Clerkenwell,E05000370,-0.10238792962477822,531635.0001221001,51.522685404414084,182179.00012210011,Islington,Pubs,E09000019,11/27/2022
Islington,,Simmons,,E09000019,180 St John Street,London,Finsbury,Bunhill,E05000367,-0.10181639340566002,531670.0001221001,51.52429500009842,182359.00012210011,Islington,Pubs,E09000019,11/27/2022
Islington,,Old Red Lion,,E09000019,418 St John Street,London,Finsbury,Bunhill,E05000367,-0.10426690555109006,531481.0001221001,51.53089994425763,183089.00012210011,Islington,Pubs,E09000019,11/27/2022
Islington,,Pearl & Feathers,,E09000019,362 St John Street,London,Finsbury,Bunhill,E05000367,-0.10322460301855792,531558.0001221001,51.529264249942415,182909.00012210011,Islington,Pubs,E09000019,11/27/2022
Islington,,Blacksmith & The Toffee Maker,,E09000019,292 St John Street,London,Finsbury,Clerkenwell,E05000370,-0.1029965747333136,531578.0001221001,51.527812596675815,182748.00012210011,Islington,Pubs,E09000019,11/27/2022
Islington,,Old Ivy House,,E09000019,166 Goswell Road,London,Finsbury,Bunhill,E05000367,-0.09902516842846876,531853.0001221001,51.527964140115586,182772.00012210011,Islington,Pubs,E09000019,11/27/2022
Islington,,Corner Bar,,E09000019,125 Central Street,London,Finsbury,Bunhill,E05000367,-0.09573348705246566,532084.0001221001,51.527029370233414,182674.00012210011,Islington,Pubs,E09000019,11/27/2022
Islington,,William Blake,,E09000019,174-180 Old Street,London,Finsbury,Bunhill,E05000367,-0.08885426244471173,532568.0001221001,51.52466008181751,182423.00012210011,Islington,Pubs,E09000019,11/27/2022
Islington,,Masque Haunt,,E09000019,168-172 Old Street,London,Finsbury,Bunhill,E05000367,-0.08885426244471173,532568.0001221001,51.52466008181751,182423.00012210011,Islington,Pubs,E09000019,11/27/2022
Islington,,Fare Bar + Canteen,,E09000019,11 Old Street,Old Street,,Bunhill,E05000367,-0.09646000032481315,532045.0001221001,51.523092979851185,182235.00012210011,Islington,Pubs,E09000019,11/27/2022
Islington,,Look Mum No hands,,E09000019,49 Old Street,London,Finsbury,Bunhill,E05000367,-0.0951995935988156,532131.0001221001,51.52358515025656,182292.00012210011,Islington,Pubs,E09000019,11/27/2022
Islington,,Draft House Old Street,,E09000019,211 Old Street,London,Finsbury,Bunhill,E05000367,-0.08751990494036736,532658.0001221001,51.52553768982183,182523.00012210011,Islington,Pubs,E09000019,11/27/2022
Islington,,Shoreditch Grind,,E09000019,213 Old Street,Old Street,,Bunhill,E05000367,-0.08751990494036736,532658.0001221001,51.52553768982183,182523.00012210011,Islington,Pubs,E09000019,11/27/2022
Islington,,Old Fountain,,E09000019,3 Baldwin Street,Finsbury,,Bunhill,E05000367,-0.08743675414615568,532661.0001221001,51.52648965495303,182629.00012210011,Islington,Pubs,E09000019,11/27/2022
Islington,,Singer Tavern,,E09000019,1-5 City Road,London,Finsbury,Bunhill,E05000367,-0.0853071541827482,532821.0001221001,51.52226388991674,182163.00012210011,Islington,Pubs,E09000019,11/27/2022
Islington,,Angel,,E09000019,73 City Road,London,Finsbury,Bunhill,E05000367,-0.08578081744380976,532782.0001221001,51.524376124600686,182397.00012210011,Islington,Pubs,E09000019,11/27/2022
Islington,,Two Brewers,,E09000019,121 Whitecross Street,London,Finsbury,Bunhill,E05000367,-0.09133515652702975,532404.0001221001,51.521876494376144,182109.00012210011,Islington,Pubs,E09000019,11/27/2022
Islington,,Artillery Arms,,E09000019,102 Bunhill Row,London,Finsbury,Bunhill,E05000367,-0.08868009544544869,532585.0001221001,51.522966447379794,182235.00012210011,Islington,Pubs,E09000019,11/27/2022
Islington,,Whitecross Tap,,E09000019,142 Whitecross Street,London,Finsbury,Bunhill,E05000367,-0.09175735109462413,532370.0001221001,51.523502211725585,182289.00012210011,Islington,Pubs,E09000019,11/27/2022
Islington,,Finch's,,E09000019,12a Finsbury Square,London,Shoreditch,Bunhill,E05000367,-0.08581152400185531,532789.0001221001,51.52123785889101,182048.00012210011,Islington,Pubs,E09000019,11/27/2022
Islington,,Aviary,,E09000019,"Montcalm Royal London House Hotel, 22-25 Finsbury Square",London,Shoreditch,Bunhill,E05000367,-0.08408575045452833,532909.0001221001,51.52113772939206,182040.00012210011,Islington,Pubs,E09000019,11/27/2022
Islington,,Burdock,,E09000019,"Montcalm Royal London House Hotel, 22-25 Finsbury Square",London,Shoreditch,Bunhill,E05000367,-0.08408575045452833,532909.0001221001,51.52113772939206,182040.00012210011,Islington,Pubs,E09000019,11/27/2022
Islington,,All Bar One,,E09000019,127 Finsbury Pavement,London,Shoreditch,Bunhill,E05000367,-0.08618227282443554,532768.0001221001,51.51961606727543,181867.00012210011,Islington,Pubs,E09000019,11/27/2022
Islington,,Flight Club,,E09000019,"Alphabeta Building, 2A Worship Street",London,Shoreditch,Bunhill,E05000367,-0.08369570878194485,532935.0001221001,51.521500094607184,182081.00012210011,Islington,Pubs,E09000019,11/27/2022
Islington,,Long Arm Pub & Brewery,,E09000019,20-26 Worship St,London,Shoreditch,Bunhill,E05000367,-0.08368287883874793,532935.0001221001,51.52180566755292,182115.00012210011,Islington,Pubs,E09000019,11/27/2022
Islington,,McQueen,,E09000019,55â€“61 Tabernacle Street,London,Shoreditch,Bunhill,E05000367,-0.08426787812803314,532889.0001221001,51.52366790727147,182321.00012210011,Islington,Pubs,E09000019,11/27/2022
Islington,,Windmill,,E09000019,27 Tabernacle Street,London,Shoreditch,Bunhill,E05000367,-0.08488490399591507,532849.0001221001,51.52270667560877,182213.00012210011,Islington,Pubs,E09000019,11/27/2022
Islington,,Dado54,,E09000019,54 Farringdon Street,London,Fleet Street,Clerkenwell,E05000370,-0.10427655898946503,531510.0001221001,51.52060245615284,181944.00012210011,Islington,Pubs,E09000019,11/27/2022
Islington,,Star Of Kings,,E09000019,126 York Way,London,Barnsbury,Caledonian,E05000368,-0.12035717520561662,530350.0001221001,51.53619529488617,183649.00012210011,Islington,Pubs,E09000019,11/27/2022
Islington,,Crown,,E09000019,116 Cloudesley Road,London,Barnsbury,Barnsbury,E05000366,-0.1078524361057845,531218.0001221001,51.53588631431903,183637.00012210011,Islington,Pubs,E09000019,11/27/2022
Islington,,Bull,,E09000019,100 Upper Street,London,Barnsbury,St. Mary's,E05000379,-0.10174822170856515,531639.0001221001,51.536678045571705,183736.00012210011,Islington,Pubs,E09000019,11/27/2022
Islington,,Alphabet,,E09000019,56 Upper Street,London,Barnsbury,St. Mary's,E05000379,-0.10241764513778244,531596.0001221001,51.53549273355782,183603.00012210011,Islington,Pubs,E09000019,11/27/2022
Islington,,Radicals & Victuallers,,E09000019,59 Upper Street,London,Islington,St. Mary's,E05000379,-0.10241764513778244,531596.0001221001,51.53549273355782,183603.00012210011,Islington,Pubs,E09000019,11/27/2022
Islington,,Steam Passage Tavern,,E09000019,44 Upper Street,London,Barnsbury,St. Mary's,E05000379,-0.10351973314833626,531523.0001221001,51.534305420737766,183469.00012210011,Islington,Pubs,E09000019,11/27/2022
Islington,,Nag's Head,,E09000019,12 Upper Street,London,Islington,St. Mary's,E05000379,-0.10430644525828997,531471.0001221001,51.53341878205805,183369.00012210011,Islington,Pubs,E09000019,11/27/2022
Islington,,Pig & Butcher,,E09000019,80 Liverpool Road,London,Barnsbury,St. Mary's,E05000379,-0.1049039970202937,531420.0001221001,51.53673806933186,183737.00012210011,Islington,Pubs,E09000019,11/27/2022
Islington,,Angelic,,E09000019,57 Liverpool Road,London,Barnsbury,Barnsbury,E05000366,-0.10579926712219787,531365.0001221001,51.5342793016033,183462.00012210011,Islington,Pubs,E09000019,11/27/2022
Islington,,Islington Town House,,E09000019,13 Liverpool Road,London,Barnsbury,Barnsbury,E05000366,-0.10553843863872667,531386.0001221001,51.533267809948136,183350.00012210011,Islington,Pubs,E09000019,11/27/2022
Islington,,Islington Cafe Bar,,E09000019,1 Tolpuddle Street,London,Barnsbury,Barnsbury,E05000366,-0.1095891931115584,531104.0001221001,51.53364794226377,183385.00012210011,Islington,Pubs,E09000019,11/27/2022
Islington,,Tarmon,,E09000019,270 Caledonian Road,London,Barnsbury,Caledonian,E05000368,-0.11491681114522352,530720.0001221001,51.53872510804981,183940.00012210011,Islington,Pubs,E09000019,11/27/2022
Islington,,Meltdown,,E09000019,342 Caledonian Road,London,Barnsbury,Caledonian,E05000368,-0.11506666020454423,530707.0001221001,51.539635864228,184041.00012210011,Islington,Pubs,E09000019,11/27/2022
Islington,,Cuckoo,,E09000019,115 Hemingford Road,London,Barnsbury,Caledonian,E05000368,-0.11216599154830752,530904.0001221001,51.5410731501562,184206.00012210011,Islington,Pubs,E09000019,11/27/2022
Islington,,Hemingford Arms,,E09000019,158 Hemingford Road,London,Barnsbury,Barnsbury,E05000366,-0.1115317874913782,530944.0001221001,51.54245694081055,184361.00012210011,Islington,Pubs,E09000019,11/27/2022
Islington,,Kennedy's,,E09000019,297 Caledonian Road,London,Barnsbury,Caledonian,E05000368,-0.11572326350610422,530660.0001221001,51.54015005231485,184097.00012210011,Islington,Pubs,E09000019,11/27/2022
Islington,,Drapers Arms,,E09000019,44 Barnsbury Street,London,Barnsbury,Barnsbury,E05000366,-0.10665576656078077,531289.0001221001,51.54004900726688,184102.00012210011,Islington,Pubs,E09000019,11/27/2022
Islington,,Albion,,E09000019,10 Thornhill Road,London,Barnsbury,Barnsbury,E05000366,-0.10786346396010175,531208.0001221001,51.53909719149472,183994.00012210011,Islington,Pubs,E09000019,11/27/2022
Islington,,Regent,,E09000019,201-203 Liverpool Road,London,Barnsbury,Barnsbury,E05000366,-0.1051219696430328,531397.0001221001,51.53947563246144,184041.00012210011,Islington,Pubs,E09000019,11/27/2022
Islington,,Foxglove,,E09000019,209-211 Liverpool Road,London,Barnsbury,Barnsbury,E05000366,-0.1051219696430328,531397.0001221001,51.53947563246144,184041.00012210011,Islington,Pubs,E09000019,11/27/2022
Islington,,Slim Jims Liquor Store,,E09000019,112 Upper Street,London,Islington,St. Mary's,E05000379,-0.10128220508343229,531669.0001221001,51.53747992341833,183826.00012210011,Islington,Pubs,E09000019,11/27/2022
Islington,,Kings Head Theatre Bar,,E09000019,115 Upper Street,London,Barnsbury,St. Mary's,E05000379,-0.10128220508343229,531669.0001221001,51.53747992341833,183826.00012210011,Islington,Pubs,E09000019,11/27/2022
Islington,,John Salt,,E09000019,131 Upper Street,London,Barnsbury,St. Mary's,E05000379,-0.10101813528331495,531684.0001221001,51.538626824444655,183954.00012210011,Islington,Pubs,E09000019,11/27/2022
Islington,,Hoxley & Porter,,E09000019,153 Upper Street,London,Barnsbury,St. Mary's,E05000379,-0.10124632432435152,531665.0001221001,51.53972773299249,184076.00012210011,Islington,Pubs,E09000019,11/27/2022
Islington,,Vineyard,,E09000019,178-179 Upper Street,London,Barnsbury,St. Mary's,E05000379,-0.10154546604420422,531641.0001221001,51.540856769915685,184201.00012210011,Islington,Pubs,E09000019,11/27/2022
Islington,,Hope & Anchor,,E09000019,207 Upper Street,London,Barnsbury,St. Mary's,E05000379,-0.10190062996623414,531610.0001221001,51.54306593901106,184446.00012210011,Islington,Pubs,E09000019,11/27/2022
Islington,,Dead Dolls House,,E09000019,181 Upper Street,London,Barnsbury,St. Mary's,E05000379,-0.10173886588927218,531624.0001221001,51.54210101082594,184339.00012210011,Islington,Pubs,E09000019,11/27/2022
Islington,,Library,,E09000019,235 Upper Street,London,Barnsbury,St. Mary's,E05000379,-0.101930829702463,531603.0001221001,51.544766209314524,184635.00012210011,Islington,Pubs,E09000019,11/27/2022
Islington,,Famous Cock Tavern,,E09000019,259 Upper Street,London,Barnsbury,St. Mary's,E05000379,-0.101930829702463,531603.0001221001,51.544766209314524,184635.00012210011,Islington,Pubs,E09000019,11/27/2022
Islington,,White Swan,,E09000019,255-256 Upper Street,London,Barnsbury,St. Mary's,E05000379,-0.10186813485231268,531606.0001221001,51.545232859528944,184687.00012210011,Islington,Pubs,E09000019,11/27/2022
Islington,,Taproom,,E09000019,163 Upper Street,London,Barnsbury,St. Mary's,E05000379,-0.10140899678302696,531652.0001221001,51.540323941108724,184142.00012210011,Islington,Pubs,E09000019,11/27/2022
Islington,,Lucky Voice,,E09000019,173-174 Upper Street,London,Barnsbury,St. Mary's,E05000379,-0.10180050991575537,531630.0001221001,51.538540559191055,183943.00012210011,Islington,Pubs,E09000019,11/27/2022
Islington,,Four Sisters,,E09000019,25 Canonbury Lane,London,Canonbury,St. Mary's,E05000379,-0.1004813528914797,531710.0001221001,51.5425123442029,184387.00012210011,Islington,Pubs,E09000019,11/27/2022
Islington,,Smokehouse,,E09000019,63-69 Canonbury Road,London,Canonbury,St. Mary's,E05000379,-0.09747461164008021,531921.0001221001,51.541636207074546,184295.00012210011,Islington,Pubs,E09000019,11/27/2022
Islington,,Myddleton Arms,,E09000019,52 Canonbury Road,London,Canonbury,Canonbury,E05000369,-0.09528576673298407,532075.0001221001,51.54086321192656,184213.00012210011,Islington,Pubs,E09000019,11/27/2022
Islington,,Alwyne Castle,,E09000019,83 St Pauls Road,London,Canonbury,Canonbury,E05000369,-0.09698742917027284,531942.0001221001,51.54605313538282,184787.00012210011,Islington,Pubs,E09000019,11/27/2022
Islington,,Hen & Chickens,,E09000019,109 St Pauls Road,London,Canonbury,St. Mary's,E05000379,-0.09986510465278825,531744.0001221001,51.545533191434174,184724.00012210011,Islington,Pubs,E09000019,11/27/2022
Islington,,Canonbury Tavern,,E09000019,"21 Canonbury Place,",London,Canonbury,Canonbury,E05000369,-0.09563207754292646,532041.0001221001,51.544313369517845,184596.00012210011,Islington,Pubs,E09000019,11/27/2022
Islington,,BrewDog Angel,,E09000019,29-31 Essex Road,London,Essex Road,St. Mary's,E05000379,-0.09978581230115219,531776.0001221001,51.53635847561758,183704.00012210011,Islington,Pubs,E09000019,11/27/2022
Islington,,Barrio,,E09000019,45 Essex Road,London,Islington,St. Mary's,E05000379,-0.09877099471545926,531844.0001221001,51.537178432237575,183797.00012210011,Islington,Pubs,E09000019,11/27/2022
Islington,,Simmons,,E09000019,43 Essex Road,London,Essex Road,St. Mary's,E05000379,-0.09877099471545926,531844.0001221001,51.537178432237575,183797.00012210011,Islington,Pubs,E09000019,11/27/2022
Islington,,Kings,,E09000019,59 Essex Road,London,Canonbury,St. Mary's,E05000379,-0.09877099471545926,531844.0001221001,51.537178432237575,183797.00012210011,Islington,Pubs,E09000019,11/27/2022
Islington,,Marquess Tavern,,E09000019,32 Canonbury Street,London,Canonbury,Canonbury,E05000369,-0.09373902386910034,532177.0001221001,51.54267277249277,184417.00012210011,Islington,Pubs,E09000019,11/27/2022
Islington,,Compton Arms,,E09000019,4 Compton Avenue,London,Canonbury,St. Mary's,E05000379,-0.10065301364613755,531695.0001221001,51.543585357130354,184506.00012210011,Islington,Pubs,E09000019,11/27/2022
Islington,,Fox on the Green,,E09000019,1 Islington Green,London,Canonbury,St. Mary's,E05000379,-0.10091233538969217,531699.0001221001,51.53597201018802,183659.00012210011,Islington,Pubs,E09000019,11/27/2022
Islington,,Baring Arms,,E09000019,55 Baring Street,London,Hoxton,St. Peter's,E05000380,-0.08697641680168335,532664.0001221001,51.53643804932076,183736.00012210011,Islington,Pubs,E09000019,11/27/2022
Islington,,Rosemary Branch,,E09000019,2 Shepperton Road,London,Islington,Canonbury,E05000369,-0.0853473270923248,532775.0001221001,51.53711296709522,183814.00012210011,Islington,Pubs,E09000019,11/27/2022
Islington,,Michael's Den,,E09000019,21 Halliford Street,London,Essex Road,Canonbury,E05000369,-0.0879868370195647,532585.0001221001,51.539512341423666,184076.00012210011,Islington,Pubs,E09000019,11/27/2022
Islington,,De Beauvoir Arms,,E09000019,113 Southgate Road,London,De Beauvoir Town,Canonbury,E05000369,-0.08388441586129856,532867.0001221001,51.540353748010055,184177.00012210011,Islington,Pubs,E09000019,11/27/2022
Islington,,Lord Clyde,,E09000019,340-342 Essex Road,London,Essex Road,Canonbury,E05000369,-0.08866221451391468,532528.0001221001,51.543012855006076,184464.00012210011,Islington,Pubs,E09000019,11/27/2022
Islington,,Seveney,,E09000019,382 Essex Road,London,Canonbury,Canonbury,E05000369,-0.08646000857610014,532676.0001221001,51.54462277373779,184647.00012210011,Islington,Pubs,E09000019,11/27/2022
Islington,,Lady Mildmay,,E09000019,92 Mildmay Park,London,Kingsland,Mildmay,E05000377,-0.08277917730160936,532917.0001221001,51.54949114701341,185195.00012210011,Islington,Pubs,E09000019,11/27/2022
Islington,,Alma,,E09000019,59 Newington Green Road,London,Kingsland,Mildmay,E05000377,-0.08606220322110117,532693.0001221001,51.54825867894743,185052.00012210011,Islington,Pubs,E09000019,11/27/2022
Islington,,Cellars,,E09000019,125 Newington Green Road,London,Kingsland,Mildmay,E05000377,-0.08477929924018399,532776.0001221001,51.55029726658865,185281.00012210011,Islington,Pubs,E09000019,11/27/2022
Islington,,Weavers Arms,,E09000019,98 Newington Green Road,London,Kingsland,Mildmay,E05000377,-0.08538710551940426,532738.0001221001,51.54887721167289,185122.00012210011,Islington,Pubs,E09000019,11/27/2022
Islington,,Railway Tavern Ale House,,E09000019,2 St Jude Street,London,Dalston Kingsland,Mildmay,E05000377,-0.07592954334786824,533396.0001221001,51.54806593403255,185049.00012210011,Islington,Pubs,E09000019,11/27/2022
Islington,,Army & Navy,,E09000019,1-3 Matthias Road,Stoke Newington,London,Mildmay,E05000377,-0.07826345087352897,533225.0001221001,51.55121596952539,185395.00012210011,Islington,Pubs,E09000019,11/27/2022
Islington,,Leconfield,,E09000019,79 Green Lanes,Stoke Newington,London,Mildmay,E05000377,-0.08663838967122807,532640.0001221001,51.552746872863075,185550.00012210011,Islington,Pubs,E09000019,11/27/2022
Islington,,Clissold Park Tavern,,E09000019,177 Green Lanes,Stoke Newington,London,Highbury East,E05000372,-0.08904460831214416,532464.0001221001,51.55591585210163,185898.00012210011,Islington,Pubs,E09000019,11/27/2022
Islington,,Yield,,E09000019,"Alliance House, 44/45 Newington Green",Newington Green,,Mildmay,E05000377,-0.08443194469622445,532798.0001221001,51.551011080077615,185361.00012210011,Islington,Pubs,E09000019,11/27/2022
Islington,,Bergen House,,E09000019,47 Newington Green,Newington Green,,Mildmay,E05000377,-0.08443194469622445,532798.0001221001,51.551011080077615,185361.00012210011,Islington,Pubs,E09000019,11/27/2022
Islington,,North By Northwest,,E09000019,188-190 New North Road,London,Islington,St. Peter's,E05000380,-0.08952444563228443,532485.0001221001,51.537235040370824,183820.00012210011,Islington,Pubs,E09000019,11/27/2022
Islington,,Hanbury Arms,,E09000019,33 Linton Street,London,Islington,St. Peter's,E05000380,-0.09209172379656146,532312.0001221001,51.53550509397059,183623.00012210011,Islington,Pubs,E09000019,11/27/2022
Islington,,Island Queen,,E09000019,87 Noel Road,London,Islington,St. Peter's,E05000380,-0.09745305246070078,531949.0001221001,51.532471411379355,183276.00012210011,Islington,Pubs,E09000019,11/27/2022
Islington,,Charles Lamb,,E09000019,16 Elia Street,London,Islington,St. Peter's,E05000380,-0.10061637556533186,531732.0001221001,51.531650304809546,183179.00012210011,Islington,Pubs,E09000019,11/27/2022
Islington,,Camden Head,,E09000019,2 Camden Walk,London,Islington,St. Peter's,E05000380,-0.10147809825011699,531662.0001221001,51.53519872895252,183572.00012210011,Islington,Pubs,E09000019,11/27/2022
Islington,,York,,E09000019,82 Islington High Street,London,Islington,St. Peter's,E05000380,-0.10392364886611563,531500.0001221001,51.53256719927043,183275.00012210011,Islington,Pubs,E09000019,11/27/2022
Islington,,Duke Of Cambridge,,E09000019,30 St Peter's Street,London,Islington,St. Peter's,E05000380,-0.0968234047065101,531989.0001221001,51.533738283674545,183418.00012210011,Islington,Pubs,E09000019,11/27/2022
Islington,,Plaquemine Lock,,E09000019,139 Graham Street,London,Islington,St. Peter's,E05000380,-0.0987383839461783,531861.0001221001,51.532078549437735,183230.00012210011,Islington,Pubs,E09000019,11/27/2022
Islington,,Earl Of Essex,,E09000019,25 Danbury Street,London,Islington,St. Peter's,E05000380,-0.0979075762192535,531914.0001221001,51.53367492859255,183409.00012210011,Islington,Pubs,E09000019,11/27/2022
Islington,,Old Queens Head,,E09000019,44 Essex Road,London,Islington,St. Peter's,E05000380,-0.09977121580657278,531778.0001221001,51.53601648361018,183666.00012210011,Islington,Pubs,E09000019,11/27/2022
Islington,,Wenlock & Essex,,E09000019,18-26 Essex Road,London,Islington,St. Peter's,E05000380,-0.09977121580657278,531778.0001221001,51.53601648361018,183666.00012210011,Islington,Pubs,E09000019,11/27/2022
Islington,,Winchester,,E09000019,2 Essex Road,London,Islington,St. Peter's,E05000380,-0.09977121580657278,531778.0001221001,51.53601648361018,183666.00012210011,Islington,Pubs,E09000019,11/27/2022
Islington,,Green Man,,E09000019,144a Essex Road,London,Islington,St. Peter's,E05000380,-0.0962697715977062,532013.0001221001,51.5387117371472,183972.00012210011,Islington,Pubs,E09000019,11/27/2022
Islington,,Akari,,E09000019,196 Essex Road,London,Islington,St. Peter's,E05000380,-0.09422719025315142,532151.0001221001,51.539964647884034,184115.00012210011,Islington,Pubs,E09000019,11/27/2022
Islington,,Bill Murray,,E09000019,39 Queens Head Street,London,Islington,St. Peter's,E05000380,-0.09769822620220625,531922.0001221001,51.53592891968834,183660.00012210011,Islington,Pubs,E09000019,11/27/2022
Islington,,Duchess Of Kent,,E09000019,72 Prebend Street,London,Islington,St. Peter's,E05000380,-0.0916289304790092,532339.0001221001,51.53726030595877,183819.00012210011,Islington,Pubs,E09000019,11/27/2022
Islington,,Narrow Boat,,E09000019,119 St Peter's Street,London,Islington,St. Peter's,E05000380,-0.09695694119536394,531984.0001221001,51.53226550420955,183254.00012210011,Islington,Pubs,E09000019,11/27/2022
Islington,,Crown,,E09000019,622 Holloway Road,Upper Holloway,London,Tollington,E05000381,-0.12329524503379403,530074.0001221001,51.5615231308668,186460.00012210011,Islington,Pubs,E09000019,11/27/2022
Islington,,Shaftesbury Tavern,,E09000019,534 Hornsey Road,London,Upper Holloway,Tollington,E05000381,-0.12206574325127248,530138.0001221001,51.5689500750189,187288.00012210011,Islington,Pubs,E09000019,11/27/2022
Islington,,Royal Oak,,E09000019,250 St Johns Way,Upper Holloway,London,Hillrise,E05000374,-0.12636980373875814,529838.0001221001,51.56956749089079,187349.00012210011,Islington,Pubs,E09000019,11/27/2022
Islington,,Charlotte Despard,,E09000019,17-19 Archway Road,Upper Holloway,London,Junction,E05000376,-0.13493324419683825,529250.0001221001,51.56767140509329,187123.00012210011,Islington,Pubs,E09000019,11/27/2022
Islington,,Floirin,,E09000019,563 Holloway Road,Upper Holloway,London,Junction,E05000376,-0.12563530504599396,529910.0001221001,51.56216310549902,186527.00012210011,Islington,Pubs,E09000019,11/27/2022
Islington,,Corner Flag,,E09000019,472 Hornsey Road,Upper Holloway,London,Tollington,E05000381,-0.12065627237053031,530241.0001221001,51.56708383894027,187083.00012210011,Islington,Pubs,E09000019,11/27/2022
Islington,,North Nineteen,,E09000019,194-196 Sussex Way,Upper Holloway,London,Tollington,E05000381,-0.11971336831841779,530316.0001221001,51.56370516095007,186709.00012210011,Islington,Pubs,E09000019,11/27/2022
Islington,,Landseer Arms,,E09000019,37 Landseer Road,London,Upper Holloway,Tollington,E05000381,-0.12175081123160784,530179.0001221001,51.56223588220775,186542.00012210011,Islington,Pubs,E09000019,11/27/2022
Islington,,Prince Alfred,,E09000019,139 Marlborough Road,Upper Holloway,London,Tollington,E05000381,-0.12211552041543854,530144.0001221001,51.56564126452691,186920.00012210011,Islington,Pubs,E09000019,11/27/2022
Islington,,Northern Soul,,E09000019,114 Junction Road,London,Upper Holloway,Junction,E05000376,-0.13575172432364022,529214.0001221001,51.560363715318246,186309.00012210011,Islington,Pubs,E09000019,11/27/2022
Islington,,Whittington Stone,,E09000019,53 Highgate Hill,Upper Holloway,London,Junction,E05000376,-0.13718541746624743,529096.0001221001,51.56694273973739,187038.00012210011,Islington,Pubs,E09000019,11/27/2022
Islington,,Tourian Lounge,,E09000019,90 Highgate Hill,Upper Holloway,London,Junction,E05000376,-0.13857092280736938,528997.0001221001,51.5679989800523,187153.00012210011,Islington,Pubs,E09000019,11/27/2022
Islington,,Boston Arms,,E09000019,178 Junction Road,Upper Holloway,London,Junction,E05000376,-0.1366287535627379,529161.0001221001,51.55761664644391,186002.00012210011,Islington,Pubs,E09000019,11/27/2022
Islington,,St John's Tavern,,E09000019,91 Junction Road,London,Upper Holloway,Junction,E05000376,-0.13365592411658236,529351.0001221001,51.56327126479826,186636.00012210011,Islington,Pubs,E09000019,11/27/2022
Islington,,Oak & Pastor,,E09000019,86 Junction Road,Upper Holloway,London,Junction,E05000376,-0.1348747270580795,529270.0001221001,51.56204954584292,186498.00012210011,Islington,Pubs,E09000019,11/27/2022
Islington,,Mother Red Cap,,E09000019,665 Holloway Road,Upper Holloway,London,Junction,E05000376,-0.13169049732782653,529484.0001221001,51.56440014238833,186765.00012210011,Islington,Pubs,E09000019,11/27/2022
Islington,,Fellow,,E09000019,24 York Way,London,Pentonville,Caledonian,E05000368,-0.12079733588930369,530335.0001221001,51.530761252500255,183044.00012210011,Islington,Pubs,E09000019,11/27/2022
Islington,,Bar & Block,,E09000019,26- 30 York Way,London,Pentonville,Caledonian,E05000368,-0.12079733588930369,530335.0001221001,51.530761252500255,183044.00012210011,Islington,Pubs,E09000019,11/27/2022
Islington,,Lincoln Lounge,,E09000019,52 York Way,London,Pentonville,Caledonian,E05000368,-0.12054929104966987,530348.0001221001,51.53223222003551,183208.00012210011,Islington,Pubs,E09000019,11/27/2022
Islington,,Rotunda (Bar & Restaurant),,E09000019,"Kings Place, 90 York Wa",London,Pentonville,Caledonian,E05000368,-0.1203865831217937,530355.0001221001,51.53373153502492,183375.00012210011,Islington,Pubs,E09000019,11/27/2022
Islington,,Voc,,E09000019,"2 Varnishers Yard, Regent Quarter, Pentonville Rd",London,Pentonville,Caledonian,E05000368,-0.12026046674866527,530372.0001221001,51.530842584980626,183054.00012210011,Islington,Pubs,E09000019,11/27/2022
Islington,,King Charles I,,E09000019,55-57 Northdown Street,London,Pentonville,Caledonian,E05000368,-0.11807710815546092,530522.0001221001,51.5313381921749,183113.00012210011,Islington,Pubs,E09000019,11/27/2022
Islington,,Simmons,,E09000019,32 Caledonian Road,London,Islington,Caledonian,E05000368,-0.11903187816610454,530456.0001221001,51.53126357231954,183103.00012210011,Islington,Pubs,E09000019,11/27/2022
Islington,,Scottish Stores,,E09000019,2-4 Caledonian Road,London,King's Cross,Caledonian,E05000368,-0.11911911906638284,530451.0001221001,51.53089623578809,183062.00012210011,Islington,Pubs,E09000019,11/27/2022
Islington,,Millers,,E09000019,19 Caledonian Road,London,Pentonville,Caledonian,E05000368,-0.11959279500097321,530418.0001221001,51.530948798658926,183067.00012210011,Islington,Pubs,E09000019,11/27/2022
Islington,,Alma,,E09000019,77-78 Chapel Market,London,Pentonville,Barnsbury,E05000366,-0.10835607945522138,531192.0001221001,51.53278266650326,183291.00012210011,Islington,Pubs,E09000019,11/27/2022
Islington,,Camino,,E09000019,"3 Varnishers Yard, Regent Quarter",London,King's Cross,Caledonian,E05000368,-0.12008939916815604,530384.0001221001,51.53079487545439,183049.00012210011,Islington,Pubs,E09000019,11/27/2022
Islington,,Castle,,E09000019,54 Pentonville Road,London,Pentonville,Barnsbury,E05000366,-0.10655630395648696,531320.0001221001,51.531674398166814,183171.00012210011,Islington,Pubs,E09000019,11/27/2022
Islington,,Lexington,,E09000019,96-98 Pentonville Road,London,Pentonville,Barnsbury,E05000366,-0.11025284285957646,531065.0001221001,51.53120339493127,183112.00012210011,Islington,Pubs,E09000019,11/27/2022
Islington,,Angel,,E09000019,3-5 Islington High Street,London,Angel,Barnsbury,E05000366,-0.10496410403915779,531430.0001221001,51.53181956139888,183190.00012210011,Islington,Pubs,E09000019,11/27/2022
Islington,,Three Johns,,E09000019,73 White Lion Street,London,Pentonville,Barnsbury,E05000366,-0.10695765508557283,531290.0001221001,51.53242734250445,183254.00012210011,Islington,Pubs,E09000019,11/27/2022
Islington,,Craft Beer Co.,,E09000019,55 White Lion Street,London,Pentonville,Barnsbury,E05000366,-0.10860564883111663,531176.0001221001,51.53232801967216,183240.00012210011,Islington,Pubs,E09000019,11/27/2022
Islington,,Joker of Penton Street,,E09000019,58 Penton Street,London,Pentonville,Barnsbury,E05000366,-0.10960196821470755,531105.0001221001,51.53299161835199,183312.00012210011,Islington,Pubs,E09000019,11/27/2022
Islington,,Thornhill Arms,,E09000019,148 Caledonian Road,London,Barnsbury,Barnsbury,E05000366,-0.11538930552614322,530701.0001221001,51.53392115239036,183405.00012210011,Islington,Pubs,E09000019,11/27/2022
Islington,,Driver,,E09000019,2-4 Wharfdale Road,London,Pentonville,Caledonian,E05000368,-0.11781488239430268,530535.0001221001,51.53315068169462,183315.00012210011,Islington,Pubs,E09000019,11/27/2022
Islington,,Central Station,,E09000019,37 Wharfdale Road,London,Pentonville,Caledonian,E05000368,-0.11884841435877491,530464.0001221001,51.53291544313885,183287.00012210011,Islington,Pubs,E09000019,11/27/2022
Islington,,Zelman Drinks,,E09000019,5 Station Place,Finsbury Park,London,Finsbury Park,E05000371,-0.104264521585689,531385.0001221001,51.56426596066133,186799.00012210011,Islington,Pubs,E09000019,11/27/2022
Islington,,Kings Head,,E09000019,126 Blackstock Road,Finsbury Park,London,Highbury West,E05000373,-0.09901038232459165,531757.0001221001,51.56153684447585,186505.00012210011,Islington,Pubs,E09000019,11/27/2022
Islington,,T.Bird,,E09000019,132 Blackstock Road,London,Finsbury Park,Highbury West,E05000373,-0.0978598711047134,531839.0001221001,51.560753745574054,186420.00012210011,Islington,Pubs,E09000019,11/27/2022
Islington,,Blackstock,,E09000019,284 Seven Sisters Road,Finsbury Park,London,Highbury West,E05000373,-0.10336780232390624,531449.0001221001,51.56362192066302,186729.00012210011,Islington,Pubs,E09000019,11/27/2022
Islington,,Auld Triangle,,E09000019,52 St Thomas Road,Finsbury Park,London,Highbury West,E05000373,-0.10311408094644949,531475.0001221001,51.56070391579042,186405.00012210011,Islington,Pubs,E09000019,11/27/2022
Islington,,Park Tavern,,E09000019,164 Tollington Park,Finsbury Park,London,Tollington,E05000381,-0.11024545859189042,530962.0001221001,51.567231383385845,187118.00012210011,Islington,Pubs,E09000019,11/27/2022
Islington,,Worlds End,,E09000019,21-23 Stroud Green Road,Finsbury Park,London,Finsbury Park,E05000371,-0.1074437518839478,531157.0001221001,51.566934403456685,187090.00012210011,Islington,Pubs,E09000019,11/27/2022
Islington,,William Butler Yeats,,E09000019,20 Fonthill Road,Finsbury Park,London,Finsbury Park,E05000371,-0.10940850941971643,531025.0001221001,51.56549114468013,186926.00012210011,Islington,Pubs,E09000019,11/27/2022
Islington,,White Lion,,E09000019,125-127 Stroud Green Road,Finsbury Park,London,Tollington,E05000381,-0.11040773690811098,530947.0001221001,51.56853805620995,187263.00012210011,Islington,Pubs,E09000019,11/27/2022
Islington,,Old Dairy,,E09000019,1-3 Crouch Hill,London,Stroud Green,Tollington,E05000381,-0.11536696570825612,530598.0001221001,51.57040753054761,187462.00012210011,Islington,Pubs,E09000019,11/27/2022
Islington,,Brave Sir Robin,,E09000019,29 Crouch Hill,London,Stroud Green,Tollington,E05000381,-0.11536696570825612,530598.0001221001,51.57040753054761,187462.00012210011,Islington,Pubs,E09000019,11/27/2022
Islington,,Stapleton Tavern,,E09000019,2-4 Crouch Hill,Finsbury Park,Stroud Green,Tollington,E05000381,-0.11461737346773304,530650.0001221001,51.57038649378114,187461.00012210011,Islington,Pubs,E09000019,11/27/2022
Islington,,Bank Of Friendship,,E09000019,226 Blackstock Road,Highbury,London,Highbury West,E05000373,-0.09723630274069428,531890.0001221001,51.55806355917665,186122.00012210011,Islington,Pubs,E09000019,11/27/2022
Islington,,Gunners,,E09000019,204 Blackstock Road,Highbury,London,Highbury West,E05000373,-0.09726959016702733,531886.0001221001,51.55864867913319,186187.00012210011,Islington,Pubs,E09000019,11/27/2022
Islington,,Brewhouse & Kitchen,,E09000019,2a Corsica Street,London,Highbury,Highbury East,E05000372,-0.09990928099811841,531740.0001221001,51.54585767495449,184760.00012210011,Islington,Pubs,E09000019,11/27/2022
Islington,,Drayton Park,,E09000019,66 Drayton Park,Highbury,London,Highbury West,E05000373,-0.10331420971135966,531482.0001221001,51.55346735670246,185600.00012210011,Islington,Pubs,E09000019,11/27/2022
Islington,,Highbury Barn,,E09000019,26 Highbury Park,London,Highbury,Highbury East,E05000372,-0.0965957813904942,531949.0001221001,51.553016783858,185562.00012210011,Islington,Pubs,E09000019,11/27/2022
Islington,,Woodbine,,E09000019,215 Blackstock Road,London,Highbury,Highbury East,E05000372,-0.09667746246602597,531926.0001221001,51.55900780893815,186228.00012210011,Islington,Pubs,E09000019,11/27/2022
Islington,,Snooty Fox,,E09000019,75 Grosvenor Avenue,London,Canonbury,Mildmay,E05000377,-0.08911681426040172,532480.0001221001,51.54868620828247,185094.00012210011,Islington,Pubs,E09000019,11/27/2022
Islington,,Tufnell Park Tavern,,E09000019,162 Tufnell Park Road,Holloway,London,Junction,E05000376,-0.1319237982873701,529489.0001221001,51.55694824959061,185936.00012210011,Islington,Pubs,E09000019,11/27/2022
Islington,,Big Red,,E09000019,385 Holloway Road,Holloway,London,Holloway,E05000375,-0.11799027103012746,530455.0001221001,51.556860449775115,185951.00012210011,Islington,Pubs,E09000019,11/27/2022
Islington,,Prince Edward,,E09000019,38 Parkhurst Road,Holloway,London,Holloway,E05000375,-0.12092298761499318,530261.0001221001,51.553615834821315,185585.00012210011,Islington,Pubs,E09000019,11/27/2022
Islington,,Castle Bar,,E09000019,392 Camden Road,Holloway,London,Holloway,E05000375,-0.1208760927884803,530266.0001221001,51.55300352438834,185517.00012210011,Islington,Pubs,E09000019,11/27/2022
Islington,,Enkel Arms,,E09000019,34 Seven Sisters Road,London,Holloway,Finsbury Park,E05000371,-0.11554700391872173,530620.0001221001,51.55837710661367,186124.00012210011,Islington,Pubs,E09000019,11/27/2022
Islington,,Eaglet,,E09000019,124 Seven Sisters Road,Holloway,London,Finsbury Park,E05000371,-0.11430795711971677,530704.0001221001,51.55903171081664,186199.00012210011,Islington,Pubs,E09000019,11/27/2022
Islington,,Halfway House,,E09000019,74 Seven Sisters Road,Holloway,London,Finsbury Park,E05000371,-0.11430795711971677,530704.0001221001,51.55903171081664,186199.00012210011,Islington,Pubs,E09000019,11/27/2022
Islington,,Swimmer At The Grafton Arms,,E09000019,13 Eburne Road,London,Holloway,Finsbury Park,E05000371,-0.11780584483382822,530462.0001221001,51.55888103201464,186176.00012210011,Islington,Pubs,E09000019,11/27/2022
Islington,,Tollington,,E09000019,115 Hornsey Road,Holloway,London,Highbury West,E05000373,-0.11106959120244224,530935.0001221001,51.55674921945507,185951.00012210011,Islington,Pubs,E09000019,11/27/2022
Islington,,Che,,E09000019,10 Annette Road,Holloway,London,Highbury West,E05000373,-0.11119355063130829,530931.0001221001,51.55515036767867,185773.00012210011,Islington,Pubs,E09000019,11/27/2022
Islington,,Tommy Flynn's,,E09000019,504 Holloway Road,Holloway,London,Finsbury Park,E05000371,-0.11883815631500703,530392.0001221001,51.558339991974485,186114.00012210011,Islington,Pubs,E09000019,11/27/2022
Islington,,Owl & Hitchhiker,,E09000019,471 Holloway Road,London,Holloway,St. George's,E05000378,-0.12244530654011679,530137.0001221001,51.56008855749639,186302.00012210011,Islington,Pubs,E09000019,11/27/2022
Islington,,Nambucca,,E09000019,596 Holloway Road,Holloway,London,St. George's,E05000378,-0.1211557904403348,530229.0001221001,51.5591685617581,186202.00012210011,Islington,Pubs,E09000019,11/27/2022
Islington,,Islington Sports Bar,,E09000019,274-276 Holloway Road,London,Holloway,Highbury West,E05000373,-0.11177261729856766,530896.0001221001,51.55336098414032,185573.00012210011,Islington,Pubs,E09000019,11/27/2022
Islington,,indiebeer,,E09000019,322 Holloway Road,Holloway,London,Highbury West,E05000373,-0.11307322135297482,530803.0001221001,51.554353212536746,185681.00012210011,Islington,Pubs,E09000019,11/27/2022
Islington,,Coronet,,E09000019,338-346 Holloway Road,London,Holloway,Highbury West,E05000373,-0.11307322135297482,530803.0001221001,51.554353212536746,185681.00012210011,Islington,Pubs,E09000019,11/27/2022
Islington,,Bedford Tavern,,E09000019,160 Seven Sisters Road,Holloway,London,Finsbury Park,E05000371,-0.11054958114901318,530959.0001221001,51.5609408205095,186418.00012210011,Islington,Pubs,E09000019,11/27/2022
Islington,,Jolly Sisters,,E09000019,95 Bride Street,Holloway,London,Caledonian,E05000368,-0.11153693827635602,530936.0001221001,51.54511911230902,184657.00012210011,Islington,Pubs,E09000019,11/27/2022
Islington,,Zubi,,E09000019,144 Holloway Road,Holloway,London,Highbury West,E05000373,-0.10820966953269846,531151.0001221001,51.550569545551724,185269.00012210011,Islington,Pubs,E09000019,11/27/2022
Islington,,Victoria Tavern,,E09000019,203 Holloway Road,London,Holloway,Holloway,E05000375,-0.10880445605728359,531110.0001221001,51.55048920074672,185259.00012210011,Islington,Pubs,E09000019,11/27/2022
Islington,,Crown (Bar & Cafe),,E09000019,261 Holloway Road,Holloway,London,Holloway,E05000375,-0.10953620318885604,531058.0001221001,51.550932685273025,185307.00012210011,Islington,Pubs,E09000019,11/27/2022
Islington,,Arkstar,,E09000019,"Arch 1,303 Holloway Road",London,Holloway,Holloway,E05000375,-0.11121253170549239,530938.0001221001,51.55225475686111,185451.00012210011,Islington,Pubs,E09000019,11/27/2022
Islington,,Horatia,,E09000019,98-100 Holloway Road,Holloway,London,Highbury East,E05000372,-0.1073734329413859,531211.0001221001,51.54986355418682,185192.00012210011,Islington,Pubs,E09000019,11/27/2022
Islington,,Lamb,,E09000019,54 Holloway Road,Holloway,London,Highbury East,E05000372,-0.10542355919137833,531351.0001221001,51.54818626015786,185009.00012210011,Islington,Pubs,E09000019,11/27/2022
Islington,,House of Hammerton,,E09000019,99 Holloway Road,London,Holloway,St. Mary's,E05000379,-0.10531510815272972,531360.0001221001,51.547671876501894,184952.00012210011,Islington,Pubs,E09000019,11/27/2022
Islington,,Duchess Of Kent,,E09000019,441 Liverpool Road,Holloway,London,St. Mary's,E05000379,-0.10700846329167148,531249.0001221001,51.54545082932979,184702.00012210011,Islington,Pubs,E09000019,11/27/2022
Islington,,Two Brewers,,E09000019,109 Roman Way,Holloway,London,Caledonian,E05000368,-0.11410365112829732,530756.0001221001,51.54583492163172,184732.00012210011,Islington,Pubs,E09000019,11/27/2022
Islington,,Two Tribes Taproom,,E09000019,"Tileyard Studios, Tileyard Rd",London,King's Cross,Caledonian,E05000368,-0.1221749594196378,530207.0001221001,51.5421331645096,184306.00012210011,Islington,Pubs,E09000019,11/27/2022
Islington,,Cally,,E09000019,427 Caledonian Road,Holloway,London,Caledonian,E05000368,-0.11664947269981862,530579.0001221001,51.54601072680712,184747.00012210011,Islington,Pubs,E09000019,11/27/2022
Islington,,Doyles Tavern,,E09000019,379 Caledonian Road,Holloway,London,Caledonian,E05000368,-0.11612853261177347,530624.0001221001,51.54290858523628,184403.00012210011,Islington,Pubs,E09000019,11/27/2022
Islington,,Depot,,E09000019,"1 Carpenters Mews, North Road",Holloway,London,Holloway,E05000375,-0.12000529064430925,530340.0001221001,51.5482319983854,184988.00012210011,Islington,Pubs,E09000019,11/27/2022
Islington,,Easton,,E09000019,22 Easton Street,London,Kings Cross,Clerkenwell,E05000370,-0.10954148306714345,531130.0001221001,51.52575082401133,182507.00012210011,Islington,Pubs,E09000019,11/27/2022
Islington,,Union Tavern,,E09000019,52 Lloyd Baker Street,London,Kings Cross,Clerkenwell,E05000370,-0.1116763151677429,530980.0001221001,51.52642375879766,182578.00012210011,Islington,Pubs,E09000019,11/27/2022
Islington,,Crouch-Hill-Park,0,E09000019,,,,Hillrise,E05000374,-0.121552253513686,530160.2539062947,51.57361524250356,187807.64111329615,Islington,Skate Parks,E09000019,11/27/2022
Islington,,Whittington-Park,0,E09000019,,,,Junction,E05000376,-0.12695536055725606,529819.9605102986,51.56165594418452,186468.26391599327,Islington,Skate Parks,E09000019,11/27/2022
Islington,http://www.arilondonstudio.com/,Ari London,5300019987,E09000019,Kemp House,160 City Road,,Bunhill,E05000367,-0.08730867994938371,532669.0001221001,51.52679334854174,182663.00012210011,Islington,Textile design,E09000019,11/27/2022
Islington,http://www.mig.co.uk/,MIG Pattern Cutting Services,5300059331,E09000019,3D Mackenzie Road,,,Holloway,E05000375,-0.1158332701464297,530634.0001221001,51.54656421205786,184810.00012210011,Islington,Textile design,E09000019,11/27/2022
Islington,http://www.rarethread.co.uk/,Rare Thread,10091006312,E09000019,Studio E01,400 Caledonian Road,,Caledonian,E05000368,-0.11507127842919704,530699.0001221001,51.54231601401753,184339.00012210011,Islington,Textile design,E09000019,11/27/2022
Islington,www.theatredelicatessen.co.uk,Theatre Delicatessen,5300032968,E09000019,119 Farringdon Road,,,Clerkenwell,E05000370,-0.10845386132237624,531101.3677578324,51.52322361924053,182281.8124814998,Islington,Theatre rehearsal studio,E09000019,11/27/2022
Islington,www.sadlerswells.com/venue-hire/studios,Sadler's Wells,5300080047,E09000019,Rosebery Avenue,,,Clerkenwell,E05000370,-0.1062646136474187,531235.3477497051,51.52942925041774,182975.6838956953,Islington,Theatre rehearsal studio,E09000019,11/27/2022
Islington,http://stageworksstudios.co.uk/,Stageworks Studios,10008976314,E09000019,Europa House,Ironmonger Row,,Bunhill,E05000367,-0.0946384521435974,532049.166528421,51.526803880127915,182704.72879195109,Islington,Theatre rehearsal studio,E09000019,11/27/2022
Islington,www.yati.org.uk,Young Actors Theatre,5300006610,E09000019,70-72 Barnsbury Rd,Slington,,Barnsbury,E05000366,-0.11061320443293075,530913.4296771225,51.53652267975422,183756.5354059221,Islington,Theatre rehearsal studio,E09000019,11/27/2022
Islington,http://www.rosemarybranchtheatre.co.uk/,Rosemary Branch Theatre â€“ Marie Lloyd Room,5300082551,E09000019,2 Shepperton Road,,,Canonbury,E05000369,-0.08693312001556831,532552.0804243142,51.537622409430384,183921.45322628593,Islington,Theatre rehearsal studio,E09000019,11/27/2022
Islington,www.factoryrehearsalstudios.com,Factory Fitness and Dance Centre,5300050793,E09000019,407 Hornsey Road,,,Tollington,E05000381,-0.12179390911803742,530052.6119604883,51.56650382244677,187069.87595057994,Islington,Theatre rehearsal studio,E09000019,11/27/2022
Islington,www.parktheatre.co.uk,Park Theatre,10090266645,E09000019,Clifton Terrace,,,Finsbury Park,E05000371,-0.10840969471151,530982.3790894331,51.56566816429093,187000.86352195806,Islington,Theatre rehearsal studio,E09000019,11/27/2022
Islington,www.londonschoolofcapoeira.com,London School of Capoeira,10010441351,E09000019,Leeds Place,Tollington Park,,Tollington,E05000381,-0.11503072169665751,530519.4932869636,51.567105725125664,187148.85294107656,Islington,Theatre rehearsal studio,E09000019,11/27/2022
Islington,www.islingtonartsfactory.org,Islington Arts Factory,5300071066,E09000019,2 Parkhurst Road,,,Holloway,E05000375,-0.12250577699835562,530038.6414606123,51.55412346335022,185692.16704241076,Islington,Theatre rehearsal studio,E09000019,11/27/2022
Islington,http://www.platformislington.org.uk/,Platform Theatre,10012794343,E09000019,Hornsey Road,,,Finsbury Park,E05000371,-0.11593274682330959,530473.5292674719,51.56133801790364,186505.99360310956,Islington,Theatre rehearsal studio,E09000019,11/27/2022
Islington,www.outofjoint.co.uk,Out of Joint,5300089989,E09000019,7 Thane Villas,Finsbury Park,,Finsbury Park,E05000371,-0.11399029301626046,530611.500311413,51.56016472087733,186379.01524103928,Islington,Theatre rehearsal studio,E09000019,11/27/2022
Islington,www.pleasance.co.uk,Pleasance Theatre,10012788835,E09000019,Carpenters Mews,,,Holloway,E05000375,-0.12158800640403222,530117.6214552657,51.54874016796487,185095.28425752063,Islington,Theatre rehearsal studio,E09000019,11/27/2022
City and County of the City of London,https://www.barbican.org.uk/,Barbican Theatre,95512046,E09000001,Silk St,NA,NA,Aldersgate,E05009288,-0.09571360542190653,531992.9286539529,51.520470169199285,181998.60965098982,Islington,Theatres,E09000019,11/27/2022
Islington,https://almeida.co.uk/,Almeida Theatre,5300001086,E09000019,Almeida St, Islington,NA,St. Mary's,E05000379,-0.10557006542963196,531253.2182870964,51.53995317672141,184146.97951371584,Islington,Theatres,E09000019,11/27/2022
Islington,NA,Young Actors Theatre,5300006610,E09000019,70-72 Barnsbury Road,NA,NA,Barnsbury,E05000366,-0.11253337725049989,530779.9610855274,51.53663920388601,183766.05413940997,Islington,Theatres,E09000019,11/27/2022
Islington,http://www.unionchapel.org.uk/,Union Chapel,5300023057,E09000019,19b Compton Terrace,NA,NA,St. Mary's,E05000379,-0.10433130667248795,531325.1960319588,51.544779687747315,184685.81187146466,Islington,Theatres,E09000019,11/27/2022
Islington,https://littleangeltheatre.com/,The Little Angel Theatre,5300026580,E09000019,14 Dagmar Passage, Islington,NA,St. Mary's,E05000379,-0.10287731781767259,531441.1441618903,51.53952324655064,184104.01708378404,Islington,Theatres,E09000019,11/27/2022
Islington,https://www.sadlerswells.com/,Sadler's Wells Theatre,5300080047,E09000019,Rosebery Ave, Clerkenwell,NA,Clerkenwell,E05000370,-0.10787462474591503,531122.2411557245,51.529937122450505,183029.2599486056,Islington,Theatres,E09000019,11/27/2022
Islington,http://www.rosemarybranchtheatre.co.uk/,Rosemary Branch Theatre,5300082551,E09000019,2 Shepperton Rd,NA,NA,Canonbury,E05000369,-0.0885456507562827,532438.8036872882,51.538130387573894,183975.00922323822,Islington,Theatres,E09000019,11/27/2022
Islington,http://www.oldredliontheatre.co.uk/,Old Red Lion,5300085363,E09000019,418 St John St, Clerkenwell,NA,Barnsbury,E05000366,-0.10746070944324394,531145.248094975,51.53191794150089,183250.23028080928,Islington,Theatres,E09000019,11/27/2022
Islington,https://www.thehenandchickenstheatrebar.co.uk/,Hen and Chickens Theatre,5300086694,E09000019,109 St Paul's Road,NA,NA,Highbury East,E05000372,-0.10313347488556027,531403.1558464244,51.54654050482146,184883.72947621852,Islington,Theatres,E09000019,11/27/2022
Islington,http://www.kingsheadtheatre.com/,Kings Head Theatre,5300094557,E09000019,115 Upper St, Islington,NA,St. Mary's,E05000379,-0.10447714085685696,531333.1862494001,51.53849633316568,183986.97048713238,Islington,Theatres,E09000019,11/27/2022
Islington,http://www.thehopetheatre.com/,The Hope Theatre,5300094879,E09000019,207 Upper Street,NA,NA,St. Mary's,E05000379,-0.10509521255758925,531274.2504799948,51.54408175712269,184606.84499982372,Islington,Theatres,E09000019,11/27/2022
Hackney,http://www.themillcoproject.co.uk/spaces/the-rose-lipman-building/,Rose Lipman Building,10008241945,E09000012,43 De Beauvoir Rd,NA,NA,De Beauvoir,E05009371,-0.08319939163647931,532805.5554791661,51.5394745048292,184134.1356897304,Islington,Theatres,E09000019,11/27/2022
Islington,https://www.arcolatheatre.com/,Arcola Theatre,10008321023,E09000019,24 Ashwin St, Dalston,NA,Mildmay,E05000377,-0.07694321896061931,533215.5157369154,51.5476061863884,185049.56153523212,Islington,Theatres,E09000019,11/27/2022
Islington,https://www.pleasance.co.uk/,Pleasance Theatre,10012788835,E09000019,Carpenters Mews, North Rd,NA,Holloway,E05000375,-0.12319656609249525,530004.6797524171,51.549246096147826,185148.6707170151,Islington,Theatres,E09000019,11/27/2022
Islington,NA,Platform,10012794343,E09000019,Hornsey Road Baths, 2 Tiltman Place,NA,Finsbury Park,E05000371,-0.11716880990199895,530386.6272388417,51.561773501942255,186552.20438558032,Islington,Theatres,E09000019,11/27/2022
Islington,https://www.parktheatre.co.uk/,Park Theatre,10090266645,E09000019,Clifton Terrace, Finsbury Park,NA,Finsbury Park,E05000371,-0.11002081831889517,530869.2960895353,51.566172427772884,187054.04307562078,Islington,Theatres,E09000019,11/27/2022
Islington,http://thenurserytheatre.com/theatre/,Nursery Theatre,100023000000,E09000019,2  Finsbury Avenue ,NA,NA,Bunhill,E05000367,-0.08681444896265701,532611.7363592533,51.51992929438563,181954.57159205544,Islington,Theatres,E09000019,11/27/2022
