borough_name,website,site_name,os_addressbase_uprn,borough_code,address1,address2,address3,ward_2018_name,ward_2018_code,longitude,easting,latitude,northing,BOROUGH,Cultural Venue Type,gss_code,runtime
Wandsworth,https://www.fosterandpartners.com/,Foster + Partners,121016628,E09000032,Riverside ,22 Hester Road,,St. Mary's Park,E05000622,-0.16838131720367577,527063.222936584,51.48076693664933,177455.67939453927,Kensington and Chelsea,Archives,E09000020,11/27/2022
Kensington and Chelse,NA,Chelsea and Westminster Hospital Archives,217033201,E09000020,369 Fulham Road,,,Stanley,E05009405,-0.18143497565398584,526147.4068857462,51.48425238850248,177820.5914974559,Kensington and Chelsea,Archives,E09000020,11/27/2022
Kensington and Chelse,https://www.rbkc.gov.uk/subsites/museums/leightonhousemuseum1.aspx,Leighton House Museum,217039506,E09000020,12 Holland Park Road,,,Holland,E05009397,-0.20309513475435398,524604.7506676549,51.49858781604862,179377.27287544444,Kensington and Chelsea,Archives,E09000020,11/27/2022
Kensington and Chelse,,Commonwealth Institute,217044656,E09000020,Commonwealth Resources Centre,Kensington High Street,,Holland,E05009397,-0.2001590274186053,524804.9791710794,51.49987442909856,179525.32724944752,Kensington and Chelsea,Archives,E09000020,11/27/2022
Kensington and Chelse,http://www.heythrop.ac.uk/,London University: Heythrop College,217046014,E09000020,Kensington Square,,,Queen's Gate,E05009401,-0.19024769953888385,525493.8681612961,51.49946247904268,179496.49103111814,Kensington and Chelsea,Archives,E09000020,11/27/2022
Kensington and Chelse,https://www.waterman.co.uk/,"Offer, Watermann & Co",217051629,E09000020,11 Langton Street,,,Stanley,E05009405,-0.18082161803914903,526195.4028561391,51.482291478761496,177603.6363626644,Kensington and Chelsea,Archives,E09000020,11/27/2022
Kensington and Chelse,https://sculptors.org.uk/,Royal British Society of Sculptors,217060814,E09000020,108 Old Brompton Road,,,Courtfield,E05009393,-0.1795095414648897,526260.3770259365,51.4917313864425,178655.42947778554,Kensington and Chelsea,Archives,E09000020,11/27/2022
Kensington and Chelse,https://www.hrp.org.uk/kensington-palace/explore/the-queen-s-state-apartments/#gs.cTpT3ik,State Apartments and Court Dress Collection: Kensington Palace,217064431,E09000020,Kensington Palace,,,Campden,E05009390,-0.1880218178291348,525632.5389164753,51.50519933571256,180138.14178036194,Kensington and Chelsea,Archives,E09000020,11/27/2022
Kensington and Chelse,https://www.nam.ac.uk/collections/templer-study-centre,National Army Museum Templer Study Centre,217075883,E09000020,Royal Hospital Road Chelsea,,,Royal Hospital,E05009403,-0.16033743746956552,527606.3591405223,51.48622896771741,178076.9494973641,Kensington and Chelsea,Archives,E09000020,11/27/2022
Kensington and Chelse,https://www.chelseaphysicgarden.co.uk/,Chelsea Physic Garden,217102618,E09000020,66 Royal Hospital Road,,,Royal Hospital,E05009403,-0.16225154940184489,527478.1184919445,51.48457384033123,177889.59500447602,Kensington and Chelsea,Archives,E09000020,11/27/2022
Kensington and Chelse,https://www.rbkc.gov.uk/libraries/your-library/find-library/chelsea-library,Chelsea Library,217105143,E09000020,Old Town Hall ,Kings Road,,Royal Hospital,E05009403,-0.16817033300282228,527059.2068579425,51.48747215547887,178201.52840377903,Kensington and Chelsea,Archives,E09000020,11/27/2022
Kensington and Chelse,https://www.rbkc.gov.uk/subsites/museums/18staffordterrace1.aspx,Eighteen Stafford Terrace: Sambourne Family Archive,217107937,E09000020,18 Stafford Terrace,,,Campden,E05009390,-0.19684068131462096,525033.660242487,51.500452227569234,179595.23677577561,Kensington and Chelsea,Archives,E09000020,11/27/2022
Kensington and Chelse,https://www.vam.ac.uk/info/national-art-library/,"National Art Library, Victoria & Albert Museum",217108016,E09000020,Cromwell Road,,,Brompton & Hans Town,E05009389,-0.17209803311410066,526760.4066595054,51.496902278884406,179243.154146905,Kensington and Chelsea,Archives,E09000020,11/27/2022
Kensington and Chelse,http://www.vam.ac.uk/page/d/drawings/,"Victoria & Albert Museum, Department of Designs, Prints and Drawings",217108016,E09000020,Cromwell Road,,,Brompton & Hans Town,E05009389,-0.17209803311410066,526760.4066595054,51.496902278884406,179243.154146905,Kensington and Chelsea,Archives,E09000020,11/27/2022
Kensington and Chelse,https://www.architecture.com/,Royal Institute of British Architects,217108016,E09000020,British Architectural Library Drawings and Archives Collections Victoria and Albert Museum ,Cromwell Road,,Brompton & Hans Town,E05009389,-0.17209803311410066,526760.4066595054,51.496902278884406,179243.154146905,Kensington and Chelsea,Archives,E09000020,11/27/2022
Kensington and Chelse,http://www.vam.ac.uk/content/articles/v/the-v-and-a-textiles-and-fashion-collection/,"Victoria & Albert Museum, Department of Textiles and Dress",217108016,E09000020,Cromwell Road,,,Brompton & Hans Town,E05009389,-0.17209803311410066,526760.4066595054,51.496902278884406,179243.154146905,Kensington and Chelsea,Archives,E09000020,11/27/2022
Kensington and Chelse,http://www.nhm.ac.uk/our-science/departments-and-staff/library-and-archives.html,Natural History Museum Library and Archives,217110763,E09000020,Cromwell Road ,South Kensington,,Brompton & Hans Town,E05009389,-0.1768677216067732,526430.3483065348,51.49656438319557,179197.32889027777,Kensington and Chelsea,Archives,E09000020,11/27/2022
Kensington and Chelse,http://www.armenianinstitute.org.uk/,Armenian Institute,217116743,E09000020,Armenian Church Hall, Iverna Gardens,,Abingdon,E05009388,-0.1933318626925314,525279.6049646325,51.49955292192053,179501.25752057333,Kensington and Chelsea,Archives,E09000020,11/27/2022
Kensington and Chelse,https://www.rbkc.gov.uk/leisure-and-culture/culture/arts-services,Kensington and Chelsea Libraries and Arts Service,217125485,E09000020,Central Library ,Phillimore Walk,,Campden,E05009390,-0.19440609453588437,525199.9459512125,51.501418894508696,179706.87776128954,Kensington and Chelsea,Archives,E09000020,11/27/2022
City of Westminster,https://www.royalcommission1851.org/,Royal Commission for the Exhibition of 1851,10033539795,E09000033,Sherfield Building,Imperial College,,Knightsbridge and Belgravia,E05000637,-0.17763077676066355,526371.3651342295,51.498743477803814,179438.28263730777,Kensington and Chelsea,Archives,E09000020,11/27/2022
City of Westminster,http://whoami.sciencemuseum.org.uk/about-us/collections-and-research/collections/library-collections/library-catalogue,Science Museum Library (Documentation),10033558383,E09000033,Imperial College Road,,,Knightsbridge and Belgravia,E05000637,-0.17822393392970698,526331.373153279,51.49832104403233,179390.29123559513,Kensington and Chelsea,Archives,E09000020,11/27/2022
City of Westminster,http://www.gbcc.org.uk/,Great Britain - China Centre,100023000000,E09000033,15 Belgrave Square,,,Knightsbridge and Belgravia,E05000637,-0.15516032346511782,527931.023210243,51.498608006836996,179462.29549024883,Kensington and Chelsea,Archives,E09000020,11/27/2022
City of Westminster,https://www.eca.co.uk/,Electrical Contractors' Association,100023000000,E09000033,ESCA House ,34 Palace Court,,Lancaster Gate,E05000638,-0.19205521869187162,525334.6177995806,51.51178124868167,180863.0017473941,Kensington and Chelsea,Archives,E09000020,11/27/2022
Kensington and Chelsea,www.acava.org,Blechynden St,217107233,E09000020,54 Blechynden St,,,Notting Dale,E05009399,-0.21686752032259063,523606.00563857716,51.514481151006066,181120.93414038338,Kensington and Chelsea,Artists workspaces,E09000020,11/27/2022
Kensington and Chelsea,www.acava.org,Maxilla Walk,217057292,E09000020,4 Maxilla Walk,,,St. Helen's,E05009404,-0.21578756386915438,523675.9945006384,51.516299223800864,181324.89696635958,Kensington and Chelsea,Artists workspaces,E09000020,11/27/2022
Kensington and Chelsea,www.artcoreint.net,The Crow's Nest,217022375,E09000020,3-5 Crowthorne Rd,,,St. Helen's,E05009404,-0.21999299584307935,523384.05804832024,51.51638109401508,181326.89208967844,Kensington and Chelsea,Artists workspaces,E09000020,11/27/2022
Kensington and Chelsea,http://www.buspace.co.uk/,Buspace Studios,217120223,E09000020,5 Conlan Street,Unit127,,Golborne,E05009396,-0.21126285331778158,523964.9519515098,51.52546573251045,182351.70807911485,Kensington and Chelsea,Artists workspaces,E09000020,11/27/2022
Kensington and Chelsea,https://www.tabernaclew11.com/,The Tabernacle,217070132,E09000020,35 Powis Square,off Portobello Road,,Colville,E05009392,-0.2018814067603197,524638.7820982584,51.516968162397546,181422.88900685904,Kensington and Chelsea,Arts centres,E09000020,11/27/2022
Kensington and Chelsea,www.cineworld.co.uk,Cineworld Fulham Road,000217101389,E09000020,,142 Fulham Road,,Redcliffe,E05009402,-0.17782823835939401,526502.0001221001,51.48663959896305,178038.00012210011,Kensington and Chelsea,Cinemas,E09000020,11/27/2022
Kensington and Chelsea,,Curzon Chelsea,000217047105,E09000020,,206 King's Road,,Stanley,E05009405,-0.1659046913364219,527327.0001221001,51.48761385529417,178167.00012210011,Kensington and Chelsea,Cinemas,E09000020,11/27/2022
Kensington and Chelsea,https://www.institut-francais.org.uk/cine-lumiere/,Cine Lumiere,000217072593,E09000020,Institut Francais,17 Queensberry Place,,Brompton & Hans Town,E05009389,-0.17561676355689346,526635.0001221001,51.49404286895965,178865.00012210011,Kensington and Chelsea,Cinemas,E09000020,11/27/2022
Kensington and Chelsea,,Gate Picturehouse,010091855182,E09000020,,87 Notting Hill Gate,,Campden,E05009390,-0.19567383955289835,525204.0001221001,51.50823020043424,180408.00012210011,Kensington and Chelsea,Cinemas,E09000020,11/27/2022
Kensington and Chelsea,,Electric Cinema (Portobello),000217069435,E09000020,,191 Portobello Road,Notting Hill Gate,Colville,E05009392,-0.2034921483116324,524643.0001221001,51.51501440343126,181149.00012210011,Kensington and Chelsea,Cinemas,E09000020,11/27/2022
Kensington and Chelsea,http://cranekalman.com/#,Crane Kalman,217007694,E09000020,178 Brompton Road,NA,NA,Brompton & Hans Town,E05009389,-0.16572557868316523,527312.0001221001,51.4974589913596,179262.00012210011,Kensington and Chelsea,Commercial galleries,E09000020,11/27/2022
Kensington and Chelsea,http://www.hollywoodroadgallery.com/#,Hollywood Road Gallery,217040769,E09000020,12 Hollywood Road,NA,NA,Redcliffe,E05009402,-0.18311608625608153,526138.0001221001,51.48552551810924,177905.00012210011,Kensington and Chelsea,Commercial galleries,E09000020,11/27/2022
Kensington and Chelsea,http://www.rowleygallery.co.uk/#,The Rowley Gallery,217043176,E09000020,115 Kensington Church Street,NA,NA,Campden,E05009390,-0.1932005422484698,525381.0001221001,51.50626751089039,180194.00012210011,Kensington and Chelsea,Commercial galleries,E09000020,11/27/2022
Kensington and Chelsea,http://www.japanese-gallery.com/#,Japanese Gallery,217043283,E09000020,66D Kensington Church St,NA,NA,Campden,E05009390,-0.19220606731838272,525454.0001221001,51.50481322380293,180034.00012210011,Kensington and Chelsea,Commercial galleries,E09000020,11/27/2022
Kensington and Chelsea,http://www.northcotegallery.com/#,Northcote Gallery Chelsea,217046439,E09000020,253 King’s Road,NA,NA,Chelsea Riverside,E05009391,-0.1704168490735079,527019.5601195991,51.48553399220532,177927.90008549392,Kensington and Chelsea,Commercial galleries,E09000020,11/27/2022
Kensington and Chelsea,http://www.museumofbrands.com/#,Museum of Brands,217050374,E09000020,111-117 Lancaster Road,NA,NA,Notting Dale,E05009399,-0.20952731435654248,524222.0001221001,51.51586214968469,181233.00012210011,Kensington and Chelsea,Commercial galleries,E09000020,11/27/2022
Kensington and Chelsea,http://www.jhba.co.uk/#,James Harvey British Art,217051631,E09000020,15 Langton Street,NA,NA,Stanley,E05009405,-0.17934463415026414,526410.0001221001,51.48184261458816,177502.00012210011,Kensington and Chelsea,Commercial galleries,E09000020,11/27/2022
Kensington and Chelsea,http://www.doyledevere.co.uk/#,Doyle Devere,217052558,E09000020,30 Ledbury Road,NA,NA,Pembridge,E05009400,-0.19721510002100648,525083.0001221001,51.51336220680495,180976.00012210011,Kensington and Chelsea,Commercial galleries,E09000020,11/27/2022
Kensington and Chelsea,http://www.rbkc.gov.uk/subsites/museums/theorangery.aspx#,The Orangery,217064477,E09000020,Holland Park,NA,NA,Campden,E05009390,-0.1861903441582244,525868.0001221001,51.50606036295011,180183.00012210011,Kensington and Chelsea,Commercial galleries,E09000020,11/27/2022
Kensington and Chelsea,http://www.tryonst.co.uk/#,Tryon St,217087920,E09000020,7-9 Tryon Street,NA,NA,Royal Hospital,E05009403,-0.16135024091341837,527637.0001221001,51.48981789329163,178420.00012210011,Kensington and Chelsea,Commercial galleries,E09000020,11/27/2022
Kensington and Chelsea,http://www.laceycontemporarygallery.co.uk/#,Lacey Contemporary,217103015,E09000020,8 Clarendon Cross,NA,NA,Notting Dale,E05009399,-0.2086047848542392,524302.0001221001,51.50998431631176,180581.00012210011,Kensington and Chelsea,Commercial galleries,E09000020,11/27/2022
Kensington and Chelsea,http://www.thedotproject.com/#,The Dot Project,217103153,E09000020,94 Fulham Road,NA,NA,Courtfield,E05009393,-0.1737467099357595,526778.0001221001,51.48928315410843,178339.00012210011,Kensington and Chelsea,Commercial galleries,E09000020,11/27/2022
Kensington and Chelsea,http://www.waterman.co.uk/#,Offer Waterman & Co,217103621,E09000020,11 Langton Street,NA,NA,Stanley,E05009405,-0.17924637565079424,526417.0001221001,51.48177813385481,177495.00012210011,Kensington and Chelsea,Commercial galleries,E09000020,11/27/2022
Kensington and Chelsea,http://www.cadogancontemporary.com/#,Cadogan Contemporary,217103741,E09000020,87 Old Brompton Road,NA,NA,Courtfield,E05009393,-0.17532351902573062,526661.0001221001,51.492005766101194,178639.00012210011,Kensington and Chelsea,Commercial galleries,E09000020,11/27/2022
Kensington and Chelsea,http://themuseat269.com/#,The Muse,217103948,E09000020,269 Portobello Rd,NA,NA,Colville,E05009392,-0.20527124336270106,524513.0001221001,51.51742491369059,181414.00012210011,Kensington and Chelsea,Commercial galleries,E09000020,11/27/2022
Kensington and Chelsea,http://www.medicigallery.co.uk/c/183/Contact,Medici Gallery (south Kensington),217104170,E09000020,26 Thurloe Street,NA,NA,Brompton & Hans Town,E05009389,-0.17202534722222998,526885.0001221001,51.49378008324027,178842.00012210011,Kensington and Chelsea,Commercial galleries,E09000020,11/27/2022
Kensington and Chelsea,http://www.gggallery.co.uk/#,GGGallery,217106096,E09000020,15b Blenheim Crescent,NA,NA,Colville,E05009392,-0.20409258752616868,524601.0001221001,51.515140514967236,181162.00012210011,Kensington and Chelsea,Commercial galleries,E09000020,11/27/2022
Kensington and Chelsea,http://www.richardyounggallery.co.uk/#,Richard Young Gallery,217106179,E09000020,4 Holland Street,NA,NA,Campden,E05009390,-0.190550282889605,525574.4301147982,51.50280048067015,179813.04010009766,Kensington and Chelsea,Commercial galleries,E09000020,11/27/2022
Kensington and Chelsea,http://www.hackelbury.co.uk/#,Hackelbury,217106588,E09000020,4 Launceston Place,NA,NA,Queen's Gate,E05009401,-0.18376634660807697,526057.0001221001,51.498522251876686,179349.00012210011,Kensington and Chelsea,Commercial galleries,E09000020,11/27/2022
Kensington and Chelsea,http://www.thefoundrygallery.org/#,The Foundry Gallery,217106994,E09000020,39 Old Church Street,NA,NA,Chelsea Riverside,E05009391,-0.1707505564830708,527001.0001221001,51.48387629093848,177743.00012210011,Kensington and Chelsea,Commercial galleries,E09000020,11/27/2022
Kensington and Chelsea,http://www.thelittleblackgallery.com/#,The Little Black Gallery,217107061,E09000020,13A Park Walk,NA,NA,Stanley,E05009405,-0.1782519896397857,526476.0001221001,51.485405074488,177900.00012210011,Kensington and Chelsea,Commercial galleries,E09000020,11/27/2022
Kensington and Chelsea,http://www.saatchi-gallery.co.uk/#,Saatchi Gallery,217110596,E09000020,Duke of York's HQ,King's Road,NA,Royal Hospital,E05009403,-0.15711805784642063,527930.0001221001,51.490093205736024,178458.00012210011,Kensington and Chelsea,Commercial galleries,E09000020,11/27/2022
Kensington and Chelsea,http://graffikgallery.com/#,Graffik Gallery,217113237,E09000020,284 Portobello Road,NA,NA,Golborne,E05009396,-0.20584966332452415,524469.0001221001,51.5188457387496,181571.00012210011,Kensington and Chelsea,Commercial galleries,E09000020,11/27/2022
Kensington and Chelsea,http://www.flyingcoloursgallery.com/#,Flying Colours Gallery,217115299,E09000020,6 Burnsall Street,NA,NA,Stanley,E05009405,-0.16460926741564677,527415.0001221001,51.488304075170824,178246.00012210011,Kensington and Chelsea,Commercial galleries,E09000020,11/27/2022
Kensington and Chelsea,http://www.michaelhoppengallery.com/#,Michael Hoppen Gallery,217120296,E09000020,3 Jubilee Place,NA,NA,Stanley,E05009405,-0.16444476437646816,527426.0001221001,51.48845439044592,178263.00012210011,Kensington and Chelsea,Commercial galleries,E09000020,11/27/2022
Kensington and Chelsea,https://www.rbkc.gov.uk/housing-management/housing-venues-hire,World's End Community Centre,217122202,E09000020,16 Blantyre Street, London,NA,Chelsea Riverside,E05009391,-0.17728377262948894,526557.0001221001,51.48042558644895,177348.00012210011,Kensington and Chelsea,Community centres,E09000020,11/27/2022
Kensington and Chelsea,https://www.rbkc.gov.uk/housing-management/housing-venues-hire,Silchester Community Room,217127986,E09000020,Frinstead House, Freston Road, London,Notting Dale,E05009399,-0.2174623497028122,523681.0900878981,51.512326013051684,180826.37011719495,Kensington and Chelsea,Community centres,E09000020,11/27/2022
Kensington and Chelsea,https://www.rbkc.gov.uk/housing-management/housing-venues-hire,Sir Thomas More Community Centre,217004580,E09000020,Sir Thomas More Estate, Beaufort Street, London,Chelsea Riverside,E05009391,-0.1721432592327463,526908.0001221001,51.48254897804968,177593.00012210011,Kensington and Chelsea,Community centres,E09000020,11/27/2022
Kensington and Chelsea,,Henry Dickens Community Centre,217107812,E09000020,Henry Dickens Court Estate, St Annes Road, London,Notting Dale,E05009399,-0.21387985737830087,523937.0001221001,51.509615103746064,180531.00012210011,Kensington and Chelsea,Community centres,E09000020,11/27/2022
Kensington and Chelsea,https://www.rbkc.gov.uk/housing-management/housing-venues-hire,Treverton Community Centre,217125493,E09000020,Treverton Street, London,NA,Dalgarno,E05009394,-0.2134701912667608,523929.8101195991,51.522733476217454,181990.3500976935,Kensington and Chelsea,Community centres,E09000020,11/27/2022
Kensington and Chelsea,https://www.rbkc.gov.uk/housing-management/housing-venues-hire,Kensal Resource Centre,217126323,E09000020,Appleford House,  Appleford Road, London,Golborne,E05009396,-0.20699872135055433,524375.3101195991,51.5239762755564,182139.5200805962,Kensington and Chelsea,Community centres,E09000020,11/27/2022
Kensington and Chelsea,https://www.rbkc.gov.uk/housing-management/housing-venues-hire,John Keys Resource Centre,217126324,E09000020,Pond House, Pond Place, London,Stanley,E05009405,-0.16928086480657964,527082.9301147982,51.49110413428955,178549.2200927958,Kensington and Chelsea,Community centres,E09000020,11/27/2022
Kensington and Chelsea,,Edwards Woods Community Centre,34039616,E09000020,60-70 Norland Road,Hammersmith And Fulham,NA,Norland,E05009398,-0.21442198895797446,523908.0001221001,51.506439669322354,180177.00012210011,Kensington and Chelsea,Community centres,E09000020,11/27/2022
Kensington and Chelsea,,The Dalgarno Trust,217023026,E09000020,Dalgarno Way,Kensington And Chelsea,NA,Dalgarno,E05009394,-0.22298170471122072,523267.0001221001,51.52386410554844,182100.00012210011,Kensington and Chelsea,Community centres,E09000020,11/27/2022
Kensington and Chelsea,,World's End Community Centre,217005389,E09000020,7 World'S End Place,Kensington And Chelsea,NA,Chelsea Riverside,E05009391,-0.1780622797194918,526501.0001221001,51.48113019058864,177425.00012210011,Kensington and Chelsea,Community centres,E09000020,11/27/2022
Kensington and Chelsea,,Kensal House Community Centre,217113030,E09000020,Ladbroke Grove,Kensington And Chelsea,NA,Dalgarno,E05009394,-0.21353355619911762,523920.0001221001,51.52472784076105,182212.00012210011,Kensington and Chelsea,Community centres,E09000020,11/27/2022
Kensington and Chelsea,http://www.rbkc.gov.uk/venueskensington,Kensington Town Hall,217125489,E09000020,Hornton Street,Kensington And Chelsea,NA,Campden,E05009390,-0.19351215744137426,525373.1301269978,51.50125690386472,179636.3300780952,Kensington and Chelsea,Community centres,E09000020,11/27/2022
Kensington and Chelsea,https://www.shgroup.org.uk/media/233105/ixworth-place.pdf,Ixworth Place Community Centre,217104471,E09000020,Samuel Lewis Trust Dwellings,Ixworth Place,Kensington And Chelsea,Stanley,E05009405,-0.16781098336785855,527184.0001221001,51.49144793224189,178590.00012210011,Kensington and Chelsea,Community centres,E09000020,11/27/2022
Kensington and Chelsea,http://www.chelseaoldchurch.org.uk,Chelsea Old Church,217061391,E09000020,64 Cheyne Walk,Kensington And Chelsea,NA,Chelsea Riverside,E05009391,-0.16948160091353334,527092.0001221001,51.48283122017194,177629.00012210011,Kensington and Chelsea,Community centres,E09000020,11/27/2022
Kensington and Chelsea,,The Reed,217129015,E09000020,28 Convent Gardens ,NA,NA,Colville,E05009392,-0.205049137813508,524534.0900878981,51.515341773755814,181182.75012210011,Kensington and Chelsea,Community centres,E09000020,11/27/2022
Kensington and Chelsea,https://www.rbkc.gov.uk/housing-management/housing-venues-hire,North Kensington Resource Centre,217113750,E09000020,Whitchurch Road, Lancaster West Estate, London,Notting Dale,E05009399,-0.21544323174055155,523821.0001221001,51.512390906240526,180837.00012210011,Kensington and Chelsea,Community centres,E09000020,11/27/2022
Kensington and Chelsea,https://www.rbkc.gov.uk/housing-management/housing-venues-hire,Portobello Court Community Centre,217105300,E09000020,Portobello Court Estate, Portobello Road, London,Colville,E05009392,-0.20117071154724114,524807.0001221001,51.51393557554383,181033.00012210011,Kensington and Chelsea,Community centres,E09000020,11/27/2022
Kensington and Chelsea,,Nevern Place,217058060,E09000020,Notting Hill Housing Association,Flat 1a,1 Nevern Place,Earl's Court,E05009395,-0.19320702967159792,525418.0001221001,51.492624455557234,178677.00012210011,Kensington and Chelsea,Community centres,E09000020,11/27/2022
Kensington and Chelsea,http://secondhome.io/,Second Home,217117492,E09000020,Second Home Holland Park,47-49 Princes Place,,Norland,E05009398,-0.208631972403949,524306.7100829929,51.50756089862127,180311.49011229724,Kensington and Chelsea,Creative co-working desk space,E09000020,11/27/2022
Kensington & Chelsea,http://www.buspace.co.uk/,Buspace,217018301,E09000020,Buspace Studios,5 Conlan Street,,,,-0.20968955263068703,524186.0001221001,51.52495701765931,182244.00012210011,Kensington and Chelsea,Creative workspaces,E09000020,11/27/2022
Kensington and Chelsea,http://www.cadoganhall.com,Cadogan Hall,217078765,E09000020,5 Sloane Terrace,,,Royal Hospital,E05009403,-0.15726787385942506,527798.0452933692,51.49386601372175,178931.39483932458,Kensington and Chelsea,Dance performance venues,E09000020,11/27/2022
Kensington and Chelsea,https://www.gatetheatre.co.uk/?spektrix_bounce=true,The Gate Theatre,217065685,E09000020,11 Pembridge Road,,,Pembridge,E05009400,-0.19766381903472255,524951.6968687112,51.50952947222264,180603.0460506056,Kensington and Chelsea,Dance performance venues,E09000020,11/27/2022
Kensington and Chelsea,https://www.tabernaclew11.com,The Tabernacle,217070132,E09000020,35 Powis Square,,,Colville,E05009392,-0.2018814067603197,524638.7820982584,51.516968162397546,181422.88900685904,Kensington and Chelsea,Dance performance venues,E09000020,11/27/2022
Kensington and Chelsea,,Chelsea Theatre,217005389,E09000020,,,,Chelsea Riverside,E05009391,-0.17963758951303876,526279.3880689696,51.481643623903196,177533.6522717058,Kensington and Chelsea,Dance rehearsal studios,E09000020,11/27/2022
Kensington and Chelsea,https://www.gatetheatre.co.uk/?spektrix_bounce=true,The Gate Theatre,217065685,E09000020,11 Pembridge Road,,,Pembridge,E05009400,-0.19766381903472255,524951.6968687112,51.50952947222264,180603.0460506056,Kensington and Chelsea,Dance rehearsal studios,E09000020,11/27/2022
Kensington and Chelsea,https://www.tabernaclew11.com,The Tabernacle,217070132,E09000020,35 Powis Square,,,Colville,E05009392,-0.2018814067603197,524638.7820982584,51.516968162397546,181422.88900685904,Kensington and Chelsea,Dance rehearsal studios,E09000020,11/27/2022
Kensington and Chelsea,http://www.sharp-cut.com/,Sharp Cut,217011263,E09000020,196H Campden Hill Road,,,Campden,E05009390,-0.19960993653076917,524819.723473093,51.508417293117596,180476.06832970167,Kensington and Chelsea,Fashion and design,E09000020,11/27/2022
Kensington and Chelsea,,30 South Limited,217073548,E09000020,36 Redcliffe Gardens,,,Redcliffe,E05009402,-0.184758800554585,526026.0001221001,51.48478651152016,177820.00012210011,Kensington and Chelsea,Jewellery design,E09000020,11/27/2022
Kensington and Chelsea,,Cash Diamond Ltd,10091854668,E09000020,Office 4,219 Kensington High Street,,Abingdon,E05009388,-0.19535115018224986,525252.0001221001,51.49888997962105,179370.00012210011,Kensington and Chelsea,Jewellery design,E09000020,11/27/2022
Kensington and Chelsea,http://www.pearls.co.uk,Coleman Douglas Pearls Ltd,217107523,E09000020,42 Beauchamp Place,,,Brompton & Hans Town,E05009389,-0.16318446740031728,527490.0001221001,51.49687060661778,179201.00012210011,Kensington and Chelsea,Jewellery design,E09000020,11/27/2022
Kensington and Chelsea,,Double Happiness Limited,217113366,E09000020,33 Beauchamp Place,,,Brompton & Hans Town,E05009389,-0.16261679936534099,527530.0001221001,51.496654861200895,179178.00012210011,Kensington and Chelsea,Jewellery design,E09000020,11/27/2022
Kensington and Chelsea,,Katerina Sibilia Limited,217106780,E09000020,509a Kings Road,,,Chelsea Riverside,E05009391,-0.1823012894096749,526209.0001221001,51.48029663269135,177325.00012210011,Kensington and Chelsea,Jewellery design,E09000020,11/27/2022
Kensington and Chelsea,,Mariasolef Limited,217116547,E09000020,2b Ledbury Mews North,,,Pembridge,E05009400,-0.19700668569785235,525097.0001221001,51.51352987905111,180995.00012210011,Kensington and Chelsea,Jewellery design,E09000020,11/27/2022
Kensington and Chelsea,,Mira S. Designs U.K Limited,217117619,E09000020,119 Network Hub,300 Kensal Road,,Golborne,E05009396,-0.2092490752730733,524214.0001221001,51.52589460613025,182349.00012210011,Kensington and Chelsea,Jewellery design,E09000020,11/27/2022
Kensington and Chelsea,,Samuel Antiques Ltd,217069410,E09000020,"Unit 45, 141-149",Portobello Road,,Colville,E05009392,-0.20263484219565314,524706.0001221001,51.51372419352132,181007.00012210011,Kensington and Chelsea,Jewellery design,E09000020,11/27/2022
Kensington and Chelsea,,Sydney and Ritchie Limited,217022091,E09000020,International House,Cromwell Road,,Queen's Gate,E05009401,-0.1860786537209238,525908.0001221001,51.494358069349,178882.00012210011,Kensington and Chelsea,Jewellery design,E09000020,11/27/2022
Kensington and Chelsea,,Chelsea Library,217105143,E09000020,King's Road,,,Royal Hospital,E05009403,-0.16659362205173453,527281.0001221001,51.48695910686271,178093.00012210011,Kensington and Chelsea,Libraries,E09000020,11/27/2022
Kensington and Chelsea,,Brompton Library,217060921,E09000020,Old Brompton Road,,,Redcliffe,E05009402,-0.18683068444357206,525869.0001221001,51.489567156812875,178348.00012210011,Kensington and Chelsea,Libraries,E09000020,11/27/2022
Kensington and Chelsea,,Kensington Central Library,217125485,E09000020,Phillimore Walk,,,Campden,E05009390,-0.19283156003879473,525421.3201293945,51.500907631650286,179598.66009519994,Kensington and Chelsea,Libraries,E09000020,11/27/2022
Kensington and Chelsea,,Notting Hill Gate Library,217105238,E09000020,Pembridge Square,,,Pembridge,E05009400,-0.19581855514618524,525187.0001221001,51.51076859215185,180690.00012210011,Kensington and Chelsea,Libraries,E09000020,11/27/2022
Kensington and Chelsea,,North Kensington Library,217048255,E09000020,Ladbroke Grove,,,Colville,E05009392,-0.20762743665517866,524353.0001221001,51.516156893858444,181269.00012210011,Kensington and Chelsea,Libraries,E09000020,11/27/2022
Kensington and Chelsea,,Kensal Library,217035223,E09000020,Golborne Road,,,Golborne,E05009396,-0.2052839834576391,524496.0001221001,51.523333817141435,182071.00012210011,Kensington and Chelsea,Libraries,E09000020,11/27/2022
Kensington & Chelsea,www.goldfingerfactory.com,Goldfinger Factory,217034922,E09000020,Goldfinger Factory,Trellick Tower,13-15 Golborne Road,Golborne,E05009396,-0.20543743454326746,524373.8559778862,51.5236681660751,182161.74761131534,Kensington and Chelsea,Makerspaces,E09000020,11/27/2022
Kensington and Chelsea,http://www.adamdawedesign.co.uk,Adam Dawe Design Limited,217080087,E09000020,33 St Charles Square,,,St. Helen's,E05009404,-0.21263105597893686,523997.0001221001,51.51942593763725,181624.00012210011,Kensington and Chelsea,Making and manufacturing,E09000020,11/27/2022
Kensington and Chelsea,http://www.clockmakers.org/,Clockmakersʼ Museum,217031151,E09000020,Exhibition Road,Kensington,NA,Brompton & Hans Town,E05009389,-0.17491654615684135,526676.0001221001,51.496783994255615,179171.00012210011,Kensington and Chelsea,Museums and public galleries,E09000020,11/27/2022
Kensington and Chelsea,http://http/www.rbkc.gov.uk/subsites/museums.aspx,Leighton House Museum,217039506,E09000020,12 Holland Park Road,NA,NA,Holland,E05009397,-0.20152150205942215,524826.0001221001,51.49807643556718,179269.00012210011,Kensington and Chelsea,Museums and public galleries,E09000020,11/27/2022
Kensington and Chelsea,http://designmuseum.org/,Design Museum,217044656,E09000020,224-238 Kensington High Street (Holland Park),NA,NA,Holland,E05009397,-0.1985850832510422,525026.2700805962,51.499363119274626,179417.0800780952,Kensington and Chelsea,Museums and public galleries,E09000020,11/27/2022
Kensington and Chelsea,http://www.hrp.org.uk%0Bwww.kensingtonpalace@hrp.org.uk/,Kensington Palace (State Apartments and Royal Ceremonial Dress Collection),217064431,E09000020,Kensington Palace/Palace Green,NA,NA,Campden,E05009390,-0.18644659013804485,525854.0001221001,51.50468831912584,180030.00012210011,Kensington and Chelsea,Museums and public galleries,E09000020,11/27/2022
Kensington and Chelsea,http://www.nam.ac.uk/,National Army Museum,217075883,E09000020,Royal Hospital Road,Chelsea,NA,Royal Hospital,E05009403,-0.15876001904779358,527828.2700805962,51.48571566197465,177968.3900756985,Kensington and Chelsea,Museums and public galleries,E09000020,11/27/2022
Kensington and Chelsea,https://www.architecture.com/about/riba-library-and-collections,British Architectural Library – Drawings and Archives Collections,217108016,E09000020,Victoria and Albert Museum,Cromwell Road,Knightsbridge,Brompton & Hans Town,E05009389,-0.17052141488136824,526982.1301269978,51.4963902060583,179134.8300780952,Kensington and Chelsea,Museums and public galleries,E09000020,11/27/2022
Kensington and Chelsea,http://www.nhm.ac.uk/,Natural History Museum,217108017,E09000020,Cromwell Road,NA,NA,Brompton & Hans Town,E05009389,-0.17529157520280514,526652.0001221001,51.496052361043965,179089.00012210011,Kensington and Chelsea,Museums and public galleries,E09000020,11/27/2022
Kensington and Chelsea,https://www.nationaltrust.org.uk/carlyles-house,Carlyle’s House,217110505,E09000020,24 Cheyne Row,NA,NA,Chelsea Riverside,E05009391,-0.16812482319115857,527184.0001221001,51.4836194495747,177719.00012210011,Kensington and Chelsea,Museums and public galleries,E09000020,11/27/2022
Kensington and Chelsea,https://www.sciencemuseum.org.uk/,The Science Museum,217118723,E09000020,Exhibition Rd,Kensington,NA,Brompton & Hans Town,E05009389,-0.17491654615684135,526676.0001221001,51.496783994255615,179171.00012210011,Kensington and Chelsea,Museums and public galleries,E09000020,11/27/2022
Kensington and Chelsea,http://www.vam.ac.uk/,Victoria and Albert Museum,217119925,E09000020,Cromwell Road,South Kensington,NA,Brompton & Hans Town,E05009389,-0.17062393282744104,526974.9000854939,51.49643155736966,179139.25012210011,Kensington and Chelsea,Museums and public galleries,E09000020,11/27/2022
Kensington And Chelsea,,Insanity,217102340,E09000020,9 Derry Street,Kensington And Chelsea,,Queen's Gate,E05009401,-0.18976526433834426,525635.000122197,51.50058459499549,179568.00012159348,Kensington and Chelsea,Music (office based businesses),E09000020,11/27/2022
Kensington And Chelsea,http://www.stiff-records.com,Stiff Records Ltd,217106572,E09000020,105 Ladbroke Grove,Kensington And Chelsea,,Norland,E05009398,-0.20729946967895302,524379.000122197,51.51496474265835,181137.00012159348,Kensington and Chelsea,Music (office based businesses),E09000020,11/27/2022
Kensington And Chelsea,,Eleven Management,217118420,E09000020,Park House 206-208 Latimer Road,Kensington And Chelsea,,St. Helen's,E05009404,-0.22109007349432067,523419.000122197,51.516173009459244,181248.00012169778,Kensington and Chelsea,Music (office based businesses),E09000020,11/27/2022
Kensington And Chelsea,,Quest Management,217035308,E09000020,92 Golborne Road,Kensington And Chelsea,,Golborne,E05009396,-0.20758898186020877,524342.000122197,51.52117466119442,181827.00012159348,Kensington and Chelsea,Music (office based businesses),E09000020,11/27/2022
,http://piratestudios.co.uk,Pirate Studios - Notting Hill,,,"Arches 56-59, Bard Road, White City",,,,,-0.21809542914068047,523638.5303019956,51.51182256992607,180769.32158019394,Kensington and Chelsea,Music recording studios,E09000020,11/27/2022
Kensington And Chelsea,https://milocostudios.com/studios/sleeper-sounds/location-and-map/,Sleeper Sounds,,,Middle Row,,,,,-0.2102364940324965,524147.4939038977,51.525166593404606,182266.37508630008,Kensington and Chelsea,Music recording studios,E09000020,11/27/2022
Kensington And Chelsea,,Mastering The Mix,217094356,E09000020,14a Wrights Lane,Kensington And Chelsea,,Abingdon,E05009388,-0.19103636032593788,525552.000122197,51.49868859251121,179355.00012159348,Kensington and Chelsea,Music recording studios,E09000020,11/27/2022
Kensington And Chelsea,http://www.sarmstudios.com,Sarm Studios,217106572,E09000020,105 Ladbroke Grove,Kensington And Chelsea,,Norland,E05009398,-0.20729946967895302,524379.000122197,51.51496474265835,181137.00012159348,Kensington and Chelsea,Music recording studios,E09000020,11/27/2022
Kensington And Chelsea,www.electricmastering.com,Electric Mastering Ltd,217115482,E09000020,242 Acklam Road,Kensington And Chelsea,,Golborne,E05009396,-0.20151466539980725,524764.000122197,51.5209377753173,181811.00012159348,Kensington and Chelsea,Music recording studios,E09000020,11/27/2022
Kensington And Chelsea,,Arcadium Studios,0,E09000020,124-128 Barlby Rd ,,,Dalgarno,E05009394,-0.21734406928821634,523661.000122197,51.52277128656501,181988.00012159348,Kensington and Chelsea,Music recording studios,E09000020,11/27/2022
,http://piratestudios.co.uk,Pirate Studios - Notting Hill West London Rehearsal Studios,,,Arches 56-59,Bard Road,White City,,,-0.21809539567837577,523638.53000009805,51.511823538862906,180769.42937459797,Kensington and Chelsea,Music rehearsal studios,E09000020,11/27/2022
Kensington And Chelsea,www.thechelsearam.co.uk,Chelsea Ram,217008187,E09000020,32 Burnaby Street,Kensington And Chelsea,,Chelsea Riverside,E05009391,-0.18099890758582557,526304.000122197,51.478639607190516,177143.00012159348,Kensington and Chelsea,Music venues (all),E09000020,11/27/2022
Kensington And Chelsea,www.jujulondon.com,Juju,217112650,E09000020,Flat A-C 316-318,Kings Road,Kensington And Chelsea,Stanley,E05009405,-0.17235500685247043,526886.000122197,51.48517839716768,177885.00012159348,Kensington and Chelsea,Music venues (all),E09000020,11/27/2022
Kensington And Chelsea,www.finboroughtheatre.co.uk,Finborough Theatre,217112560,E09000020,118 Finborough Road,Kensington And Chelsea,,Redcliffe,E05009402,-0.18848351471974462,525764.000122197,51.48603126588081,177952.00012159348,Kensington and Chelsea,Music venues (all),E09000020,11/27/2022
Kensington And Chelsea,www.troubadourlondon.com,The Troubadour,217114565,E09000020,263-267 Old Brompton Road,Kensington And Chelsea,,Redcliffe,E05009402,-0.18999180446192443,525653.000122197,51.4883209295035,178204.00012159348,Kensington and Chelsea,Music venues (all),E09000020,11/27/2022
Kensington And Chelsea,www.pizzaexpresslive.com/venues/chelsea-the-pheasantry,The Pheasantry,217047024,E09000020,152 King's Rd Chelsea,London,,Stanley,E05009405,-0.1638782286270836,527465.000122197,51.48857142968084,178277.00012159348,Kensington and Chelsea,Music venues (all),E09000020,11/27/2022
Kensington And Chelsea,www.eclipsebars.com,Eclipse,217103754,E09000020,158 Old Brompton Road,Kensington And Chelsea,,Redcliffe,E05009402,-0.18165325177174116,526226.000122197,51.49043130008446,178453.00012159348,Kensington and Chelsea,Music venues (all),E09000020,11/27/2022
Kensington And Chelsea,,Albert's Club,217060804,E09000020,92 Old Brompton Road,Kensington And Chelsea,,Courtfield,E05009393,-0.1763432754729757,526590.000122197,51.49208458574332,178646.00012159348,Kensington and Chelsea,Music venues (all),E09000020,11/27/2022
Kensington And Chelsea,www.montezumalondon.com,Montezuma London Club,217036855,E09000020,17 Harrington Road,Kensington And Chelsea,,Brompton & Hans Town,E05009389,-0.17415560137515387,526738.000122197,51.49347151956033,178804.00012159348,Kensington and Chelsea,Music venues (all),E09000020,11/27/2022
Kensington And Chelsea,www.cadoganhall.com,Cadogan Hall,217078765,E09000020,5 Sloane Terrace,Kensington And Chelsea,,Royal Hospital,E05009403,-0.15568988106856588,528020.000122197,51.49335340024676,178823.00012159348,Kensington and Chelsea,Music venues (all),E09000020,11/27/2022
Kensington And Chelsea,www.institut-francais.org.uk/cine-lumiere,Ciné Lumière,217107579,E09000020,17 Queensberry Place,Kensington And Chelsea,,Brompton & Hans Town,E05009389,-0.17561676355568048,526635.000122197,51.4940428689551,178865.00012159348,Kensington and Chelsea,Music venues (all),E09000020,11/27/2022
Kensington And Chelsea,,Hyde,217044013,E09000020,1 Kensington High Street,Kensington And Chelsea,,Queen's Gate,E05009401,-0.18609875455564628,525887.000122197,51.50147225496455,179673.00012159348,Kensington and Chelsea,Music venues (all),E09000020,11/27/2022
Kensington And Chelsea,www.nottinghillartsclub.com,Notting Hill Arts Club,217059366,E09000020,19-21 Notting Hill Gate,Kensington And Chelsea,,Campden,E05009390,-0.19280204988122407,525402.000122197,51.50868961536844,180464.00012159348,Kensington and Chelsea,Music venues (all),E09000020,11/27/2022
Kensington And Chelsea,,The Globe,217085524,E09000020,103 Talbot Road,Kensington And Chelsea,,Colville,E05009392,-0.1988942439950931,524959.000122197,51.51610403899469,181278.00012159348,Kensington and Chelsea,Music venues (all),E09000020,11/27/2022
Kensington And Chelsea,,Mau Mau Bar,217112647,E09000020,265 Portobello Road,Kensington And Chelsea,,Colville,E05009392,-0.20518798551341416,524519.000122197,51.517342698302755,181405.00012159348,Kensington and Chelsea,Music venues (all),E09000020,11/27/2022
Kensington And Chelsea,,Muse Gallery,217069499,E09000020,269 Portobello Road,Kensington And Chelsea,,Colville,E05009392,-0.20529864268416587,524511.000122197,51.51746130686567,181418.00012159348,Kensington and Chelsea,Music venues (all),E09000020,11/27/2022
Kensington And Chelsea,www.portobellohouse.com,Portobello House,217049277,E09000020,225 Ladbroke Grove,Kensington And Chelsea,,St. Helen's,E05009404,-0.21028164897041973,524160.000122197,51.519417089381136,181627.00012159348,Kensington and Chelsea,Music venues (all),E09000020,11/27/2022
Kensington And Chelsea,www.troubadourlondon.com,The Troubadour,217114565,E09000020,263-267 Old Brompton Road,Kensington And Chelsea,,Redcliffe,E05009402,-0.18999180446192443,525653.000122197,51.4883209295035,178204.00012159348,Kensington and Chelsea,Music venues (grassroots),E09000020,11/27/2022
Kensington And Chelsea,www.pizzaexpresslive.com/venues/chelsea-the-pheasantry,The Pheasantry,217047024,E09000020,152 King's Rd Chelsea,London,,Stanley,E05009405,-0.1638782286270836,527465.000122197,51.48857142968084,178277.00012159348,Kensington and Chelsea,Music venues (grassroots),E09000020,11/27/2022
Kensington And Chelsea,www.nottinghillartsclub.com,Notting Hill Arts Club,217059366,E09000020,19-21 Notting Hill Gate,Kensington And Chelsea,,Campden,E05009390,-0.19280204988122407,525402.000122197,51.50868961536844,180464.00012159348,Kensington and Chelsea,Music venues (grassroots),E09000020,11/27/2022
Kensington and Chelsea,http://www.adamdawedesign.co.uk,Adam Dawe Design Limited,217080087,E09000020,33 St Charles Square,,,St. Helen's,E05009404,-0.21263105597893686,523997.0001221001,51.51942593763725,181624.00012210011,Kensington and Chelsea,Prop and costume making,E09000020,11/27/2022
Kensington and Chelsea,,Sporting Page,,E09000020,6 Camera Place,Chelsea,London,Stanley,E05009405,-0.17781197630794132,526510.0001221001,51.484157127260204,177762.00012210011,Kensington and Chelsea,Pubs,E09000020,11/27/2022
Kensington and Chelsea,,Rileys,,E09000020,433 Kings Road,Chelsea,,Stanley,E05009405,-0.17577482871582445,526655.0001221001,51.4828663517071,177622.00012210011,Kensington and Chelsea,Pubs,E09000020,11/27/2022
Kensington and Chelsea,,World's End Market,,E09000020,459 Kings Road,Chelsea,London,Chelsea Riverside,E05009391,-0.1764664148594859,526609.0001221001,51.4821396388677,177540.00012210011,Kensington and Chelsea,Pubs,E09000020,11/27/2022
Kensington and Chelsea,,Chelsea Ram,,E09000020,32 Burnaby Street,Chelsea,London,Chelsea Riverside,E05009391,-0.18127418090782382,526285.0001221001,51.47859891000701,177138.00012210011,Kensington and Chelsea,Pubs,E09000020,11/27/2022
Kensington and Chelsea,,Lots Road Pub & Dining Rooms,,E09000020,114 Lots Road,Chelsea,London,Chelsea Riverside,E05009391,-0.18205733795693216,526233.0001221001,51.47773868175921,177041.00012210011,Kensington and Chelsea,Pubs,E09000020,11/27/2022
Kensington and Chelsea,,Finborough Arms,,E09000020,118 Finborough Road,West Brompton,London,Redcliffe,E05009402,-0.1879370248938269,525803.0001221001,51.4856450927025,177910.00012210011,Kensington and Chelsea,Pubs,E09000020,11/27/2022
Kensington and Chelsea,,Hollywood Arms,,E09000020,45 Hollywood Road,Chelsea,London,Redcliffe,E05009402,-0.18271774058934304,526165.0001221001,51.48576217020886,177932.00012210011,Kensington and Chelsea,Pubs,E09000020,11/27/2022
Kensington and Chelsea,,Kings Arms,,E09000020,190 Fulham Road,Chelsea,London,Redcliffe,E05009402,-0.17937889648152017,526397.0001221001,51.485683391420665,177929.00012210011,Kensington and Chelsea,Pubs,E09000020,11/27/2022
Kensington and Chelsea,,Sophie's,,E09000020,311-313 Fulham Road,West Brompton,London,Stanley,E05009405,-0.17762913673989703,526517.0001221001,51.486213807870804,177991.00012210011,Kensington and Chelsea,Pubs,E09000020,11/27/2022
Kensington and Chelsea,,Fox & Pheasant,,E09000020,1 Billing Road,Chelsea,London,Redcliffe,E05009402,-0.18644266795892378,525918.0001221001,51.48155690783925,177458.00012210011,Kensington and Chelsea,Pubs,E09000020,11/27/2022
Kensington and Chelsea,,Chelsea Pensioner,,E09000020,358 Fulham Road,Chelsea,London,Redcliffe,E05009402,-0.18620531544319163,525936.0001221001,51.48100463001917,177397.00012210011,Kensington and Chelsea,Pubs,E09000020,11/27/2022
Kensington and Chelsea,,Royal Court Cafe Bar & Kitchen,,E09000020,"Royal Court Theatre, Sloane Square",London,Chelsea,Royal Hospital,E05009403,-0.15481847527716427,528084.0001221001,51.49209857878563,178685.00012210011,Kensington and Chelsea,Pubs,E09000020,11/27/2022
Kensington and Chelsea,,Colbert,,E09000020,50-52 Sloane Square,London,Chelsea,Royal Hospital,E05009403,-0.15469385358149523,528092.0001221001,51.49233045022068,178711.00012210011,Kensington and Chelsea,Pubs,E09000020,11/27/2022
Kensington and Chelsea,,Rose & Crown,,E09000020,90-92 Lower Sloane Street,London,Belgravia,Royal Hospital,E05009403,-0.15523937674751143,528062.0001221001,51.489524048557264,178398.00012210011,Kensington and Chelsea,Pubs,E09000020,11/27/2022
Kensington and Chelsea,,Botanist,,E09000020,7 Sloane Square,London,Belgravia,Royal Hospital,E05009403,-0.15501520997684348,528069.0001221001,51.49257833344814,178738.00012210011,Kensington and Chelsea,Pubs,E09000020,11/27/2022
Kensington and Chelsea,,Antelope,,E09000020,22-24 Eaton Terrace,London,Belgravia,Royal Hospital,E05009403,-0.1542654049184639,528118.0001221001,51.493663747454136,178860.00012210011,Kensington and Chelsea,Pubs,E09000020,11/27/2022
Kensington and Chelsea,,Harrods Terrace Bar,,E09000020,"Harrods Store, 4th Floor, 87 - 135 Brompton Road",London,Knightsbridge,Brompton & Hans Town,E05009389,-0.16163180020469364,527592.0001221001,51.498932777169756,179433.00012210011,Kensington and Chelsea,Pubs,E09000020,11/27/2022
Kensington and Chelsea,,Gloucester,,E09000020,187 Sloane Street,London,Belgravia,Brompton & Hans Town,E05009389,-0.1578649196517961,527852.0001221001,51.49944025379144,179496.00012210011,Kensington and Chelsea,Pubs,E09000020,11/27/2022
Kensington and Chelsea,,Bunch Of Grapes,,E09000020,207 Brompton Road,Knightsbridge,London,Brompton & Hans Town,E05009389,-0.16534869677862582,527339.0001221001,51.49715630819006,179229.00012210011,Kensington and Chelsea,Pubs,E09000020,11/27/2022
Kensington and Chelsea,,Hour Glass,,E09000020,279-283 Brompton Road,South Kensington,London,Brompton & Hans Town,E05009389,-0.16697647712074284,527236.0001221001,51.493575353978166,178828.00012210011,Kensington and Chelsea,Pubs,E09000020,11/27/2022
Kensington and Chelsea,,Enterprise,,E09000020,35 Walton Street,Chelsea,London,Brompton & Hans Town,E05009389,-0.16420495474003044,527425.0001221001,51.49478209774082,178967.00012210011,Kensington and Chelsea,Pubs,E09000020,11/27/2022
Kensington and Chelsea,,Admiral Codrington,,E09000020,17 Mossop Street,Chelsea,London,Brompton & Hans Town,E05009389,-0.1643790080989736,527417.0001221001,51.493318873987995,178804.00012210011,Kensington and Chelsea,Pubs,E09000020,11/27/2022
Kensington and Chelsea,,Builders Arms,,E09000020,13 Britten Street,Chelsea,London,Stanley,E05009405,-0.16616951089025,527306.0001221001,51.488553327376025,178271.00012210011,Kensington and Chelsea,Pubs,E09000020,11/27/2022
Kensington and Chelsea,,Surprise,,E09000020,6 Christchurch Terrace,Chelsea,London,Royal Hospital,E05009403,-0.16112427191082734,527664.0001221001,51.485767246465215,177970.00012210011,Kensington and Chelsea,Pubs,E09000020,11/27/2022
Kensington and Chelsea,,Phoenix,,E09000020,23 Smith Street,Chelsea,London,Royal Hospital,E05009403,-0.16159164634159878,527624.0001221001,51.488472644610226,178270.00012210011,Kensington and Chelsea,Pubs,E09000020,11/27/2022
Kensington and Chelsea,,Chelsea Potter,,E09000020,119 Kings Road,Chelsea,London,Royal Hospital,E05009403,-0.1644678696473972,527426.0001221001,51.48787916443859,178199.00012210011,Kensington and Chelsea,Pubs,E09000020,11/27/2022
Kensington and Chelsea,,Caffe Concerto,,E09000020,52 Kings Road,Chelsea,,Royal Hospital,E05009403,-0.15895459220493025,527800.0001221001,51.49099443245729,178555.00012210011,Kensington and Chelsea,Pubs,E09000020,11/27/2022
Kensington and Chelsea,,Chelsea Pig,,E09000020,35 Old Church Street,Chelsea,London,Chelsea Riverside,E05009391,-0.1710827417677448,526977.0001221001,51.48421423478372,177780.00012210011,Kensington and Chelsea,Pubs,E09000020,11/27/2022
Kensington and Chelsea,,Cross Keys,,E09000020,1 Lawrence Street,Chelsea,London,Chelsea Riverside,E05009391,-0.16936463515434952,527099.0001221001,51.48323410412812,177674.00012210011,Kensington and Chelsea,Pubs,E09000020,11/27/2022
Kensington and Chelsea,,Phene,,E09000020,9 Phene Street,Chelsea,London,Royal Hospital,E05009403,-0.1661212457177467,527320.0001221001,51.484730310160515,177846.00012210011,Kensington and Chelsea,Pubs,E09000020,11/27/2022
Kensington and Chelsea,,Coopers Arms,,E09000020,87 Flood Street,Chelsea,London,Royal Hospital,E05009403,-0.16337944907502205,527508.0001221001,51.4855687619671,177944.00012210011,Kensington and Chelsea,Pubs,E09000020,11/27/2022
Kensington and Chelsea,,Crown,,E09000020,153 Dovehouse Street,Chelsea,London,Stanley,E05009405,-0.17167531740879938,526921.0001221001,51.489565646670115,178374.00012210011,Kensington and Chelsea,Pubs,E09000020,11/27/2022
Kensington and Chelsea,,Sydney Arms,,E09000020,70 Sydney Street,Chelsea,London,Stanley,E05009405,-0.16767474374889121,527203.0001221001,51.48801925981863,178209.00012210011,Kensington and Chelsea,Pubs,E09000020,11/27/2022
Kensington and Chelsea,,Duke of Clarence,,E09000020,148 Old Brompton Road,South Kensington,London,Courtfield,E05009393,-0.18107627126070386,526266.0001221001,51.49044933143968,178456.00012210011,Kensington and Chelsea,Pubs,E09000020,11/27/2022
Kensington and Chelsea,,Drayton Arms,,E09000020,153 Old Brompton Road,South Kensington,London,Redcliffe,E05009402,-0.18199655690984937,526203.0001221001,51.49013084336695,178419.00012210011,Kensington and Chelsea,Pubs,E09000020,11/27/2022
Kensington and Chelsea,,King's Head,,E09000020,17 Hogarth Place,Earls Court,London,Earl's Court,E05009395,-0.1913869647411157,525545.0001221001,51.49238055121477,178653.00012210011,Kensington and Chelsea,Pubs,E09000020,11/27/2022
Kensington and Chelsea,,Blackbird,,E09000020,209 Earls Court Road,Earls Court,London,Earl's Court,E05009395,-0.1906457568100238,525599.0001221001,51.49145177652586,178551.00012210011,Kensington and Chelsea,Pubs,E09000020,11/27/2022
Kensington and Chelsea,,Courtfield,,E09000020,187 Earls Court Road,Earls Court,London,Earl's Court,E05009395,-0.1906457568100238,525599.0001221001,51.49145177652586,178551.00012210011,Kensington and Chelsea,Pubs,E09000020,11/27/2022
Kensington and Chelsea,,Bolton,,E09000020,326 Earls Court Road,Earls Court,London,Earl's Court,E05009395,-0.1892338421557587,525703.0001221001,51.489271533947374,178311.00012210011,Kensington and Chelsea,Pubs,E09000020,11/27/2022
Kensington and Chelsea,,Pembroke,,E09000020,261 Old Brompton Road,Earls Court,London,Redcliffe,E05009402,-0.19037182354478627,525627.0001221001,51.48818289883584,178188.00012210011,Kensington and Chelsea,Pubs,E09000020,11/27/2022
Kensington and Chelsea,,Earls Court Tavern,,E09000020,123 Earls Court Road,Earls Court,London,Earl's Court,E05009395,-0.19313646545614238,525421.0001221001,51.49331586919823,178754.00012210011,Kensington and Chelsea,Pubs,E09000020,11/27/2022
Kensington and Chelsea,,Prince of Teck,,E09000020,161 Earls Court Road,Earls Court,London,Earl's Court,E05009395,-0.19223397987061705,525486.0001221001,51.492456567776586,178660.00012210011,Kensington and Chelsea,Pubs,E09000020,11/27/2022
Kensington and Chelsea,,Hoop & Toy,,E09000020,34 Thurloe Place,South Kensington,London,Brompton & Hans Town,E05009389,-0.1724249321386298,526856.0001221001,51.49423598905807,178892.00012210011,Kensington and Chelsea,Pubs,E09000020,11/27/2022
Kensington and Chelsea,,Zetland Arms,,E09000020,2 Bute Street,South Kensington,London,Brompton & Hans Town,E05009389,-0.17456953467618194,526710.0001221001,51.493208158265666,178774.00012210011,Kensington and Chelsea,Pubs,E09000020,11/27/2022
Kensington and Chelsea,,Anglesea Arms,,E09000020,15 Selwood Terrace,South Kensington,London,Courtfield,E05009393,-0.17548523343988373,526656.0001221001,51.489759897061774,178389.00012210011,Kensington and Chelsea,Pubs,E09000020,11/27/2022
Kensington and Chelsea,,Tavern,,E09000020,97 Cromwell Road,South Kensington,London,Courtfield,E05009393,-0.18352554333433416,526087.0001221001,51.493706985527226,178814.00012210011,Kensington and Chelsea,Pubs,E09000020,11/27/2022
Kensington and Chelsea,,Coco Momo,,E09000020,25 Gloucester Road,South Kensington,London,Queen's Gate,E05009401,-0.1818836679708082,526190.0001221001,51.49767466520312,179258.00012210011,Kensington and Chelsea,Pubs,E09000020,11/27/2022
Kensington and Chelsea,,Gloucester Arms,,E09000020,34 Gloucester Road,South Kensington,London,Queen's Gate,E05009401,-0.1823929594113583,526152.0001221001,51.49863587430947,179364.00012210011,Kensington and Chelsea,Pubs,E09000020,11/27/2022
Kensington and Chelsea,,Stanhope Arms,,E09000020,97 Gloucester Road,South Kensington,London,Courtfield,E05009393,-0.18052810603809924,526295.0001221001,51.49372346666366,178821.00012210011,Kensington and Chelsea,Pubs,E09000020,11/27/2022
Kensington and Chelsea,,Steak & Co,,E09000020,152 Gloucester Road,South Kensington,London,Courtfield,E05009393,-0.18051274709808432,526299.0001221001,51.492661991416405,178703.00012210011,Kensington and Chelsea,Pubs,E09000020,11/27/2022
Kensington and Chelsea,,Hereford Arms,,E09000020,127 Gloucester Road,South Kensington,London,Courtfield,E05009393,-0.17978165271247548,526350.0001221001,51.49256970257017,178694.00012210011,Kensington and Chelsea,Pubs,E09000020,11/27/2022
Kensington and Chelsea,,Queens Arms,,E09000020,30 Queen's Gate Mews,South Kensington,London,Queen's Gate,E05009401,-0.17934060594806123,526362.0001221001,51.499299009560744,179443.00012210011,Kensington and Chelsea,Pubs,E09000020,11/27/2022
Kensington and Chelsea,,Chilled Eskimo,,E09000020,48 Southern Row,North Kensington,London,Golborne,E05009396,-0.20991419110167947,524172.0001221001,51.524375871726846,182179.00012210011,Kensington and Chelsea,Pubs,E09000020,11/27/2022
Kensington and Chelsea,,Eagle,,E09000020,250 Ladbroke Grove,North Kensington,London,Golborne,E05009396,-0.21126775026469707,524084.0001221001,51.52221111262638,181936.00012210011,Kensington and Chelsea,Pubs,E09000020,11/27/2022
Kensington and Chelsea,,Portobello House,,E09000020,225 Ladbroke Grove,North Kensington,London,St. Helen's,E05009404,-0.2098853459509913,524189.0001221001,51.51886243974758,181566.00012210011,Kensington and Chelsea,Pubs,E09000020,11/27/2022
Kensington and Chelsea,,Ariadnes Nectar,,E09000020,274 Latimer Road,North Kensington,London,St. Helen's,E05009404,-0.22300289751913976,523281.0001221001,51.518135600498084,181463.00012210011,Kensington and Chelsea,Pubs,E09000020,11/27/2022
Kensington and Chelsea,,Garden Bar & Grill,,E09000020,41 Bramley Road,North Kensington,London,Notting Dale,E05009399,-0.21642696709496367,523754.0001221001,51.51192921779343,180784.00012210011,Kensington and Chelsea,Pubs,E09000020,11/27/2022
Kensington and Chelsea,,Pig & Whistle,,E09000020,92 Bramley Road,North Kensington,London,Notting Dale,E05009399,-0.21586309508585033,523789.0001221001,51.51344953012516,180954.00012210011,Kensington and Chelsea,Pubs,E09000020,11/27/2022
Kensington and Chelsea,,Italian Job,,E09000020,45 All Saints Road,Notting Hill,London,Colville,E05009392,-0.20274507365019243,524687.0001221001,51.517880869336906,181469.00012210011,Kensington and Chelsea,Pubs,E09000020,11/27/2022
Kensington and Chelsea,,Distillery,,E09000020,186 Portobello Road,Notting Hill,,Colville,E05009392,-0.20361382907198625,524632.0001221001,51.51595158891671,181253.00012210011,Kensington and Chelsea,Pubs,E09000020,11/27/2022
Kensington and Chelsea,,UKAI,,E09000020,240 Portobello Road,Notting Hill,London,Colville,E05009392,-0.20483975895567633,524543.0001221001,51.517400322901814,181412.00012210011,Kensington and Chelsea,Pubs,E09000020,11/27/2022
Kensington and Chelsea,,Mau Mau,,E09000020,265 Portobello Road,Notting Hill,London,Colville,E05009392,-0.20518798551463033,524519.0001221001,51.51734269830732,181405.00012210011,Kensington and Chelsea,Pubs,E09000020,11/27/2022
Kensington and Chelsea,,Castle,,E09000020,225 Portobello Road,Notting Hill,London,Colville,E05009392,-0.20395117615231761,524609.0001221001,51.515803866632815,181236.00012210011,Kensington and Chelsea,Pubs,E09000020,11/27/2022
Kensington and Chelsea,,E & O,,E09000020,14 Blenheim Crescent,Notting Hill,London,Colville,E05009392,-0.20405387610342518,524603.0001221001,51.51539173949677,181190.00012210011,Kensington and Chelsea,Pubs,E09000020,11/27/2022
Kensington and Chelsea,,Elgin,,E09000020,96 Ladbroke Grove,Notting Hill,London,Colville,E05009392,-0.20745109917566257,524366.0001221001,51.515875401110854,181238.00012210011,Kensington and Chelsea,Pubs,E09000020,11/27/2022
Kensington and Chelsea,,Tabernacle,,E09000020,34-35 Powis Square,Notting Hill,,Colville,E05009392,-0.19997185282314398,524884.0001221001,51.51619253145033,181286.00012210011,Kensington and Chelsea,Pubs,E09000020,11/27/2022
Kensington and Chelsea,,Portobello Star,,E09000020,171 Portobello Road,Notting Hill,London,Colville,E05009392,-0.20250625706570022,524715.0001221001,51.51369524230641,181004.00012210011,Kensington and Chelsea,Pubs,E09000020,11/27/2022
Kensington and Chelsea,,Duke of Wellington,,E09000020,179 Portobello Road,Notting Hill,London,Colville,E05009392,-0.2034921483116324,524643.0001221001,51.51501440343126,181149.00012210011,Kensington and Chelsea,Pubs,E09000020,11/27/2022
Kensington and Chelsea,,Electric Diner,,E09000020,191-193 Portobello Road,Notting Hill,London,Colville,E05009392,-0.2034921483116324,524643.0001221001,51.51501440343126,181149.00012210011,Kensington and Chelsea,Pubs,E09000020,11/27/2022
Kensington and Chelsea,,Earl of Lonsdale,,E09000020,277-281 Westbourne Grove,Notting Hill,London,Colville,E05009392,-0.2018073467260969,524766.0001221001,51.51277618625187,180903.00012210011,Kensington and Chelsea,Pubs,E09000020,11/27/2022
Kensington and Chelsea,,Sun In Splendour,,E09000020,7 Portobello Road,Notting Hill,London,Pembridge,E05009400,-0.19628532330512924,525156.0001221001,51.510263143235456,180633.00012210011,Kensington and Chelsea,Pubs,E09000020,11/27/2022
Kensington and Chelsea,,Prince Albert,,E09000020,11 Pembridge Road,Notting Hill,London,Pembridge,E05009400,-0.1960894552033289,525173.0001221001,51.50901902844155,180495.00012210011,Kensington and Chelsea,Pubs,E09000020,11/27/2022
Kensington and Chelsea,,Ladbroke Arms,,E09000020,54 Ladbroke Road,Notting Hill,London,Pembridge,E05009400,-0.20112176671893991,524825.0001221001,51.50859269454743,180439.00012210011,Kensington and Chelsea,Pubs,E09000020,11/27/2022
Kensington and Chelsea,,Mitre,,E09000020,40 Holland Park Avenue,Notting Hill,London,Norland,E05009398,-0.20253998989062172,524730.0001221001,51.507346359118785,180298.00012210011,Kensington and Chelsea,Pubs,E09000020,11/27/2022
Kensington and Chelsea,,Stewart Arms,,E09000020,26 Norland Road,Notting Hill,London,Norland,E05009398,-0.21451334031225985,523905.0001221001,51.505208953749396,180040.00012210011,Kensington and Chelsea,Pubs,E09000020,11/27/2022
Kensington and Chelsea,,Castle,,E09000020,100 Holland Park Avenue,Notting Hill,London,Norland,E05009398,-0.20603948138754993,524490.0001221001,51.50631173410734,180177.00012210011,Kensington and Chelsea,Pubs,E09000020,11/27/2022
Kensington and Chelsea,,Crown & Sceptre,,E09000020,34 Holland Road,West Kensington,London,Holland,E05009397,-0.2053634276960676,524562.0001221001,51.49711003925253,179155.00012210011,Kensington and Chelsea,Pubs,E09000020,11/27/2022
Kensington and Chelsea,,Society Bar,,E09000020,"Olympia Hilton Hotel, 380 Kensington High Street",West Kensington,London,Holland,E05009397,-0.20621535320313175,524506.0001221001,51.495962913249464,179026.00012210011,Kensington and Chelsea,Pubs,E09000020,11/27/2022
Kensington and Chelsea,,Warwick Arms,,E09000020,160 Warwick Road,West Kensington,London,Abingdon,E05009388,-0.2014111687670162,524843.0001221001,51.494657211155605,178889.00012210011,Kensington and Chelsea,Pubs,E09000020,11/27/2022
Kensington and Chelsea,,Champion,,E09000020,1 Wellington Terrace,Bayswater,London,Pembridge,E05009400,-0.1909411128795566,525529.0001221001,51.509461343916094,180553.00012210011,Kensington and Chelsea,Pubs,E09000020,11/27/2022
Kensington and Chelsea,,Old Swan,,E09000020,206 Kensington Church Street,Kensington,London,Campden,E05009390,-0.19336609699448365,525364.0001221001,51.50827561192366,180417.00012210011,Kensington and Chelsea,Pubs,E09000020,11/27/2022
Kensington and Chelsea,,Prince of Wales,,E09000020,8 Kensington Church Street,Kensington,London,Campden,E05009390,-0.18924671234808077,525667.0001221001,51.50203353767337,179730.00012210011,Kensington and Chelsea,Pubs,E09000020,11/27/2022
Kensington and Chelsea,,Elephant & Castle,,E09000020,40 Holland Street,Kensington,London,Campden,E05009390,-0.19120883557540308,525529.0001221001,51.502702359011565,179801.00012210011,Kensington and Chelsea,Pubs,E09000020,11/27/2022
Kensington and Chelsea,,Mall Tavern,,E09000020,71-73 Palace Gardens Terrace,Kensington,London,Campden,E05009390,-0.19216778392557,525449.0001221001,51.507600619297406,180344.00012210011,Kensington and Chelsea,Pubs,E09000020,11/27/2022
Kensington and Chelsea,,Piano Bar & Restaurant,,E09000020,106 Kensington High Street,Kensington,London,Campden,E05009390,-0.1907638795399724,525564.0001221001,51.5012025721409,179635.00012210011,Kensington and Chelsea,Pubs,E09000020,11/27/2022
Kensington and Chelsea,,Builders Arms,,E09000020,1 Kensington Court Place,Kensington,London,Queen's Gate,E05009401,-0.1866676088909435,525853.0001221001,51.49948449242083,179451.00012210011,Kensington and Chelsea,Pubs,E09000020,11/27/2022
Kensington and Chelsea,,Greyhound,,E09000020,1 Kensington Square,Kensington,London,Queen's Gate,E05009401,-0.1877324561969755,525777.0001221001,51.50024741631086,179534.00012210011,Kensington and Chelsea,Pubs,E09000020,11/27/2022
Kensington and Chelsea,,Goat Tavern,,E09000020,3B Kensington High Street,Kensington,London,Queen's Gate,E05009401,-0.18670146410694197,525845.0001221001,51.501535537644855,179679.00012210011,Kensington and Chelsea,Pubs,E09000020,11/27/2022
Kensington and Chelsea,,Whole Foods Market,,E09000020,63-79 Kensington High Street,Kensington,,Queen's Gate,E05009401,-0.1894994292041926,525652.0001221001,51.50111110810358,179627.00012210011,Kensington and Chelsea,Pubs,E09000020,11/27/2022
Kensington and Chelsea,,Abingdon,,E09000020,54 Abingdon Road,Kensington,London,Abingdon,E05009388,-0.19455442624103447,525313.0001221001,51.496809207710406,179140.00012210011,Kensington and Chelsea,Pubs,E09000020,11/27/2022
Kensington and Chelsea,,Princess Victoria,,E09000020,25 Earls Court Road,Kensington,London,Abingdon,E05009388,-0.19647518735191055,525177.0001221001,51.49779207821722,179246.00012210011,Kensington and Chelsea,Pubs,E09000020,11/27/2022
Kensington and Chelsea,,Hansom Cab,,E09000020,86 Earls Court Road,Kensington,London,Abingdon,E05009388,-0.1955397604030507,525248.0001221001,51.49557427668003,179001.00012210011,Kensington and Chelsea,Pubs,E09000020,11/27/2022
Kensington and Chelsea,,Scarsdale Tavern,,E09000020,23a Edwardes Square,Kensington,London,Abingdon,E05009388,-0.19779531070536213,525087.0001221001,51.49720081655325,179178.00012210011,Kensington and Chelsea,Pubs,E09000020,11/27/2022
Kensington and Chelsea,,Devonshire Arms,,E09000020,37 Marloes Road,Kensington,London,Abingdon,E05009388,-0.1910922665214971,525554.0001221001,51.49654899832481,179117.00012210011,Kensington and Chelsea,Pubs,E09000020,11/27/2022
Kensington and Chelsea,,Britannia,,E09000020,1 Allen Street,Kensington,London,Abingdon,E05009388,-0.19300635977514355,525421.0001221001,51.49660549140287,179120.00012210011,Kensington and Chelsea,Pubs,E09000020,11/27/2022
Kensington and Chelsea,,Windsor Castle,,E09000020,114 Campden Hill Road,Kensington,London,Campden,E05009390,-0.1970145886929592,525117.0001221001,51.506029428331,180161.00012210011,Kensington and Chelsea,Pubs,E09000020,11/27/2022
Kensington and Chelsea,,Churchill Arms,,E09000020,119 Kensington Church Street,Kensington,London,Campden,E05009390,-0.19316622406782966,525384.0001221001,51.506042144598844,180169.00012210011,Kensington and Chelsea,Pubs,E09000020,11/27/2022
Kensington and Chelsea,,Hillgate,,E09000020,24 Hillgate Street,Kensington,London,Campden,E05009390,-0.19614590820457134,525173.0001221001,51.50758993113057,180336.00012210011,Kensington and Chelsea,Pubs,E09000020,11/27/2022
Kensington and Chelsea,,Uxbridge Arms,,E09000020,13 Uxbridge Street,Kensington,London,Campden,E05009390,-0.19699874507199688,525113.0001221001,51.50789083836388,180368.00012210011,Kensington and Chelsea,Pubs,E09000020,11/27/2022
Kensington and Chelsea,http://www.londonatelier.com/,London Atelier,217120729,E09000020,Studio 7,160 Barlby Road,,Dalgarno,E05009394,-0.21559404212988809,523781.5501098931,51.52308057934878,182025.3500976935,Kensington and Chelsea,Set and exhibition building,E09000020,11/27/2022
Kensington and Chelsea,http://www.adamdawedesign.co.uk,Adam Dawe Design Limited,217080087,E09000020,33 St Charles Square,,,St. Helen's,E05009404,-0.21263105597893686,523997.0001221001,51.51942593763725,181624.00012210011,Kensington and Chelsea,Set and exhibition building,E09000020,11/27/2022
Kensington and Chelsea,https://www.baysixty6.com/,Bay-Sixty-6,0,E09000020,,,,Golborne,E05009396,-0.20372182585151802,524614.3787231967,51.519662304312796,181665.41711429507,Kensington and Chelsea,Skate Parks,E09000020,11/27/2022
Kensington and Chelsea,,Meanwhile-Gardens,0,E09000020,,,,Golborne,E05009396,-0.20135145187472137,524771.8370971978,51.52221256258998,181953.02429199964,Kensington and Chelsea,Skate Parks,E09000020,11/27/2022
Kensington and Chelsea,http://www.chelseatheatre.org.uk/venue-hire/,Chelsea Theatre,217005389,E09000020,7 World's End Place,King's Road,,Chelsea Riverside,E05009391,-0.17963758951303876,526279.3880689696,51.481643623903196,177533.6522717058,Kensington and Chelsea,Theatre rehearsal studio,E09000020,11/27/2022
Kensington and Chelsea,http://www.chelseatheatre.org.uk/,Chelsea Theatre,217005389,E09000020,7 World's End Place, King's Rd, Chelsea,Stanley,E05009405,-0.1812371902860874,526166.9284303767,51.48215635297819,177587.89619424002,Kensington and Chelsea,Theatres,E09000020,11/27/2022
Kensington and Chelsea,http://www.operahollandpark.com/,Opera Holland Park Theatre,217038848,E09000020,Ilchester Place, Kensington,NA,Holland,E05009397,-0.20444934346071145,524503.7743574867,51.50115651634619,179660.556473338,Kensington and Chelsea,Theatres,E09000020,11/27/2022
Kensington and Chelsea,https://www.the-print-room.org/,Print Room at the Coronet,217059398,E09000020,103 Notting Hill Gate, Kensington,NA,Pembridge,E05009400,-0.20048507588142672,524757.4253890738,51.508996446797,180538.96557241038,Kensington and Chelsea,Theatres,E09000020,11/27/2022
Kensington and Chelsea,https://www.tabernaclew11.com/,The Tabernacle W11,217070132,E09000020,34-35 Powis Square,NA,NA,Colville,E05009392,-0.20314396319684555,524550.5432579648,51.51721062864502,181447.6948121494,Kensington and Chelsea,Theatres,E09000020,11/27/2022
Kensington and Chelsea,https://royalcourttheatre.com/,Royal Court Theatre,217078033,E09000020,Sloane Square, Chelsea,NA,Royal Hospital,E05009403,-0.15799890356956667,527749.3913468373,51.49312267230601,178847.47272615734,Kensington and Chelsea,Theatres,E09000020,11/27/2022
Kensington and Chelsea,https://www.cadoganhall.com/,Cadogan Hall,217078765,E09000020,5 Sloane Terrace, Belgravia,NA,Royal Hospital,E05009403,-0.15910381480434369,527670.4230143917,51.49394057575294,178936.47768371872,Kensington and Chelsea,Theatres,E09000020,11/27/2022
Kensington and Chelsea,http://www.thedraytonarmstheatre.co.uk/index.php,Drayton Arms Theatre,217101579,E09000020,153 Old Brompton Road,NA,NA,Redcliffe,E05009402,-0.18515721072684257,525870.0001064772,51.49115439458023,178581.54289749102,Kensington and Chelsea,Theatres,E09000020,11/27/2022
Kensington and Chelsea,https://www.gatetheatre.co.uk/,Gate Theatre,217105236,E09000020,11 Pembridge Rd, Notting Hill,NA,Pembridge,E05009400,-0.199262214493141,524839.4144737088,51.510038369549356,180656.89518847998,Kensington and Chelsea,Theatres,E09000020,11/27/2022
Kensington and Chelsea,http://www.finboroughtheatre.co.uk/,Finborough Theatre,217112560,E09000020,118 Finborough Road, Kensington,NA,Redcliffe,E05009402,-0.1911104669773156,525469.1430335672,51.48666972967394,178072.7069762465,Kensington and Chelsea,Theatres,E09000020,11/27/2022
City of Westminster,NA,Britten Opera Theatre,100023000000,E09000033,Royal College of Music, Prince Consort Road,NA,Knightsbridge and Belgravia,E05000637,-0.17846505681994412,526310.5714723094,51.49979219073049,179553.43755405478,Kensington and Chelsea,Theatres,E09000020,11/27/2022
