borough_name,website,site_name,os_addressbase_uprn,borough_code,address1,address2,address3,ward_2018_name,ward_2018_code,longitude,easting,latitude,northing,BOROUGH,Cultural Venue Type,gss_code,runtime
Southwark,https://www.mentalhealth.org.uk/,Mental Health Foundation,10000813676,E09000028,Colechurch House ,1 London Bridge Walk,NA,Borough & Bankside,E05011095,-0.106724539987432,531263.820100832,51.508440930815794,180641.3741012002,Lambeth,Archives,E09000022,11/27/2022
Southwark,https://www.salvationarmy.org.uk/international-heritage-centre,Salvation Army International Heritage Centre,10013524443,E09000028,William Booth College ,Champion Park ,Denmark Hill,Champion Hill,E05011097,-0.08927536304139302,532593.1037642411,51.46754133427948,176125.6723745594,Lambeth,Archives,E09000022,11/27/2022
Lambeth,https://www.prospect.org.uk/,Prospect,10023851808,E09000022,Prospect House ,75-79 York Street,,Bishop's,E05000416,-0.11632906851380032,530615.4014376351,51.50217833214983,179927.89773102367,Lambeth,Archives,E09000022,11/27/2022
Lambeth,http://www.ronaldgrantarchive.com/,"Cinema Museum, Ronald Grant Archive",10023852579,E09000022,The Master's House ,The Old Lambeth Workhouse ,2 Dugard Way Off Renfrew Road,Prince's,E05000427,-0.1051689132149127,531418.2515626691,51.49228045223704,178847.45211055945,Lambeth,Archives,E09000022,11/27/2022
Lambeth,http://www.topolskicentury.org.uk/,Topolski Century,10091117071,E09000022,150-152 Hungerford Bridge, Concert Hall Approach ,Waterloo,Bishop's,E05000416,-0.11576900213455753,530646.6198819105,51.50484917658799,180225.84224874998,Lambeth,Archives,E09000022,11/27/2022
Lambeth,https://blackculturalarchives.org/,Black Cultural Archives,10091118537,E09000022,1 Windrush Square ,Brixton,,Coldharbour,E05000420,-0.11457231558598271,530856.6424503254,51.46051637848736,175299.11384671455,Lambeth,Archives,E09000022,11/27/2022
Lambeth,https://www.lambeth.gov.uk/places/lambeth-archives,Lambeth Archives,100022000000,E09000022,Minet Library ,52 Knatchbull Road,,Vassall,E05000436,-0.10539023539149628,531463.3086759564,51.47129501124588,176513.9264663296,Lambeth,Archives,E09000022,11/27/2022
Lambeth,http://www.europeanmovement.co.uk/,European Movement,100023000000,E09000022,Southbank House, Black Prince Road,,Prince's,E05000427,-0.1198652096701199,530398.4741101884,51.49222021263968,178814.44615961204,Lambeth,Archives,E09000022,11/27/2022
Lambeth,https://www.kcl.ac.uk/library/visiting/stthomas.aspx,King's College London: St Thomas' House Library,100023000000,E09000022,St Thomas' Hospital ,Lambeth Palace Road,,Bishop's,E05000416,-0.11838448317934318,530480.4658322174,51.499489579934334,179625.29313102516,Lambeth,Archives,E09000022,11/27/2022
Lambeth,https://www.marine-society.org/,Marine Society,100023000000,E09000022,202 Lambeth Road,,,Bishop's,E05000416,-0.11640035737263116,530629.4279659772,51.49554588840226,179190.37738039816,Lambeth,Archives,E09000022,11/27/2022
Lambeth,https://www.sea-cadets.org/,Sea Cadet Association,100023000000,E09000022,202 Lambeth Road,,,Bishop's,E05000416,-0.11640035737263116,530629.4279659772,51.49554588840226,179190.37738039816,Lambeth,Archives,E09000022,11/27/2022
Lambeth,http://www.rambert.org.uk/explore/rambert-archive/,Rambert Dance Company Archives,100023000000,E09000022,99 Upper Ground,,,Bishop's,E05000416,-0.11352326943298152,530798.6389797542,51.5061740428866,180377.15601985605,Lambeth,Archives,E09000022,11/27/2022
Lambeth,http://www.countryside-alliance.org/,Countryside Alliance,100023000000,E09000022,The Old Town ,367 Kennington Road,,Prince's,E05000427,-0.11112809627267999,531020.3460323046,51.486819080378886,178229.5704964635,Lambeth,Archives,E09000022,11/27/2022
Lambeth,http://www.doylycarte.org.uk/,D'Oyly Carte Opera Company,100023000000,E09000022,N302 North Block Vox Studios,,,Prince's,E05000427,-0.11087225991589794,531033.3402620974,51.48847861282862,178414.53345106245,Lambeth,Archives,E09000022,11/27/2022
Lambeth,http://www.sullivansociety.org.uk/,Sir Arthur Sullivan Society,100023000000,E09000022,9 Killieser Avenue,,,Streatham Hill,E05000430,-0.12812830357582133,529969.7342941337,51.44132765097172,173141.57866209664,Lambeth,Archives,E09000022,11/27/2022
Lambeth,http://www.scrss.org.uk/,Society for Cooperation in Russian and Soviet Studies,100023000000,E09000022,320 Brixton Road,,,Ferndale,E05000421,-0.11290302876996165,530947.4352571223,51.469284904018586,176276.97361041245,Lambeth,Archives,E09000022,11/27/2022
Lambeth,https://www.globaljustice.org.uk/,World Development Movement,100023000000,E09000022,25 Beehive Place,,,Coldharbour,E05000420,-0.11397275385476398,530888.4670184652,51.46394243027067,175681.09162122273,Lambeth,Archives,E09000022,11/27/2022
Lambeth,http://www.ctsbooks.org/,Catholic Truth Society,100024000000,E09000022,40-46 Harleyford Road,,,Oval,E05000426,-0.12055249297556045,530370.4899832992,51.485315836586985,178045.59944884945,Lambeth,Archives,E09000022,11/27/2022
Lambeth,http://www.typearchive.org/,Type Museum,100024000000,E09000022,100 Hackford Road,,,Vassall,E05000436,-0.11587070216389726,530729.4659051017,51.47344230717261,176733.87790523987,Lambeth,Archives,E09000022,11/27/2022
Lambeth,https://www.worldsocialism.org/spgb/,Socialist Party of Great Britain,200000000000,E09000022,52 Clapham High Street,,,Clapham Town,E05000419,-0.1327336834472956,529585.7631184054,51.46389204373956,175642.09401886573,Lambeth,Archives,E09000022,11/27/2022
Lambeth,https://www.musiciansunion.org.uk/,Musicians Union,200000000000,E09000022,National Office ,60/62 Clapham Road,,Oval,E05000426,-0.11515442761616188,530761.4275639273,51.47964474340337,177424.73300535296,Lambeth,Archives,E09000022,11/27/2022
Lambeth,https://www.southbankcentre.co.uk/about/what-we-do/archives-collections/hayward-gallery-archive,Hayward Gallery Library and Archives,200000000000,E09000022,Belvedere Road,,,Bishop's,E05000416,-0.11544481722201892,530665.4382797958,51.50613298936228,180369.1556258325,Lambeth,Archives,E09000022,11/27/2022
Lambeth,https://www.nationaltheatre.org.uk/about-the-national-theatre/archive,National Theatre Archive,200000000000,E09000022,NT Studio 83-101, The Cut,,Bishop's,E05000416,-0.10885802977387268,531133.328303138,51.502339941599985,179959.23829348554,Lambeth,Archives,E09000022,11/27/2022
Southwark,https://www.iwm.org.uk/collections/documents,Imperial War Museum Department of Documents,200003000000,E09000028,Lambeth Road,,,St. George's,E05011114,-0.10832779228920918,531188.3066935745,51.49600948320821,179256.37145559705,Lambeth,Archives,E09000022,11/27/2022
Southwark,https://www.iwm.org.uk/collections/sound,Imperial War Museum Sound Archive,200003000000,E09000028,Lambeth Road,,,St. George's,E05011114,-0.10832779228920918,531188.3066935745,51.49600948320821,179256.37145559705,Lambeth,Archives,E09000022,11/27/2022
Lambeth,www.ascstudios.co.uk,Stockwell Road,10091846274,E09000022,3rd Floor,246 Stockwell Road,,Ferndale,E05000421,-0.1146473546903638,530839.477273755,51.46469069280385,175763.07661710656,Lambeth,Artists workspaces,E09000022,11/27/2022
Lambeth,http://www.warriorstudios.org/,,200000459971,E09000022,241 Coldharbour Lane,,,Coldharbour,E05000420,-0.10254158812044459,531679.2725498289,51.46498994472037,175818.05905388418,Lambeth,Artists workspaces,E09000022,11/27/2022
Lambeth,www.artcoreint.net,Arch 258,10023854148,E09000022,Arch 258 Hardess St,,,Herne Hill,E05000423,-0.1014576932614554,531754.2541369416,51.46508929942816,175831.0559766806,Lambeth,Artists workspaces,E09000022,11/27/2022
Lambeth,http://www.clockworkstudios.co.uk/,STUDIO 27,10093379709,E09000022,Southwell Road,,,Herne Hill,E05000423,-0.09868434292908623,531943.2056071535,51.46634830193853,175976.0271103441,Lambeth,Artists workspaces,E09000022,11/27/2022
Lambeth,http://www.coldharbourlondon.com/,coldharbour studios,100000000000,E09000022,26 - 34 Southwell Road,,,Herne Hill,E05000423,-0.09868434292908623,531943.2056071535,51.46634830193853,175976.0271103441,Lambeth,Artists workspaces,E09000022,11/27/2022
Lambeth,http://www.studiostrike.com/contact/,Bread & Roses,10025175738,E09000022,68 Clapham Manor Street,,,Clapham Town,E05000419,-0.1376233865344641,529235.5208331249,51.46766400727399,176052.8039978054,Lambeth,Artists workspaces,E09000022,11/27/2022
Lambeth,http://block336.com/,,10091845237,E09000022,336 Brixton Road,,,Ferndale,E05000421,-0.11322347338270798,530928.4446762993,51.46814798541814,176149.99981927092,Lambeth,Artists workspaces,E09000022,11/27/2022
Lambeth,www.acme.org.uk,Glassyard,10090201945,E09000022,276 Oak Square,Stockwell,,Larkhall,E05000425,-0.12058116199260899,530415.5577640429,51.468841704971965,176213.98397084523,Lambeth,Artists workspaces,E09000022,11/27/2022
Lambeth,www.gasworks.org.uk,,100000000000,E09000022,155 Vauxhall Street,,,Oval,E05000426,-0.11543230965334147,530726.4127958658,51.485134747081844,178034.60584559088,Lambeth,Artists workspaces,E09000022,11/27/2022
Southwark,http://www.pullensyards.co.uk/,,10093339549,E09000028,Clements Yard,,,Newington,E05011105,-0.10163272287099803,531671.1993723635,51.48966933102897,178563.5117088036,Lambeth,Artists workspaces,E09000022,11/27/2022
Southwark,http://www.pullensyards.co.uk/,,200003494861,E09000028,Peacock Yard,,,Newington,E05011105,-0.10038356154740745,531755.1793309468,51.49061132598623,178670.491178261,Lambeth,Artists workspaces,E09000022,11/27/2022
Lambeth,www.makespacestudios.com,Studio 180,200000469749,E09000022,180 Lambeth Road,,,Bishop's,E05000416,-0.11587465267157684,530665.5002652481,51.49568915181546,179207.24459491065,Lambeth,Artists workspaces,E09000022,11/27/2022
Lambeth,www.makespacestudios.com,Makespace studios,10001114119,E09000022,Newnham Terrace,,,Bishop's,E05000416,-0.1132617822696378,530838.3865209364,51.49863390807638,179539.31359791802,Lambeth,Artists workspaces,E09000022,11/27/2022
Lambeth,www.acme.org.uk,Carlew House,100000000000,E09000022,East Place,West Norwood,,Gipsy Hill,E05000422,-0.10080981631502804,531899.275071057,51.43040236186219,171975.77310778806,Lambeth,Artists workspaces,E09000022,11/27/2022
Lambeth,www.bainbridgeprint.com,,200000470223,E09000022,"1 Sydenham Place, Off Lansdowne Hill",,,Knight's Hill,E05000424,-0.10467605143130287,531619.3371533058,51.43431390625766,172403.69472872274,Lambeth,Artists workspaces,E09000022,11/27/2022
Lambeth,www.ascstudios.co.uk,Streatham Hill,10000445647,E09000022,"47 Streatham Hill, ",Streatham ,,Streatham Hill,E05000430,-0.12496501682323069,530191.680682967,51.44056664042074,173062.5907546645,Lambeth,Artists workspaces,E09000022,11/27/2022
Lambeth,-,Ongean Studios,10090196587,E09000022,1 Park Mews,,,Thurlow Park,E05000434,-0.10035900067094537,531875.2501370908,51.44959481144274,174110.37346322532,Lambeth,Artists workspaces,E09000022,11/27/2022
Lambeth,www.studiovoltaire.org,,100000000000,E09000022,1a Nelsons Row,,,Clapham Town,E05000419,-0.1342227612333063,529487.7941992505,51.46197332973245,175426.1381953986,Lambeth,Artists workspaces,E09000022,11/27/2022
Lambeth,www.ascstudios.co.uk,Brixton Village,10090196125,E09000022,1st Floors,Brixton Village Market,,Coldharbour,E05000420,-0.111784377236087,531044.4319837763,51.4625492819401,175530.11856107443,Lambeth,Artists workspaces,E09000022,11/27/2022
Lambeth,www.artcoreint.net,Bureau Of Silly Ideas,100023573059,E09000022,Arches 17 & 555 Valentia Place,,,Coldharbour,E05000420,-0.11144161590449995,531067.4257667075,51.462831529106005,175562.11233983125,Lambeth,Artists workspaces,E09000022,11/27/2022
Lambeth,,Streatham Space Project ,10093376788,E09000022,Sternhold Ave,,,Streatham Hill,E05000430,-0.12765539995908917,530009.8200507403,51.438784937894916,172859.7236361663,Lambeth,Arts centres,E09000022,11/27/2022
Lambeth,,Odeon Streatham,200000481977,E09000022,,47-49 High Road,,Streatham Wells,E05000432,-0.12645360825449703,530225.0001221001,51.43157126981428,172005.00012210011,Lambeth,Cinemas,E09000022,11/27/2022
Lambeth,,West Norwood Library And Picturehouse,010000446790,E09000022,1-7 Norwood High St,West Norwood,,Gipsy Hill,E05000422,-0.10171739652350188,531941.0001221001,51.432684146810786,172173.00012210011,Lambeth,Cinemas,E09000022,11/27/2022
Lambeth,,Ritzy Picturehouse,100023570920,E09000022,,Brixton Oval,Coldharbour Lane,Coldharbour,E05000420,-0.1130351271824491,531074.0001221001,51.46075630482703,175274.00012210011,Lambeth,Cinemas,E09000022,11/27/2022
Lambeth,,Clapham Picturehouse,100023362688,E09000022,,76 Venn Street,,Clapham Town,E05000419,-0.1366526582039381,529430.0001221001,51.4620244771044,175373.00012210011,Lambeth,Cinemas,E09000022,11/27/2022
Lambeth,https://www.whirledcinema.com/,Whirled Cinema,010023854149,E09000022,259-260 Hardess Street,Loughborough Junction,,Herne Hill,E05000423,-0.09987577028647095,531977.0001221001,51.46457289476914,175722.00012210011,Lambeth,Cinemas,E09000022,11/27/2022
Lambeth,,BFI IMAX,200000488784,E09000022,1 Charlie Chaplin Walk,Lambeth,,Bishop's,E05000416,-0.11204336337040123,531018.0001221001,51.504305459092954,180118.00012210011,Lambeth,Cinemas,E09000022,11/27/2022
Lambeth,,BFI Southbank,200000480097,E09000022,,Belvedere Road,Southbank,Bishop's,E05000416,-0.11435506088975109,530851.4901122972,51.506434115012595,180350.55010989308,Lambeth,Cinemas,E09000022,11/27/2022
Lambeth,http://spacestationsixtyfive.com/#,Space Station 65,10000445110,E09000022,373 Kennington Road,NA,NA,Prince's,E05000427,-0.10918349357193413,531269.0001221001,51.4860113409195,178089.00012210011,Lambeth,Commercial galleries,E09000022,11/27/2022
Lambeth,http://amstelart.com/#,Amstel Art Gallery,10091846195,E09000022,7 St George Wharf,NA,NA,Oval,E05000426,-0.12496197677410778,530177.0001221001,51.484843750016246,177931.00012210011,Lambeth,Commercial galleries,E09000022,11/27/2022
Lambeth,http://www.newportstreetgallery.com/#,Newport Street,10093376049,E09000022,3 Newport Street,NA,NA,Prince's,E05000427,-0.11539545045936717,530818.0001221001,51.49291799249341,178845.8300780952,Lambeth,Commercial galleries,E09000022,11/27/2022
Lambeth,http://www.daniellearnaud.com/#,Danielle Arnaud,100021856991,E09000022,123 Kennington Road,NA,NA,Prince's,E05000427,-0.108869726761932,531267.0001221001,51.49428940348491,179010.00012210011,Lambeth,Commercial galleries,E09000022,11/27/2022
Lambeth,http://www.carolinewiseman.com/#,Caroline Wiseman,100021862472,E09000022,26 Lansdowne Gardens,NA,NA,Stockwell,E05000429,-0.12483242531893395,530211.0001221001,51.47606391091944,176955.00012210011,Lambeth,Commercial galleries,E09000022,11/27/2022
Lambeth,https://www.morleycollege.ac.uk/facilities/the-gallery#,Morley College Gallery,100023225348,E09000022,61 Westminster Bridge Road,NA,NA,Bishop's,E05000416,-0.10836772791440058,531293.0001221001,51.49736611467718,179353.00012210011,Lambeth,Commercial galleries,E09000022,11/27/2022
Lambeth,http://www.gasworks.org.uk/#,Gasworks Gallery,100023230142,E09000022,155 Vauxhall Street,NA,NA,Oval,E05000426,-0.11385059058357917,530949.0001221001,51.484620554801126,177926.00012210011,Lambeth,Commercial galleries,E09000022,11/27/2022
Lambeth,http://www.photofusion.org/photography-exhibitions/#,Photofusion Gallery,100023388443,E09000022,17A Electric Ln,Brixton,NA,Coldharbour,E05000420,-0.11233367988207232,531121.0001221001,51.46135657966503,175342.00012210011,Lambeth,Commercial galleries,E09000022,11/27/2022
Lambeth,http://www.brixtonartgallery.co.uk/#,Brixton Art Gallery,100023388518,E09000022,35 Brixton Station Road,NA,NA,Coldharbour,E05000420,-0.11151899894153522,531172.0001221001,51.46330407422986,175560.00012210011,Lambeth,Commercial galleries,E09000022,11/27/2022
Lambeth,http://www.brocketgallery.com/#,Brocket Gallery,200000468294,E09000022,16 Windmill Row,NA,NA,Oval,E05000426,-0.11022907826731713,531195.0001221001,51.48650486054455,178142.00012210011,Lambeth,Commercial galleries,E09000022,11/27/2022
Lambeth,http://www.orsomajor.com/#,Orso Major Gallery,200000471760,E09000022,19 Lower Marsh,NA,NA,Bishop's,E05000416,-0.11142521396826433,531073.0001221001,51.500086500455005,179650.00012210011,Lambeth,Commercial galleries,E09000022,11/27/2022
Lambeth,http://www.manandeve.co.uk/#,Man & Eve,200000471832,E09000022,119-120 Lower Marsh,NA,NA,Bishop's,E05000416,-0.11158946963980977,531061.0001221001,51.500295998715146,179673.00012210011,Lambeth,Commercial galleries,E09000022,11/27/2022
Lambeth,http://www.claphamartgallery.com/#,Clapham Art Gallery,200000520874,E09000022,Unit 02,40-48 Bromell’s Road,NA,Clapham Town,E05000419,-0.1367202065292153,529425.0001221001,51.46213347432452,175385.00012210011,Lambeth,Commercial galleries,E09000022,11/27/2022
Lambeth,https://www.morleycollege.ac.uk/morley-matters/stockwell-centre,Stockwell Centre,200000491228,E09000022,1 Studley Road,Lambeth,NA,Stockwell,E05000429,-0.12223662477789768,530403.0001221001,51.47193925658921,176501.00012210011,Lambeth,Community centres,E09000022,11/27/2022
Lambeth,wheatsheafhall.org.uk,Wheatsheaf Hall,100023573213,E09000022,Wheatsheaf Lane,Lambeth,NA,Oval,E05000426,-0.12371909988367277,530276.0001221001,51.48038102213688,177437.00012210011,Lambeth,Community centres,E09000022,11/27/2022
Lambeth,https://notredametra.my-free.website/about-us,Notre Dame Community Hall,100023677209,E09000022,1 Worsopp Drive,Lambeth,NA,Clapham Common,E05000418,-0.13708586038411236,529409.0001221001,51.45881164378562,175015.00012210011,Lambeth,Community centres,E09000022,11/27/2022
Lambeth,https://www.facebook.com/heathbrook.hall.9,Heath Road Community Hall,200000466063,E09000022,117 Heath Road,Lambeth,NA,Clapham Town,E05000419,-0.1453329487509806,528810.0001221001,51.468097919016444,176033.00012210011,Lambeth,Community centres,E09000022,11/27/2022
Lambeth,,Jubilee Community Halls,200000484897,E09000022,Tulse Hill,Lambeth,NA,Tulse Hill,E05000435,-0.11439105962500273,531013.0001221001,51.44916730801405,173983.00012210011,Lambeth,Community centres,E09000022,11/27/2022
Lambeth,https://www.facebook.com/pages/Chandler-Community-Hall/700659773316783,Chandler Hall,200000489602,E09000022,15 Lambeth Walk,Lambeth,NA,Bishop's,E05000416,-0.11114048048569346,531108.0001221001,51.494775686350344,179060.00012210011,Lambeth,Community centres,E09000022,11/27/2022
Lambeth,https://twitter.com/stmatthewstra?lang=en,St Matthew's Tenants Hall,10008785856,E09000022,10 St Matthew'S Road,Lambeth,NA,Tulse Hill,E05000435,-0.11482757251220088,530960.0001221001,51.457088752943086,174863.00012210011,Lambeth,Community centres,E09000022,11/27/2022
Lambeth,https://sites.google.com/site/oaklandscommunityassociagbbo00/hawkesworth-hall,Hawksworth Hall,10090197025,E09000022,Poynders Road,Lambeth,NA,Clapham Common,E05000418,-0.14013274941879988,529218.0001221001,51.45150323656224,174197.00012210011,Lambeth,Community centres,E09000022,11/27/2022
Lambeth,,Myatts Field South Community Hall,10090203232,E09000022,Urlwin Walk,Lambeth,NA,Vassall,E05000436,-0.10642973642404648,531502.3201293945,51.47135331640525,176464.12011719495,Lambeth,Community centres,E09000022,11/27/2022
Lambeth,,Vernon Hall,10090203233,E09000022,Vauxhall Street,Lambeth,NA,Prince's,E05000427,-0.11595010233079307,530797.6500854939,51.486577237078826,178139.8101195991,Lambeth,Community centres,E09000022,11/27/2022
Lambeth,https://rentonclose.org/hire-the-centre/,Renton Close Community Centre,10090203264,E09000022,Brixton Hill,Lambeth,NA,Brixton Hill,E05000417,-0.12081162204854115,530561.1701049954,51.45118688151275,174196.09008789808,Lambeth,Community centres,E09000022,11/27/2022
Lambeth,https://southwyckhouse.wordpress.com/community-hall/,Southwyck House Community Hall,10090203265,E09000022,Moorland Road,Lambeth,NA,Coldharbour,E05000420,-0.10552786622733226,531592.120117195,51.46190817834878,175415.54010009766,Lambeth,Community centres,E09000022,11/27/2022
Lambeth,https://edmundsbury.org.uk/edmundsbury-community-hall/,Edmundsbury Community Hall,10090203277,E09000022,171 Ferndale Road,Lambeth,NA,Ferndale,E05000421,-0.11743482933919323,530766.0900878981,51.46156740391499,175356.32012939453,Lambeth,Community centres,E09000022,11/27/2022
Lambeth,,Drew House Meeting Room,10090203572,E09000022,Leigham Avenue,Lambeth,NA,Streatham Wells,E05000432,-0.12332390127632768,530438.0001221001,51.433158044069465,172187.00012210011,Lambeth,Community centres,E09000022,11/27/2022
Lambeth,https://www.facebook.com/Holland-Town-Residents-Association-282329735288935/,Holland Town Community Hall,10091117047,E09000022,11 Vassall Road,Lambeth,NA,Vassall,E05000436,-0.10982488766689938,531251.620117195,51.47655651697633,177036.57012939453,Lambeth,Community centres,E09000022,11/27/2022
Lambeth,,St Martin's Community Centre,200000466451,E09000022,Abbots Park,Lambeth,NA,Tulse Hill,E05000435,-0.1116965078323108,531220.0001221001,51.44226175308407,173220.00012210011,Lambeth,Community centres,E09000022,11/27/2022
Lambeth,https://www.metropolitan.org.uk,Ashmole Estate Tenants' Hall,100023383267,E09000022,2 Meadow Road,Lambeth,NA,Oval,E05000426,-0.11599105434082073,530807.0001221001,51.48231662873161,177666.00012210011,Lambeth,Community centres,E09000022,11/27/2022
Lambeth,http://www.thetrust.org.uk/,Stockwell Park Community Centre,200000490474,E09000022,21 Aytoun Place,Lambeth,NA,Ferndale,E05000421,-0.11414409995917532,530974.0001221001,51.46877849780066,176164.00012210011,Lambeth,Community centres,E09000022,11/27/2022
Lambeth,http://www.roupellpark.co.uk/,Roupell Park RMC Community Office,10008786573,E09000022,Brockham Drive,Lambeth,NA,Brixton Hill,E05000417,-0.11917371834601846,530685.0001221001,51.44767026013153,173808.00012210011,Lambeth,Community centres,E09000022,11/27/2022
Lambeth,,Springfield Community Health Centre,10008789148,E09000022,110 Union Road,Lambeth,NA,Larkhall,E05000425,-0.13142904795658902,529770.0001221001,51.47006257168161,176276.00012210011,Lambeth,Community centres,E09000022,11/27/2022
Lambeth,,"Elmworth Grove Community Hall, Elmworth Grove Community Hall",10023850989,E09000022,Elmworth Grove,Lambeth,NA,Thurlow Park,E05000434,-0.09215037309720149,532595.0001221001,51.43645005007829,172609.00012210011,Lambeth,Community centres,E09000022,11/27/2022
Lambeth,,Tulse Hill Youth and Play Project,10090196121,E09000022,Tulse Hill,Lambeth,NA,Tulse Hill,E05000435,-0.11446106986791714,531007.0001221001,51.44956415569588,174027.00012210011,Lambeth,Community centres,E09000022,11/27/2022
Lambeth,,Kennington Park Centre,10091119527,E09000022,40 St Agnes Place,Lambeth,NA,Oval,E05000426,-0.10637426538967683,531476.8400878981,51.48155201807091,177598.2100829929,Lambeth,Community centres,E09000022,11/27/2022
Lambeth,,The Old Laundry,100021893475,E09000022,6 Stockwell Gardens,London,NA,Stockwell,E05000429,-0.1195989156349705,530585.0001221001,51.47234665879808,176551.00012210011,Lambeth,Community centres,E09000022,11/27/2022
Lambeth,https://www.peabody.org.uk/neighbourhoods/community-centres,Peabody Hill Community Hall,200000463114,E09000022,Peabody Hill,Lambeth,NA,Thurlow Park,E05000434,-0.0997552376524662,532051.0001221001,51.44182592366951,173193.00012210011,Lambeth,Community centres,E09000022,11/27/2022
Lambeth,,Rosendale Centre,10091120998,E09000022,Rosendale Road,Lambeth,NA,Thurlow Park,E05000434,-0.09882651457076044,532104.8300780952,51.44553434112961,173607.01007079333,Lambeth,Community centres,E09000022,11/27/2022
Lambeth,https://www.salvationarmy.org.uk/west-norwood,The Salvation Army,100023265855,E09000022,246 Norwood Road,Lambeth,NA,Thurlow Park,E05000434,-0.1044676233976854,531737.0001221001,51.43715356261538,172665.00012210011,Lambeth,Community centres,E09000022,11/27/2022
Lambeth,https://www.3va.org.uk/sites/default/files/AmicusHorizon%20Free%20Community%20Space%20Poster.pdf,Lansdowne Green Community Centre,200000485937,E09000022,283-291 Wandsworth Road,Lambeth,NA,Stockwell,E05000429,-0.12758043874828465,530017.0001221001,51.47718706669044,177075.00012210011,Lambeth,Community centres,E09000022,11/27/2022
Lambeth,http://www.connectanddo.org/,Connect & Do,10008789005,E09000022,105-109 Railton Road,Lambeth,NA,Coldharbour,E05000420,-0.10644850204889685,531541.0001221001,51.45744834641234,174918.00012210011,Lambeth,Community centres,E09000022,11/27/2022
Lambeth,https://www.bolneymeadow.com/,Bolney Meadow Community Centre,10090197815,E09000022,31 Bolney Street,Lambeth,NA,Stockwell,E05000429,-0.12006680200953662,530534.0001221001,51.47882957352495,177271.00012210011,Lambeth,Community centres,E09000022,11/27/2022
Lambeth,www.regentermyattsfieldnorth.com/community,Myatts Field North Centre,10091120500,E09000022,24 Crawshay Road,Lambeth,NA,Vassall,E05000436,-0.10797731147539555,531387.6500854939,51.47386063928378,176740.13012699783,Lambeth,Community centres,E09000022,11/27/2022
Lambeth,http://yellowqube.org/,Yellow Qube,10093377637,E09000022,63 Christchurch Road,Lambeth,NA,Tulse Hill,E05000435,-0.10923072074116597,531396.6901244968,51.440396461146236,173017.0200805962,Lambeth,Community centres,E09000022,11/27/2022
Lambeth,http://vgcc.org.uk/,Vauxhall Gardens Community Centre,100023230451,E09000022,5 Glasshouse Walk,Lambeth,NA,Prince's,E05000427,-0.12049327731175971,530477.0001221001,51.488423604445586,178337.00012210011,Lambeth,Community centres,E09000022,11/27/2022
Lambeth,,St John The Divine Community Centre,200000463930,E09000022,Frederick Crescent,Lambeth,NA,Vassall,E05000436,-0.10342316304975165,531695.0001221001,51.476942651612404,177091.00012210011,Lambeth,Community centres,E09000022,11/27/2022
Lambeth,http://www.gipsyhill.org.uk/church-hall/,Goodliffe Hall,200000466564,E09000022,Highland Road,Lambeth,NA,Gipsy Hill,E05000422,-0.0825037173128159,533310.0001221001,51.42112018517492,170922.00012210011,Lambeth,Community centres,E09000022,11/27/2022
Lambeth,,Archbishop Davidson Institute,200000469752,E09000022,218 Lambeth Road,Lambeth,NA,Bishop's,E05000416,-0.11606921848802322,530766.0001221001,51.49474705781707,179048.00012210011,Lambeth,Community centres,E09000022,11/27/2022
Lambeth,,Hammerton Memorial Hall,200000471128,E09000022,Lingham Street,Lambeth,NA,Larkhall,E05000425,-0.11981805133364094,530584.0001221001,51.4673677001876,175997.00012210011,Lambeth,Community centres,E09000022,11/27/2022
Lambeth,https://www.watmos.org.uk/thorlands-tmo,The Harry Caddick Community Centre,200000483080,E09000022,63 Lilford Road,Lambeth,NA,Herne Hill,E05000423,-0.09920334503743655,532008.0001221001,51.470012152142516,176328.00012210011,Lambeth,Community centres,E09000022,11/27/2022
Lambeth,http://www.brixtoncommunitybase.org/,Brixton St Vincents Community Centre,200000483133,E09000022,Talma Road,Lambeth,NA,Coldharbour,E05000420,-0.10953402010166624,531324.0001221001,51.45837952885175,175016.00012210011,Lambeth,Community centres,E09000022,11/27/2022
Lambeth,,PEDLARS ACRE COMMUNITY HALL,200000476675,E09000022,1 Opal Street, North Lambeth,NA,Stockwell,E05000429,-0.11972416212896464,530567.0001221001,51.4756043612619,176913.00012210011,Lambeth,Community centres,E09000022,11/27/2022
Lambeth,,LOUGHBOROUGH ESTATE,10008787179,E09000022,105 Angell Road, London,NA,Coldharbour,E05000420,-0.10401734303895863,531685.0001221001,51.466087933015906,175883.00012210011,Lambeth,Community centres,E09000022,11/27/2022
Lambeth,,FENWICK ESTATE,100023389658,E09000022,128 Willington Road, London,NA,Larkhall,E05000425,-0.12469936527364735,530257.0001221001,51.46315592505226,175520.00012210011,Lambeth,Community centres,E09000022,11/27/2022
Lambeth,,DERONDA ESTATE,200000524644,E09000022,Jarrett Close ,NA,NA,Thurlow Park,E05000434,-0.10674006324983853,531566.0001221001,51.44170512742176,173167.00012210011,Lambeth,Community centres,E09000022,11/27/2022
Lambeth,,"Rotunda, CRESSINGHAM GARDENS ESTATE",10008787389,E09000022,Cressingham Gardens estate, Tulse Hill, London,Tulse Hill,E05000435,-0.11031031151042209,531304.0001221001,51.44655637772922,173700.00012210011,Lambeth,Community centres,E09000022,11/27/2022
Lambeth,,BERRIDGE ROAD ESTATE,200000455711,E09000022,13 -17 Bridgetown Close,,NA,Gipsy Hill,E05000422,-0.08483343716890988,533138.0001221001,51.4245759051346,171302.00012210011,Lambeth,Community centres,E09000022,11/27/2022
Lambeth,,Patmore Clubroom,200000483613,E09000022,Thessaly Road, London, SW8 4HT,Larkhall,E05000425,-0.13291179441265544,529656.2700805962,51.47385838869086,176695.43011479825,Lambeth,Community centres,E09000022,11/27/2022
Lambeth,,Moorlands Community Centre,10023850557,E09000022,Moorlands Community Centre,50a Corry Drive,London,Coldharbour,E05000420,-0.10521814369442255,531620.0001221001,51.459694868423675,175170.00012210011,Lambeth,Community centres,E09000022,11/27/2022
Lambeth,http://www.high-trees.org/,High Trees Community Development Centre,100023351563,E09000022,High Trees Community Development Centre,High Trees,London,Tulse Hill,E05000435,-0.11009780045030741,531326.0001221001,51.44403472114502,173420.00012210011,Lambeth,Community centres,E09000022,11/27/2022
Lambeth,https://www.nhhg.org.uk/communities/spaces-for-hire/cheviot-gardens/,Cheviot Gardens,10091120509,E09000022,36 Cheviot Rd, ,West Norwood,Knight's Hill,E05000424,-0.10407720772923575,531790.7901000977,51.427889848478934,171635.68011479825,Lambeth,Community centres,E09000022,11/27/2022
Lambeth,http://www.whitelionsw16.co.uk/?fbclid=IwAR25_e_kBt2rAwlueFStdNp8jn3_XIM2gWW995VB0cxY9FzKyOucnteahMc,Streatham Stables Community Centre,100021896046,E09000022,The White Lion,Streatham High Road,London,St. Leonard's,E05000428,-0.12816300923322652,530110.0001221001,51.43023154610383,171853.00012210011,Lambeth,Community centres,E09000022,11/27/2022
Lambeth,,Clapham Park Community Resource Centre,200000522787,E09000022,Clapham Park Homes,1 Headlam Road,London,Thornton,E05000433,-0.12997435300430152,529930.0001221001,51.44929105628274,173969.00012210011,Lambeth,Community centres,E09000022,11/27/2022
Lambeth,https://www.3va.org.uk/sites/default/files/AmicusHorizon%20Free%20Community%20Space%20Poster.pdf,Community Flat,200000488552,E09000022,Community Flat,14 Saxonfield Close,London,Tulse Hill,E05000435,-0.11525172411849541,530964.0001221001,51.44539481555163,173562.00012210011,Lambeth,Community centres,E09000022,11/27/2022
Lambeth,https://www.3va.org.uk/sites/default/files/AmicusHorizon%20Free%20Community%20Space%20Poster.pdf,Lansdowne Green Family Centre,100023674971,E09000022,Lambeth Family Housing Centre,Benson Court,Hartington Road,Stockwell,E05000429,-0.12646098361786004,530099.0001221001,51.475685235338304,176910.00012210011,Lambeth,Community centres,E09000022,11/27/2022
Lambeth,http://kpccoval.org/,Kennington Park Community Centre,100023230387,E09000022,8 Harleyford Street,Lambeth,NA,Oval,E05000426,-0.11117741875159304,531142.0001221001,51.48203232361084,177643.00012210011,Lambeth,Community centres,E09000022,11/27/2022
Lambeth,www.bizspace.co.uk/spaces/brixton,Biz Space,100021865796,E09000022,Lilford Business Centre,61 Lilford Road,,Vassall,E05000436,-0.10033945485170181,531929.0001221001,51.47004855531951,176330.00012210011,Lambeth,Creative co-working desk space,E09000022,11/27/2022
Lambeth,http://www.handbag-factory.com,The Handbag Factory,100023230368,E09000022,The Handbag Factory,3 Loughborough Street,,Prince's,E05000427,-0.11406573380304774,530928.0001221001,51.48673751621498,178161.00012210011,Lambeth,Creative co-working desk space,E09000022,11/27/2022
Lambeth,www.canvasbrixton.space/,Canvas Coworking,100023353742,E09000022,Canvas Coworking,215 Lyham Road,,Brixton Hill,E05000417,-0.12495956324795764,530271.0001221001,51.451891049866845,174267.00012210011,Lambeth,Creative co-working desk space,E09000022,11/27/2022
Lambeth,www.pianohousebrixton.co.uk/,Tcn Uk,100023387855,E09000022,Piano House,9 Brighton Terrace,Brixton,Ferndale,E05000421,-0.11479112066036518,530951.0001221001,51.461117324015675,175311.00012210011,Lambeth,Creative co-working desk space,E09000022,11/27/2022
Lambeth,www.bizspace.co.uk/spaces/brixton,Biz Space,100023387868,E09000022,The Work Lounge (Brixton),"Shakespeare Business Centre, 245a",Coldharbour Lane,Coldharbour,E05000420,-0.10137424231709898,531874.0001221001,51.46420145335434,175678.00012210011,Lambeth,Creative co-working desk space,E09000022,11/27/2022
Lambeth,https://www.popbrixton.org/about/,Makeshift,10090199715,E09000022,Pop Brixton,Pop Brixton,49 Brixton Station Road,,,-0.11075228908395171,531226.2901000977,51.46294177650785,175521.09008789808,Lambeth,Creative workspaces,E09000022,11/27/2022
Southwark,https://www.granbyspace.co.uk,Meanwhile Space,100023225341,E09000022,Granby Space,114-118 Lower Marsh,,,,-0.11155435229452414,531063.0001221001,51.500448324387634,179690.00012210011,Lambeth,Creative workspaces,E09000022,11/27/2022
Lambeth,https://www.meanwhilespace.com/single-post/2017/10/31/LJ-Works,Meanwhile Space,100023572524,E09000022,Lj Space,Styles Gardens,Loughborough Road,,,-0.10138201209250426,531869.0001221001,51.46574848909924,175850.00012210011,Lambeth,Creative workspaces,E09000022,11/27/2022
Lambeth,eatworkart.com,Eat Work Art,200000457272,E09000022,Old Paradise Yard,Old Paradise Yard,20 Carlisle Lane,,,-0.11492859748208706,530835.9201049954,51.49797541653011,179409.00012210011,Lambeth,Creative workspaces,E09000022,11/27/2022
Lambeth,https://www.breadandrosestheatre.co.uk,Bread and Roses,100021824058,E09000022,68 Clapham Manor St,,,Clapham Town,E05000419,-0.1365403514061712,529315.8125086711,51.465868049389755,175855.04662201047,Lambeth,Dance performance venues,E09000022,11/27/2022
Lambeth,http://www.whitebearkennington.co.uk,White Bear Theatre,100021856679,E09000022,138 Kennington Park Road,,,Prince's,E05000427,-0.10809969471258074,531230.3002841995,51.48690515526746,178244.57023873692,Lambeth,Dance performance venues,E09000022,11/27/2022
Lambeth,http://www.waterlooeast.co.uk,Waterloo East Theatre,10000445872,E09000022,19 Brad Street,,,Bishop's,E05000416,-0.11001128800792538,531048.3500486832,51.50406715666158,180149.20195690187,Lambeth,Dance performance venues,E09000022,11/27/2022
Lambeth,https://www.thevaults.london,The Vaults,10091121720,E09000022,7AD Leake St,,,Bishop's,E05000416,-0.11528547932908231,530688.3950573453,51.501974877728024,179907.14249395317,Lambeth,Dance performance venues,E09000022,11/27/2022
Lambeth,http://electricbrixton.uk.com,Electric Brixton,200000455751,E09000022,Town Hall Parade,,,Brixton Hill,E05000417,-0.11683360475708353,530700.5207952466,51.46019347340544,175259.17251036473,Lambeth,Dance performance venues,E09000022,11/27/2022
Lambeth,http://www.thelandorpub.com,Landor Theatre,100021861916,E09000022,70 Landor Pub,,,Larkhall,E05000425,-0.126053012785492,530044.6534394952,51.46566493006136,175851.0550070273,Lambeth,Dance performance venues,E09000022,11/27/2022
Lambeth,https://www.youngvic.org,The Young Vic,100023226258,E09000022,66 The Cut,,,Bishop's,E05000416,-0.10729184890900656,531239.3067050535,51.50327690512558,180066.21983987192,Lambeth,Dance performance venues,E09000022,11/27/2022
Lambeth,http://www.rambert.org.uk,Rambert,100023226975,E09000022,99 Upper Ground,,,Bishop's,E05000416,-0.11352326943298152,530798.6389797542,51.5061740428866,180377.15601985605,Lambeth,Dance performance venues,E09000022,11/27/2022
Lambeth,http://omnibus-clapham.org,Omnibus Arts Centre,100023362765,E09000022,1 Northside Clapham Common,,,Clapham Town,E05000419,-0.14241370760161176,528913.9104113508,51.46375803853589,175610.09278761758,Lambeth,Dance performance venues,E09000022,11/27/2022
Lambeth,https://flowdance-london.co.uk,Flow Dance London,10090196810,E09000022,1-3 Brixton Rd,Unit 3,,Vassall,E05000436,-0.10954604491438824,531148.3391200036,51.48048970371461,177528.71608946746,Lambeth,Dance performance venues,E09000022,11/27/2022
Lambeth,http://www.alfordhouse.org.uk/site/room-hire.php,Alford House,100023230353,E09000022,12 Aveline Street,,,Prince's,E05000427,-0.11417655529797544,530805.3906637265,51.487992230204945,178354.54254378687,Lambeth,Dance rehearsal studios,E09000022,11/27/2022
Lambeth,http://www.brixtoncommunitybase.org,Brixton Community Base,100021898740,E09000022,32 Talma Road,,,Coldharbour,E05000420,-0.11070706076697641,531130.4190199785,51.45865601847916,175099.19849582622,Lambeth,Dance rehearsal studios,E09000022,11/27/2022
Lambeth,http://evelyngraceacademy.org/ega-dance-studio,Evelyn Grace Academy,10023851851,E09000022,255 Shakespeare Road,,,Coldharbour,E05000420,-0.10353451961371954,531622.2937829853,51.46083334113362,175354.1457506109,Lambeth,Dance rehearsal studios,E09000022,11/27/2022
Lambeth,,Love Dance Centre,100021891189,E09000022,8 Clapham Park Rd,,,Clapham Common,E05000418,-0.13696660879584016,529299.8399843635,51.46105474476179,175319.15844654612,Lambeth,Dance rehearsal studios,E09000022,11/27/2022
Lambeth,http://www.theshalalondon.com,The Shala,100023674227,E09000022,1 Chestnut Rd,,,Thurlow Park,E05000434,-0.10299745454768275,531735.3077786528,51.43454753023736,172432.6872097613,Lambeth,Dance rehearsal studios,E09000022,11/27/2022
Lambeth,http://studioblondon.com,Studio B,100023350695,E09000022,130 Brixton Hill,,,Brixton Hill,E05000417,-0.12136560917581195,530406.6055155462,51.45289209827481,174439.32812476292,Lambeth,Dance rehearsal studios,E09000022,11/27/2022
Lambeth,http://www.syct.org.uk,Streatham Youth and Community Trust,200000486426,E09000022,16 Wellfield Road,,,Streatham Wells,E05000432,-0.12723849655506383,530064.7378666282,51.42965878422112,171845.83580662607,Lambeth,Dance rehearsal studios,E09000022,11/27/2022
Lambeth,http://www.syct.org.uk,Wellfield Centre,200000486426,E09000022,16 Wellfield Road,,,Streatham Wells,E05000432,-0.12723849655506383,530064.7378666282,51.42965878422112,171845.83580662607,Lambeth,Dance rehearsal studios,E09000022,11/27/2022
Lambeth,https://aspirewellbeing.org,West Dulwich Health and Wellbeing Centre,100023252867,E09000022,1 Park Hall Road,,,Thurlow Park,E05000434,-0.09572048165362358,532239.1817473647,51.43516689916435,172514.66465361736,Lambeth,Dance rehearsal studios,E09000022,11/27/2022
Lambeth,http://southlondondancestudios.co.uk,South London Dance Studios,100023258077,E09000022,130 Herne Hil,,,Herne Hill,E05000423,-0.10149089376418652,531785.2659134768,51.45353403756033,174546.29382252763,Lambeth,Dance rehearsal studios,E09000022,11/27/2022
Lambeth,http://www.ovalhouse.com,Ovalhouse,200000468066,E09000022,52-54 Kennington Oval,,,Oval,E05000426,-0.11367082656723823,530856.3924596104,51.48244458857655,177738.6680618376,Lambeth,Dance rehearsal studios,E09000022,11/27/2022
Lambeth,http://www.vintersstudios.co.uk,Vinters Studios,100023318812,E09000022,1b Sunnyhill Road,,,Streatham Wells,E05000432,-0.1289122726204136,529944.7647705271,51.43094451508481,171985.80922100763,Lambeth,Dance rehearsal studios,E09000022,11/27/2022
Lambeth,https://www.creationboxlondon.com,Creation Box,10008788597,E09000022,Newnham Terrace,,,Bishop's,E05000416,-0.1131642543187109,530844.3855761084,51.4989021214431,179569.30797261657,Lambeth,Dance rehearsal studios,E09000022,11/27/2022
Lambeth,https://www.arch468.com/rehearsalspacehire,Arch 468 ,200001000000,E09000022,209a Coldharbour Lane ,,,Coldharbour,E05000420,-0.10219114151842179,531701.265807698,51.46580261861804,175909.04198470904,Lambeth,Dance rehearsal studios,E09000022,11/27/2022
Lambeth,http://electricbrixton.uk.com,Electric Brixton,200000455751,E09000022,Town Hall Parade,,,Brixton Hill,E05000417,-0.11683360475708353,530700.5207952466,51.46019347340544,175259.17251036473,Lambeth,Dance rehearsal studios,E09000022,11/27/2022
Lambeth,http://www.thelandorpub.com,Landor Theatre,100021861916,E09000022,70 Landor Pub,,,Larkhall,E05000425,-0.126053012785492,530044.6534394952,51.46566493006136,175851.0550070273,Lambeth,Dance rehearsal studios,E09000022,11/27/2022
Lambeth,https://www.youngvic.org,The Young Vic,100023226258,E09000022,66 The Cut,,,Bishop's,E05000416,-0.10729184890900656,531239.3067050535,51.50327690512558,180066.21983987192,Lambeth,Dance rehearsal studios,E09000022,11/27/2022
Lambeth,http://www.rambert.org.uk,Rambert,100023226975,E09000022,99 Upper Ground,,,Bishop's,E05000416,-0.11352326943298152,530798.6389797542,51.5061740428866,180377.15601985605,Lambeth,Dance rehearsal studios,E09000022,11/27/2022
Lambeth,http://omnibus-clapham.org,Omnibus Arts Centre,100023362765,E09000022,1 Northside Clapham Common,,,Clapham Town,E05000419,-0.14241370760161176,528913.9104113508,51.46375803853589,175610.09278761758,Lambeth,Dance rehearsal studios,E09000022,11/27/2022
Lambeth,https://flowdance-london.co.uk,Flow Dance London,10090196810,E09000022,1-3 Brixton Rd,Unit 3,,Vassall,E05000436,-0.10954604491438824,531148.3391200036,51.48048970371461,177528.71608946746,Lambeth,Dance rehearsal studios,E09000022,11/27/2022
Lambeth,https://bridgetbailey.co.uk/,Bridget Bailey,1.00024E+11,E09000022,Clockwork Studios,38 Southwell Road,,Herne Hill,E05000423,-0.09822786476901821,531974.197622921,51.466592695216505,176004.02160384035,Lambeth,Fashion and design,E09000022,11/27/2022
Lambeth,http://www.hotmamas.org/,Hotmamas,1.00022E+11,E09000022,11 Abbot Court,,,Stockwell,E05000429,-0.1273348397279223,529920.619030871,51.477969413438004,177216.7667064367,Lambeth,Fashion and design,E09000022,11/27/2022
Lambeth,,Just Pins Couture,1.00024E+11,E09000022,21 Stretham Common Road,,,Streatham Wells,E05000432,-0.12476267171368044,530253.7054730495,51.42371992662687,171189.9676751616,Lambeth,Fashion and design,E09000022,11/27/2022
Lambeth,http://victoriarichards.com/contact/,Victoria Richards,1.00024E+11,E09000022,Clockwork Studios,38 Southwell Road,,Herne Hill,E05000423,-0.09822786476901821,531974.197622921,51.466592695216505,176004.02160384035,Lambeth,Fashion and design,E09000022,11/27/2022
Lambeth,http://www.guavalondon.com/,Guava London Ltd,1.00024E+11,E09000022,Unit 58 Eurolink Business Centre,49 Effra Road,,Coldharbour,E05000420,-0.11414188814469553,530892.478123727,51.458441557254595,175069.20665510825,Lambeth,Fashion and design,E09000022,11/27/2022
Lambeth,http://www.earlofbedlam.co.uk/,Earl of Bedlam,10000444565,E09000022,5 Walnut Tree Walk,Bedlam Mews,,Bishop's,E05000416,-0.11416092912558923,530788.3915570859,51.49430487253557,179056.40465565532,Lambeth,Fashion and design,E09000022,11/27/2022
Lambeth,,Bravo Art and Design Limited,100023275171,E09000022,83b Paulet Road,,,Vassall,E05000436,-0.09977510107002972,531963.0001221001,51.47184713359903,176531.00012210011,Lambeth,Jewellery design,E09000022,11/27/2022
Lambeth,,British Underground Limited,200000458845,E09000022,60-62 Clapham Road,,,Oval,E05000426,-0.11357304250559187,530984.0001221001,51.47912997821318,177316.00012210011,Lambeth,Jewellery design,E09000022,11/27/2022
Lambeth,,The Stockwell Hall of Fame ,,E09000022,,,,Stockwell,E05000429,-0.11853915125221308,530554.7816007163,51.469739840914684,176317.4794096045,Lambeth,Legal street art walls,E09000022,11/27/2022
Lambeth,,The Cock Tavern ,,E09000022,"340 Kennington Road
",,,Oval,E05000426,-0.11163793035359745,530986.1541947204,51.48640229488746,178182.31955207099,Lambeth,LGBT+ night time venues,E09000022,11/27/2022
Lambeth,,Eagle London,,E09000022,349 Kennington Lane,,,Prince's,E05000427,-0.12092690932289411,530340.4993145831,51.486717450403994,178200.76186299423,Lambeth,LGBT+ night time venues,E09000022,11/27/2022
Lambeth,,Royal Vauxhall Tavern,,E09000022,372 Kennington Lane,,,Prince's,E05000427,-0.12128819586115328,530314.5074604909,51.487037952111706,178235.75104508636,Lambeth,LGBT+ night time venues,E09000022,11/27/2022
Lambeth,www.the2brewers.com,The Two Brewers,,E09000022,114 Clapham High Street,,,Clapham Town,E05000419,-0.1364252341766067,529329.9624617667,51.46369443496113,175613.59147184365,Lambeth,LGBT+ night time venues,E09000022,11/27/2022
Lambeth,http://www.bridgewinebar.com/#menu,The Bridge Bar,,E09000022,8 Voltaire Road,Clapham,,Clapham Town,E05000419,-0.13519592452121587,529407.9215216888,51.466309434733354,175906.4965169091,Lambeth,LGBT+ night time venues,E09000022,11/27/2022
,http://firelondon.net/,Fire and Lightbox,,,39 (34-41) Parry Street,South Lambeth Road,Vauxhall,,,-0.12530100843836994,530043.2496781868,51.48448519545354,177944.7956525283,Lambeth,LGBT+ night time venues,E09000022,11/27/2022
,www.ovalhouse.com,Oval House (Regular LGBTQ+ Programming),,,52-54 Kennington Oval,,,,,-0.11426996980237608,530814.4008441361,51.48258448337027,177753.1494394531,Lambeth,LGBT+ night time venues,E09000022,11/27/2022
Lambeth,,Upper Norwood,10091838065,E09000022,Westow Hill,,,Gipsy Hill,E05000422,-0.079751385167192,533506.0001221001,51.419519196621856,170749.00012210011,Lambeth,Libraries,E09000022,11/27/2022
Lambeth,,Streatham,100023315960,E09000022,Streatham High Road,,,Streatham Wells,E05000432,-0.12756807619150148,530149.0001221001,51.43105845426354,171946.00012210011,Lambeth,Libraries,E09000022,11/27/2022
Lambeth,,Carnegie library (Herne Hill),10091838239,E09000022,Herne Hill Road,,,Herne Hill,E05000423,-0.09500122979364134,532328.0001221001,51.460266753505195,175252.00012210011,Lambeth,Libraries,E09000022,11/27/2022
Lambeth,,Brixton,200000455963,E09000022,Brixton Oval,,,Coldharbour,E05000420,-0.11314288583830863,531067.0001221001,51.46058715999432,175255.00012210011,Lambeth,Libraries,E09000022,11/27/2022
Lambeth,,Clapham,10090197569,E09000022,Clapham High Street,,,Ferndale,E05000421,-0.1320707893259744,529746.6301269978,51.46259073248363,175444.07012939453,Lambeth,Libraries,E09000022,11/27/2022
Lambeth,,Minet,100021859495,E09000022,Knatchbull Road,,,Vassall,E05000436,-0.10380842420102424,531686.0001221001,51.47077924154159,176405.00012210011,Lambeth,Libraries,E09000022,11/27/2022
Lambeth,,Tate South Lambeth,100023383422,E09000022,South Lambeth Road,,,Oval,E05000426,-0.12237715262632173,530374.0001221001,51.478686725244586,177251.00012210011,Lambeth,Libraries,E09000022,11/27/2022
Lambeth,,Durning,100023229223,E09000022,Kennington Lane,,,Prince's,E05000427,-0.10849915430499907,531310.0001221001,51.48827568926103,178342.00012210011,Lambeth,Libraries,E09000022,11/27/2022
Lambeth,,Waterloo,100023225318,E09000022,Kennington Road,,,Bishop's,E05000416,-0.11032927623743574,531156.0001221001,51.49766755134802,179383.00012210011,Lambeth,Libraries,E09000022,11/27/2022
Lambeth,,West Norwood Library and Picturehouse,010000446790,E09000022,1-7 Norwood High St,,,Knight's Hill,E05000424,-0.10251098900206984,531887.0001221001,51.43228328818424,172127.00012210011,Lambeth,Libraries,E09000022,11/27/2022
Lambeth,www.facebook.com/artichokeprintmaking/,Artichoke,100023000000,E09000022,Artichoke Print Workshop,Unit S1,245a Coldharbour Lane,Coldharbour,E05000420,-0.10295598494496043,531651.2798284353,51.46471787483233,175787.0650517657,Lambeth,Makerspaces,E09000022,11/27/2022
Lambeth,www.bainbridgeprint.com,Bainbridge Print,10008789269,E09000022,,1 Sydenham Place,Lansdowne Hille,Knight's Hill,E05000424,-0.10452892782785053,531629.3345238185,51.43439246171123,172412.69285551878,Lambeth,Makerspaces,E09000022,11/27/2022
Lambeth,www.northstreetpotters.com/,Clapham Pottery,100023000000,E09000022,Clapham Pottery,4a Rectory Grove,Clapham,Clapham Town,E05000419,-0.1391237306527448,529129.8410197824,51.46819321484284,176108.9907683456,Lambeth,Makerspaces,E09000022,11/27/2022
Lambeth,www.photofusion.org,Fotofusion,100023000000,E09000022,Fotofusion,17a Electric Lane,London,Coldharbour,E05000420,-0.11391408612131228,530898.4691624728,51.46187314260279,175451.13480682048,Lambeth,Makerspaces,E09000022,11/27/2022
Croydon,http://www.gipsyhillworkshops.co.uk/Creatives-in-Crystal-Palace.aspx,Gipsy Hill Workshops,100023000000,E09000008,Gipsy Hill Workshops,14 Paddock Gardens,,Crystal Palace & Upper Norwood,E05011467,-0.08195070317148517,533241.9580665707,51.41938462571762,170784.98465140065,Lambeth,Makerspaces,E09000022,11/27/2022
Lambeth,https://www.meanwhilespace.com/single-post/2017/08/16/Loughborough-Junction-Arches,Meanwhile Space,100024000000,E09000022,Loughborough Junction Arches,Loughborough Junction Arches,Ridgeway Road,Coldharbour,E05000420,-0.10296382383819205,531646.2783001913,51.46626476841234,175959.0331198267,Lambeth,Makerspaces,E09000022,11/27/2022
Lambeth,www.parademewspottery.co.uk/,Parade Mews Pottery,200001000000,E09000022,Parade Mews Pottery,7 Parade Mews,Tulse Hill,Streatham Hill,E05000430,-0.1069375210447165,531446.3708834222,51.439818125966646,173011.5826590677,Lambeth,Makerspaces,E09000022,11/27/2022
Southwark,www.southlondonmakerspace.org/,South London Makerspace,200003000000,E09000028,South London Maker Space,Bath Factory Estate,Norwood Road,Dulwich Village,E05011100,-0.10088065572537716,531833.2572655512,51.45159068733257,174331.3330841089,Lambeth,Makerspaces,E09000022,11/27/2022
Lambeth,www.thecameraclub.co.uk,The Camera Club,100023000000,E09000022,The Camera Club,16 Bowden Street,,Prince's,E05000427,-0.11064658257435137,531051.3377962693,51.48766563246298,178324.55179196264,Lambeth,Makerspaces,E09000022,11/27/2022
Lambeth,www.remakery.org/,The Remakery,10001110677,E09000022,The Remakery,4-20 Paulet Road,Loughborough Junction,Vassall,E05000436,-0.10323248805183086,531615.2757117874,51.47054969023066,176434.94206359942,Lambeth,Makerspaces,E09000022,11/27/2022
Lambeth,https://www.creativesinc.com,Creatives Inc. (UK) Limited,1.00022E+11,E09000022,11A Streatham Common South ,,,Streatham South,E05000431,-0.12346271498225429,530466.0001221001,51.41993954335249,170717.00012210011,Lambeth,Making and manufacturing,E09000022,11/27/2022
Lambeth,http://www.rmg.co.uk/cuttysark,Cinema Museum,10023852579,E09000022,"The Master’s House, The Old Lambeth Workhouse",2 Dugard Way,Kennington,Prince's,E05000427,-0.10358587382100554,531641.0001221001,51.491766791140634,178739.00012210011,Lambeth,Museums and public galleries,E09000022,11/27/2022
Lambeth,www.bcaheritage.org.uk,Black Cultural Archives,10091118537,E09000022,1 Windrush Square,NA,NA,Coldharbour,E05000420,-0.11299205007026038,531079.1600952,51.45999969423414,175189.95007319748,Lambeth,Museums and public galleries,E09000022,11/27/2022
Lambeth,www.​gardenmuseum.​org.​uk,The Garden Museum,100023225605,E09000022,5 Lambeth Palace Rd,Lambeth,NA,Bishop's,E05000416,-0.11861372245642562,530590.0001221001,51.49453609243204,179020.00012210011,Lambeth,Museums and public galleries,E09000022,11/27/2022
Lambeth,http://ticketing.southbankcentre.co.uk/venues/hayward-gallery#,Hayward Gallery,200000480099,E09000022,Southbank Centre,Belvedere Road,NA,Bishop's,E05000416,-0.1138624789754995,530888.0001221001,51.505620817098155,180261.00012210011,Lambeth,Museums and public galleries,E09000022,11/27/2022
Lambeth,http://www.florence-nightingale.co.uk/,Florence Nightingale Museum,200000488107,E09000022,St. Thomas Hospital,2 Lambeth Palace Road,NA,Bishop's,E05000416,-0.11542487917819194,530797.0001221001,51.499539286702834,179582.00012210011,Lambeth,Museums and public galleries,E09000022,11/27/2022
,https://www.london-fire.gov.uk/museum/   https://www.migrationmuseum.org/,Migration Museum and the London Fire Brigade Museum,,,26 Lambeth High St,,,,,-0.11881834300007853,530581.3997191936,51.49257604301247,178801.69689939916,Lambeth,Museums and public galleries,E09000022,11/27/2022
LAMBETH,www.firelondon.net/,Fire,100023383445,E09000022,Arch 39-43 Parry Street,Lambeth,,Oval,E05000426,-0.12220803018542027,530370.0,51.48420609539629,177865.0,Lambeth,Music (office based businesses),E09000022,11/27/2022
Lambeth,,Pieces Of 8 Music,0,E09000022,32b Stockwell Park Cres ,,,Stockwell,E05000429,-0.11665144270971291,530794.000122197,51.47083338159329,176388.00012159348,Lambeth,Music (office based businesses),E09000022,11/27/2022
Lambeth,http://www.westburymusic.net,Westbury Music Ltd,200000000000,E09000022,2 Tunstall Road,Lambeth,,Ferndale,E05000421,-0.11379000176409466,531017.000122197,51.46235133687826,175450.00012159348,Lambeth,Music (office based businesses),E09000022,11/27/2022
Lambeth,,Liquid Management,100000000000,E09000022,The Westbury 418,Wandsworth Road,Lambeth,Clapham Town,E05000419,-0.13883390149490765,529257.000122197,51.46963175565307,176215.00012159348,Lambeth,Music (office based businesses),E09000022,11/27/2022
Lambeth,onlinemastering.org.uk,Red Mastering Studio,0,E09000022,Ashley Lodge 122a Thurlow Park Rd,,,Thurlow Park,E05000434,-0.09278738226640479,532540.000122197,51.44015683252671,173020.00012159348,Lambeth,Music recording studios,E09000022,11/27/2022
Lambeth,www.sonicastudios.co.uk,Sonica Studios Ltd,10093378271,E09000022,17a Welmar Mews,Lambeth,,Clapham Common,E05000418,-0.13032044935473777,529880.000122197,51.45843411995889,174985.00012159348,Lambeth,Music recording studios,E09000022,11/27/2022
Lambeth,http://www.thedairy.co.uk,The Dairy Studios,100000000000,E09000022,43 Tunstall Road,Lambeth,,Ferndale,E05000421,-0.11614793062136301,530855.000122197,51.46173271798461,175377.00012159348,Lambeth,Music recording studios,E09000022,11/27/2022
Lambeth,www.artspacestudio.co.uk,Octagon (formally known as Artspace Studio),100000000000,E09000022,Flat 130,Brixton Hill,Lambeth,Brixton Hill,E05000417,-0.11978644318772123,530629.000122197,51.45237478210976,174330.00012159348,Lambeth,Music rehearsal studios,E09000022,11/27/2022
LAMBETH,www.firelondon.net/,Fire,100023383445,E09000022,Arch 39-43 Parry Street,Lambeth,,Oval,E05000426,-0.12220803018542027,530370.0,51.48420609539629,177865.0,Lambeth,Music venues (all),E09000022,11/27/2022
Lambeth,www.therailwaysw16.co.uk,Railway,100000000000,E09000022,2 Greyhound Lane,Lambeth,,Streatham South,E05000431,-0.1330304215934277,529807.000122197,51.41777199630485,170459.00012159348,Lambeth,Music venues (all),E09000022,11/27/2022
Lambeth,,Earl Ferrers,100000000000,E09000022,22 Ellora Road,Lambeth,,St. Leonard's,E05000428,-0.1311396905359036,529923.000122197,51.423219013768936,171068.00012159348,Lambeth,Music venues (all),E09000022,11/27/2022
Lambeth,http://www.hideawaylive.co.uk/,The Hideaway,100000000000,E09000022,2 Empire Mews,Lambeth,,St. Leonard's,E05000428,-0.12883592065378363,530075.000122197,51.42608721148074,171391.00012159348,Lambeth,Music venues (all),E09000022,11/27/2022
Lambeth,,Pratts & Payne,200000000000,E09000022,103 Streatham High Road,Lambeth,,St. Leonard's,E05000428,-0.12800070848369863,530123.000122197,51.42962637712314,171786.00012159348,Lambeth,Music venues (all),E09000022,11/27/2022
Lambeth,www.whitelionsw16.co.uk,The White Lion,100000000000,E09000022,234 Streatham High Road,Lambeth,,St. Leonard's,E05000428,-0.12819690928973326,530108.000122197,51.43010617605136,171839.00012159348,Lambeth,Music venues (all),E09000022,11/27/2022
Lambeth,,The Portico Gallery,200000000000,E09000022,23 Knights Hill,Lambeth,,Knight's Hill,E05000424,-0.10251284016002114,531892.000122197,51.430502564191016,171929.00012159348,Lambeth,Music venues (all),E09000022,11/27/2022
Lambeth,www.fivebellspub.co.uk,Five Bells,100000000000,E09000022,68-70 Streatham High Road,Lambeth,,St. Leonard's,E05000428,-0.1267420112600511,530193.000122197,51.4357759267529,172472.00012159348,Lambeth,Music venues (all),E09000022,11/27/2022
Lambeth,,Porky's Wine Bar,100000000000,E09000022,23-27 Sternhold Avenue,Lambeth,,Streatham Hill,E05000430,-0.12641813770445587,530209.000122197,51.43806413590021,172727.00012159348,Lambeth,Music venues (all),E09000022,11/27/2022
Lambeth,www.whitehart-tulsehill.com,The White Hart,100000000000,E09000022,367 Norwood Road,Lambeth,,Thurlow Park,E05000434,-0.10431631523812282,531741.000122197,51.43941752651381,172917.00012159348,Lambeth,Music venues (all),E09000022,11/27/2022
Lambeth,www.therailwaytulsehill.co.uk,The Railway Tavern,100000000000,E09000022,7 Station Rise,Lambeth,,Thurlow Park,E05000434,-0.10380367267612986,531776.000122197,51.43963407585729,172942.00012159348,Lambeth,Music venues (all),E09000022,11/27/2022
Lambeth,www.florencehernehill.com,Florence,100000000000,E09000022,131-133 Dulwich Road,Lambeth,,Herne Hill,E05000423,-0.10140923167868231,531906.000122197,51.45225842441877,174350.00012159348,Lambeth,Music venues (all),E09000022,11/27/2022
Lambeth,www.gigalum.com,Gigalum,200000000000,E09000022,42954 Cavendish Parade,Clapham Common South Side,Lambeth,Clapham Common,E05000418,-0.14478802878739716,528890.000122197,51.4531329092716,174370.00012159348,Lambeth,Music venues (all),E09000022,11/27/2022
Lambeth,www.offthecuffbar.com,Off The Cuff,100000000000,E09000022,301-303 Railton Road,Lambeth,,Herne Hill,E05000423,-0.1005084062047203,531968.000122197,51.45245967777206,174374.00012159348,Lambeth,Music venues (all),E09000022,11/27/2022
Lambeth,,The White Horse,100000000000,E09000022,94 Brixton Hill,Lambeth,,Brixton Hill,E05000417,-0.11846948404168565,530715.000122197,51.454296279555344,174546.00012159348,Lambeth,Music venues (all),E09000022,11/27/2022
Lambeth,www.hootanannybrixton.co.uk,The Hootananny Brixton,100000000000,E09000022,95 Effra Road,Lambeth,,Herne Hill,E05000423,-0.1116493605874594,531187.000122197,51.45491509105734,174627.00012159348,Lambeth,Music venues (all),E09000022,11/27/2022
Lambeth,www.effrasocial.com,Effra Social,100000000000,E09000022,89 Effra Road,Lambeth,,Herne Hill,E05000423,-0.11185550572900774,531172.000122197,51.4551522471636,174653.00012159348,Lambeth,Music venues (all),E09000022,11/27/2022
Lambeth,,Gremio De Brixton,10090196516,E09000022,Lambeth ,,,Tulse Hill,E05000435,-0.11449742885622435,530977.000122197,51.45916097749136,175094.00012159348,Lambeth,Music venues (all),E09000022,11/27/2022
Lambeth,www.picturehouses.com/cinema/Ritzy_Picturehouse/Whats_On?filter=Upstairs,Upstairs At The Ritzy,100023387982,E09000022,Brixton Rd London,,,Coldharbour,E05000420,-0.11284252391409358,531087.000122197,51.46088810903961,175289.00012159348,Lambeth,Music venues (all),E09000022,11/27/2022
Lambeth,www.soukclapham.co.uk/,So.uk,100000000000,E09000022,165 Clapham High Street,Lambeth,,Clapham Town,E05000419,-0.13536639937794762,529521.000122197,51.46143742541257,175310.00012159348,Lambeth,Music venues (all),E09000022,11/27/2022
Lambeth,,The Prince Of Wales,100000000000,E09000022,467-469 Brixton Road,Lambeth,,Coldharbour,E05000420,-0.11333831304111086,531052.000122197,51.461084956525795,175310.00012159348,Lambeth,Music venues (all),E09000022,11/27/2022
Lambeth,www.dogstarbrixton.com/,Dogstar,100000000000,E09000022,389 Coldharbour Lane,Lambeth,,Coldharbour,E05000420,-0.1103146321840993,531262.000122197,51.46109021348515,175316.00012159348,Lambeth,Music venues (all),E09000022,11/27/2022
Lambeth,,Studio Voltaire,100000000000,E09000022,1a Nelsons Row,Lambeth,,Clapham Town,E05000419,-0.13264446754820716,529710.000122197,51.46145705187346,175317.00012159348,Lambeth,Music venues (all),E09000022,11/27/2022
Lambeth,www.thestanestreetsyndicate.co.uk,Stane Street Syndicate,100000000000,E09000022,196 Clapham High Street,Lambeth,,Clapham Town,E05000419,-0.1364655019281683,529444.000122197,51.46167075053607,175334.00012159348,Lambeth,Music venues (all),E09000022,11/27/2022
Lambeth,www.chipshopbxtn.com/home,Chip Shop Brixton,200000000000,E09000022,380 Coldharbour Lane,Lambeth,,Coldharbour,E05000420,-0.1105311013528006,531246.000122197,51.46142646822798,175353.00012159348,Lambeth,Music venues (all),E09000022,11/27/2022
Lambeth,,Revolution,100000000000,E09000022,95-97 Clapham High Street,Lambeth,,Clapham Town,E05000419,-0.13268933486149084,529704.000122197,51.462474046825676,175430.00012159348,Lambeth,Music venues (all),E09000022,11/27/2022
Lambeth,www.infernos.co.uk,Infernos,100000000000,E09000022,146 Clapham High Street,Lambeth,,Clapham Town,E05000419,-0.13431046927471765,529591.000122197,51.4626167767158,175443.00012159348,Lambeth,Music venues (all),E09000022,11/27/2022
Lambeth,www.lotusbar.co.uk,Lotus,100000000000,E09000022,76 Clapham High Street,Lambeth,,Clapham Town,E05000419,-0.13205455298067387,529746.000122197,51.463210404585574,175513.00012159348,Lambeth,Music venues (all),E09000022,11/27/2022
Lambeth,www.popbrixton.org,Pop Brixton,10093056849,E09000022,Unit S05 Pop Brixton,49,Brixton Station Road,Coldharbour,E05000420,-0.1107564948170514,531226.000122197,51.462941035164775,175521.00012159348,Lambeth,Music venues (all),E09000022,11/27/2022
Lambeth,www.simulacrastudio.com,Simulacra Studio,100000000000,E09000022,302-304 Barrington Road,Lambeth,,Coldharbour,E05000420,-0.1060414320922886,531553.000122197,51.463107777641355,175548.00012159348,Lambeth,Music venues (all),E09000022,11/27/2022
Lambeth,,Fu Manchu,200000000000,E09000022,15-16 Lendal Terrace,Lambeth,,Larkhall,E05000425,-0.1282837015182173,530006.000122197,51.46387874010087,175594.00012159348,Lambeth,Music venues (all),E09000022,11/27/2022
Lambeth,www.phonox.co.uk/,Phonox,100000000000,E09000022,418 Brixton Road,Lambeth,,Ferndale,E05000421,-0.11312006646747766,531059.000122197,51.463932431342414,175627.00012159348,Lambeth,Music venues (all),E09000022,11/27/2022
Lambeth,www.thelandorpub.com,Landor,100000000000,E09000022,70 Landor Road,Lambeth,,Larkhall,E05000425,-0.12447365941866606,530267.000122197,51.46514890140421,175742.00012159348,Lambeth,Music venues (all),E09000022,11/27/2022
Lambeth,www.breadandrosespub.com,Bread & Roses,100000000000,E09000022,68 Clapham Manor Street,Lambeth,,Clapham Town,E05000419,-0.1349620157289199,529538.000122197,51.46535221306542,175746.00012159348,Lambeth,Music venues (all),E09000022,11/27/2022
Lambeth,www.academymusicgroup.com/o2academybrixton,O2 Academy Brixton,100000000000,E09000022,211 Stockwell Road,Lambeth,,Ferndale,E05000421,-0.11353120271417537,531027.000122197,51.46513520372803,175760.00012159348,Lambeth,Music venues (all),E09000022,11/27/2022
Lambeth,,Cafe Cairo,100000000000,E09000022,88 Landor Road,Lambeth,,Larkhall,E05000425,-0.12342841349319257,530339.000122197,51.46535701439981,175767.00012159348,Lambeth,Music venues (all),E09000022,11/27/2022
Lambeth,www.block336.com,Block 336,10091845237,E09000022,336 Brixton Road,Lambeth,,Ferndale,E05000421,-0.11164266723910019,531151.000122197,51.46763201195888,176041.00012159348,Lambeth,Music venues (all),E09000022,11/27/2022
Lambeth,www.phoenixclapham.com,Phoenix,200000000000,E09000022,348 Clapham Road,Lambeth,,Larkhall,E05000425,-0.1255962296928026,530180.000122197,51.46832362118532,176093.00012159348,Lambeth,Music venues (all),E09000022,11/27/2022
Lambeth,www.brixtonjamm.org/,Brixton Jamm,100000000000,E09000022,261 Brixton Road,Lambeth,,Vassall,E05000436,-0.11028043609550119,531238.000122197,51.47028117346038,176338.00012159348,Lambeth,Music venues (all),E09000022,11/27/2022
Lambeth,,Longfield Hall,10091908880,E09000022,50 Knatchbull Road,Lambeth,,Vassall,E05000436,-0.10340085854368825,531713.000122197,51.47123132467824,176456.00012159348,Lambeth,Music venues (all),E09000022,11/27/2022
Lambeth,,Bar 48,100000000000,E09000022,48 Brixton Road,Lambeth,,Oval,E05000426,-0.11040024166746137,531205.000122197,51.47888102314502,177294.00012159348,Lambeth,Music venues (all),E09000022,11/27/2022
Lambeth,www.thebrownderby.co.uk,Brown Derby,100000000000,E09000022,336 Kennington Park Road,Lambeth,,Oval,E05000426,-0.11187937562303289,531097.000122197,51.480730560851455,177497.00012159348,Lambeth,Music venues (all),E09000022,11/27/2022
Lambeth,www.eaglelondon.com/,The Eagle,100000000000,E09000022,349 Kennington Lane,Lambeth,,Oval,E05000426,-0.11773905694913901,530676.000122197,51.48569033082348,178038.00012159348,Lambeth,Music venues (all),E09000022,11/27/2022
Lambeth,www.vauxhalltavern.com,Royal Vauxhall Tavern,100000000000,E09000022,372 Kennington Lane,Lambeth,,Prince's,E05000427,-0.12022359585913274,530503.000122197,51.48587408942508,178054.00012159348,Lambeth,Music venues (all),E09000022,11/27/2022
Lambeth,https://www.facebook.com/musicatthefarm,The Old Dairy At Vauxhall City Farm,0,E09000022,Vauxhall City Farm165 Tyers Street,,,Prince's,E05000427,-0.11768054997882191,530676.6168823987,51.486895100667795,178172.06292679906,Lambeth,Music venues (all),E09000022,11/27/2022
Lambeth,www.theoldredlion.com,Old Red Lion,100000000000,E09000022,42 Kennington Park Road,Lambeth,,Prince's,E05000427,-0.10361549907626598,531647.000122197,51.48897025296443,178428.00012159348,Lambeth,Music venues (all),E09000022,11/27/2022
Lambeth,www.toulouselautrec.co.uk,Brasserie & Wine Bar Toulouse Lautrec,200000000000,E09000022,140 Newington Butts,Lambeth,,Prince's,E05000427,-0.10186315174086412,531764.000122197,51.490578737167844,178610.00012159348,Lambeth,Music venues (all),E09000022,11/27/2022
Lambeth,www.iklectikartlab.com,Iklectik,10091119428,E09000022,The Grey Studio 20,Carlisle Lane,Lambeth,Bishop's,E05000416,-0.11492744527321852,530836.000122197,51.497975398002026,179409.00012159348,Lambeth,Music venues (all),E09000022,11/27/2022
Lambeth,,Primo Bar,10008793643,E09000022,200 Westminster Bridge Road,Lambeth,,Bishop's,E05000416,-0.11532506669282819,530802.000122197,51.500212202328214,179657.00012159348,Lambeth,Music venues (all),E09000022,11/27/2022
Lambeth,,The Vaults,10091121720,E09000022,Arch 236 Leake Street,Lambeth,,Bishop's,E05000416,-0.1137027383583176,530911.000122197,51.50146320668648,179799.00012159348,Lambeth,Music venues (all),E09000022,11/27/2022
Lambeth,www.oldvictheatre.com,Old Vic Theatre,200000000000,E09000022,103 The Cut,Lambeth,,Bishop's,E05000416,-0.1074358861115693,531346.000122197,51.50142518238649,179806.00012159348,Lambeth,Music venues (all),E09000022,11/27/2022
Lambeth,www.youngvic.org/,Young Vic,100023226258,E09000022,66 The Cut,Lambeth,,Bishop's,E05000416,-0.10570876649808833,531462.000122197,51.502764322082534,179958.00012159348,Lambeth,Music venues (all),E09000022,11/27/2022
Lambeth,www.southbankcentre.co.uk/venues/purcell-room,Purcell Room,0,E09000022,Southbank Centre Belvedere Rd,Lambeth,London,Bishop's,E05000416,-0.1147003877723952,530830.000122197,51.50557133640421,180254.00012159348,Lambeth,Music venues (all),E09000022,11/27/2022
Lambeth,www.southbankcentre.co.uk/venues/royal-festival-hall,Royal Festival Hall,200000000000,E09000022,Southbank Centre Belvedere Road,Lambeth,,Bishop's,E05000416,-0.1147003877723952,530830.000122197,51.50557133640421,180254.00012159348,Lambeth,Music venues (all),E09000022,11/27/2022
Lambeth,,Rambert,100000000000,E09000022,99 Upper Ground,Lambeth,,Bishop's,E05000416,-0.11194405299173033,531021.000122197,51.50566189298616,180269.00012159348,Lambeth,Music venues (all),E09000022,11/27/2022
Lambeth,www.nationaltheatre.org.uk/your-visit/national-theatre-venues/olivier-theatre,"Olivier Theatre, National",200000000000,E09000022,Upper Ground Lambeth,,,Bishop's,E05000416,-0.11387777001123732,530884.000122197,51.50664633245498,180375.00012159348,Lambeth,Music venues (all),E09000022,11/27/2022
Lambeth,http://www.hideawaylive.co.uk/,The Hideaway,100000000000,E09000022,2 Empire Mews,Lambeth,,St. Leonard's,E05000428,-0.12883592065378363,530075.000122197,51.42608721148074,171391.00012159348,Lambeth,Music venues (grassroots),E09000022,11/27/2022
Lambeth,www.whitelionsw16.co.uk,The White Lion,100000000000,E09000022,234 Streatham High Road,Lambeth,,St. Leonard's,E05000428,-0.12819690928973326,530108.000122197,51.43010617605136,171839.00012159348,Lambeth,Music venues (grassroots),E09000022,11/27/2022
Lambeth,www.offthecuffbar.com,Off The Cuff,100000000000,E09000022,301-303 Railton Road,Lambeth,,Herne Hill,E05000423,-0.1005084062047203,531968.000122197,51.45245967777206,174374.00012159348,Lambeth,Music venues (grassroots),E09000022,11/27/2022
Lambeth,www.hootanannybrixton.co.uk,The Hootananny Brixton,100000000000,E09000022,95 Effra Road,Lambeth,,Herne Hill,E05000423,-0.1116493605874594,531187.000122197,51.45491509105734,174627.00012159348,Lambeth,Music venues (grassroots),E09000022,11/27/2022
Lambeth,www.picturehouses.com/cinema/Ritzy_Picturehouse/Whats_On?filter=Upstairs,Upstairs At The Ritzy,100023387982,E09000022,Brixton Rd London,,,Coldharbour,E05000420,-0.11284252391409358,531087.000122197,51.46088810903961,175289.00012159348,Lambeth,Music venues (grassroots),E09000022,11/27/2022
Lambeth,www.toulouselautrec.co.uk,Brasserie & Wine Bar Toulouse Lautrec,200000000000,E09000022,140 Newington Butts,Lambeth,,Prince's,E05000427,-0.10186315174086412,531764.000122197,51.490578737167844,178610.00012159348,Lambeth,Music venues (grassroots),E09000022,11/27/2022
Lambeth,,Brockwell Park,,E09000022,Norwood Rd,,,Herne Hill,E05000423,-0.10750000066834076,531486.9694823995,51.450832999627224,174180.5560912937,Lambeth,Outdoor spaces for cultural use,E09000022,11/27/2022
Lambeth,,Blues Kitchen,,E09000022,40 Acre Lane,Brixton,,Ferndale,E05000421,-0.11883350311400073,530674.0001221001,51.45979724415786,175157.00012210011,Lambeth,Pubs,E09000022,11/27/2022
Lambeth,,White Bear,,E09000022,138 Kennington Park Road,Kennington,London,Prince's,E05000427,-0.10646779543314303,531457.0001221001,51.48619235369583,178114.00012210011,Lambeth,Pubs,E09000022,11/27/2022
Lambeth,,Prince of Wales,,E09000022,48 Cleaver Square,Kennington,London,Prince's,E05000427,-0.1071295085427311,531407.0001221001,51.487606044265,178270.00012210011,Lambeth,Pubs,E09000022,11/27/2022
Lambeth,,Tommyfield,,E09000022,185 Kennington Lane,Kennington,London,Prince's,E05000427,-0.10880992392930514,531288.0001221001,51.48842460033992,178358.00012210011,Lambeth,Pubs,E09000022,11/27/2022
Lambeth,,Cock,,E09000022,340 Kennington Road,Kennington,London,Oval,E05000426,-0.11019778395161356,531198.0001221001,51.4862165602078,178110.00012210011,Lambeth,Pubs,E09000022,11/27/2022
Lambeth,,Hanover Arms,,E09000022,326 Kennington Park Road,Kennington,London,Oval,E05000426,-0.11147291177367469,531124.0001221001,51.48115570829999,177545.00012210011,Lambeth,Pubs,E09000022,11/27/2022
Lambeth,,Brown Derby,,E09000022,336 Kennington Park Road,Kennington,London,Oval,E05000426,-0.11147291177367469,531124.0001221001,51.48115570829999,177545.00012210011,Lambeth,Pubs,E09000022,11/27/2022
Lambeth,,Brasserie Toulouse Lautrec,,E09000022,140 Newington Butts,Kennington,London,Prince's,E05000427,-0.10211312842896886,531747.0001221001,51.49045687301179,178596.00012210011,Lambeth,Pubs,E09000022,11/27/2022
Lambeth,,Mansion House,,E09000022,48 Kennington Park Road,Kennington,London,Prince's,E05000427,-0.10377982889735692,531636.0001221001,51.48882901274152,178412.00012210011,Lambeth,Pubs,E09000022,11/27/2022
Lambeth,,Old Red Lion,,E09000022,42 Kennington Park Road,Kennington,London,Prince's,E05000427,-0.10377982889735692,531636.0001221001,51.48882901274152,178412.00012210011,Lambeth,Pubs,E09000022,11/27/2022
Lambeth,,King's Arms,,E09000022,98 Kennington Lane,Kennington,London,Prince's,E05000427,-0.10657585870329556,531440.0001221001,51.48949475922639,178481.00012210011,Lambeth,Pubs,E09000022,11/27/2022
Lambeth,,Black Dog,,E09000022,112 Vauxhall Walk,Kennington,Vauxhall,Prince's,E05000427,-0.11946375342659801,530549.0001221001,51.48823621778328,178318.00012210011,Lambeth,Pubs,E09000022,11/27/2022
Lambeth,,Royal Vauxhall Tavern,,E09000022,372 Kennington Lane,Kennington,Vauxhall,Prince's,E05000427,-0.11810039087307919,530650.0001221001,51.48601090767849,178073.00012210011,Lambeth,Pubs,E09000022,11/27/2022
Lambeth,,Beehive,,E09000022,51 Durham Street,Kennington,Vauxhall,Oval,E05000426,-0.11722168821199526,530715.0001221001,51.48461178343874,177919.00012210011,Lambeth,Pubs,E09000022,11/27/2022
Lambeth,,Pilgrim,,E09000022,247 Kennington Lane,Kennington,London,Oval,E05000426,-0.11230179646219866,531052.0001221001,51.48619649300685,178104.00012210011,Lambeth,Pubs,E09000022,11/27/2022
Lambeth,,Royal Oak,,E09000022,355 Kennington Lane,Kennington,Vauxhall,Oval,E05000426,-0.11773905695034523,530676.0001221001,51.48569033082806,178038.00012210011,Lambeth,Pubs,E09000022,11/27/2022
Lambeth,,Duchy Arms,,E09000022,63 Sancroft Street,Kennington,London,Prince's,E05000427,-0.11127506430827847,531117.0001221001,51.48838339455779,178349.00012210011,Lambeth,Pubs,E09000022,11/27/2022
Lambeth,,Jolly Gardeners,,E09000022,49 Black Prince Road,Kennington,Lambeth South,Prince's,E05000427,-0.11741428594785105,530683.0001221001,51.4911262514342,178643.00012210011,Lambeth,Pubs,E09000022,11/27/2022
Lambeth,,Dog House,,E09000022,293 Kennington Road,Kennington,Lambeth South,Prince's,E05000427,-0.10913960363719898,531262.0001221001,51.48950915205323,178478.00012210011,Lambeth,Pubs,E09000022,11/27/2022
Lambeth,,Black Prince,,E09000022,6 Black Prince Road,Kennington,Lambeth South,Prince's,E05000427,-0.11045166940528771,531172.0001221001,51.48913458524591,178434.00012210011,Lambeth,Pubs,E09000022,11/27/2022
Lambeth,,Oxymoron at the Royal Oak,,E09000022,78 Fitzalan Street,Kennington,Lambeth South,Bishop's,E05000416,-0.11129718722522826,531103.0001221001,51.49272766730319,178832.00012210011,Lambeth,Pubs,E09000022,11/27/2022
Lambeth,,Tankard,,E09000022,111 Kennington Road,Kennington,Lambeth South,Prince's,E05000427,-0.10889465236216338,531267.0001221001,51.493687233378395,178943.00012210011,Lambeth,Pubs,E09000022,11/27/2022
Lambeth,,Walcot 1830,,E09000022,171 Kennington Road,Kennington,Lambeth South,Prince's,E05000427,-0.10889465236216338,531267.0001221001,51.493687233378395,178943.00012210011,Lambeth,Pubs,E09000022,11/27/2022
Lambeth,,Horse & Stables,,E09000022,122-124 Westminster Bridge Road,London,Lambeth North,Bishop's,E05000416,-0.11016026847415786,531165.0001221001,51.49861814982706,179489.00012210011,Lambeth,Pubs,E09000022,11/27/2022
Lambeth,,Camel & Artichoke,,E09000022,121 Lower Marsh,London,Waterloo,Bishop's,E05000416,-0.111811789002103,531046.0001221001,51.50014668766401,179656.00012210011,Lambeth,Pubs,E09000022,11/27/2022
Lambeth,,Duke of Sussex,,E09000022,23 Baylis Road,London,Waterloo,Bishop's,E05000416,-0.10866797589686188,531263.0001221001,51.50055469502623,179707.00012210011,Lambeth,Pubs,E09000022,11/27/2022
Lambeth,,Hercules,,E09000022,2 Kennington Road,London,Lambeth North,Bishop's,E05000416,-0.11068499538153143,531133.0001221001,51.49707970544922,179317.00012210011,Lambeth,Pubs,E09000022,11/27/2022
Lambeth,,Steam Engine,,E09000022,41-42 Cosser Street,London,Lambeth North,Bishop's,E05000416,-0.1108490579436698,531123.0001221001,51.49659669404219,179263.00012210011,Lambeth,Pubs,E09000022,11/27/2022
Lambeth,,Pineapple,,E09000022,53-55 Hercules Road,London,Lambeth North,Bishop's,E05000416,-0.1121268598380567,531034.0001221001,51.49670721047393,179273.00012210011,Lambeth,Pubs,E09000022,11/27/2022
Lambeth,,Waterloo Tap,,E09000022,"Arch 147, Sutton Walk",London,Waterloo,Prince's,E05000427,-0.1185235887838329,530605.0001221001,51.491476820813695,178680.00012210011,Lambeth,Pubs,E09000022,11/27/2022
Lambeth,,Crown & Cushion,,E09000022,133 Westminster Bridge Road,London,Lambeth North,Bishop's,E05000416,-0.11167335054932417,531060.0001221001,51.49861554579481,179486.00012210011,Lambeth,Pubs,E09000022,11/27/2022
Lambeth,,Windmill,,E09000022,44 Lambeth High Street,London,Lambeth North,Prince's,E05000427,-0.11893768681721285,530573.0001221001,51.492616659189345,178806.00012210011,Lambeth,Pubs,E09000022,11/27/2022
Lambeth,,Flag & Whistle,,E09000022,113 Lambeth Road,London,Lambeth North,Bishop's,E05000416,-0.11712373892538161,530695.0001221001,51.49398155275711,178961.00012210011,Lambeth,Pubs,E09000022,11/27/2022
Lambeth,,Beer House Waterloo,,E09000022,"Unit 4, Waterloo Mainline Railway Station",London,Waterloo,Bishop's,E05000416,-0.11165126408071681,531050.0001221001,51.50263532996264,179933.00012210011,Lambeth,Pubs,E09000022,11/27/2022
Lambeth,,Sports Bar & Grill,,E09000022,"Unit B1, The Balcony, Waterloo Railway Station",London,Waterloo,Bishop's,E05000416,-0.11165126408071681,531050.0001221001,51.50263532996264,179933.00012210011,Lambeth,Pubs,E09000022,11/27/2022
Lambeth,,Slug & Lettuce,,E09000022,5 Chicheley Street,London,Waterloo,Bishop's,E05000416,-0.11514712224429317,530809.0001221001,51.50208001023618,179865.00012210011,Lambeth,Pubs,E09000022,11/27/2022
Lambeth,,All Bar One,,E09000022,1-3 Chicheley Street,London,Waterloo,Bishop's,E05000416,-0.1153616510230704,530794.0001221001,51.502119432782195,179869.00012210011,Lambeth,Pubs,E09000022,11/27/2022
Lambeth,,Three Stags,,E09000022,67 Kennington Road,London,Lambeth North,Bishop's,E05000416,-0.10973411431107273,531201.0001221001,51.49638086588735,179241.00012210011,Lambeth,Pubs,E09000022,11/27/2022
Lambeth,,Vaulty Towers,,E09000022,34 Lower Marsh,London,Waterloo,Bishop's,E05000416,-0.11022543811940899,531155.0001221001,51.500525844324905,179701.00012210011,Lambeth,Pubs,E09000022,11/27/2022
Lambeth,,Walrus,,E09000022,172 Westminster Bridge Road,London,Waterloo,Bishop's,E05000416,-0.11213805324875986,531026.0001221001,51.49922559996625,179553.00012210011,Lambeth,Pubs,E09000022,11/27/2022
Lambeth,,Rose,,E09000022,35 Albert Embankment,London,Lambeth North,Prince's,E05000427,-0.12104216168195521,530437.0001221001,51.48908893523328,178410.00012210011,Lambeth,Pubs,E09000022,11/27/2022
Lambeth,,Mother Kelly's,,E09000022,"Arch 76, 89 Albert Embankment",London,Lambeth North,Prince's,E05000427,-0.1221326623336296,530366.0001221001,51.48744258883045,178225.00012210011,Lambeth,Pubs,E09000022,11/27/2022
Lambeth,,Tamesis Dock,,E09000022,Albert Embankment,London,Lambeth,Prince's,E05000427,-0.1221326623336296,530366.0001221001,51.48744258883045,178225.00012210011,Lambeth,Pubs,E09000022,11/27/2022
Lambeth,,Anchor & Hope,,E09000022,36 The Cut,London,Waterloo,Bishop's,E05000416,-0.10506505681302139,531506.0001221001,51.502996748821126,179985.00012210011,Lambeth,Pubs,E09000022,11/27/2022
Lambeth,,Windmill,,E09000022,86 The Cut,London,Waterloo,Bishop's,E05000416,-0.10641119109489566,531414.0001221001,51.50250585921267,179928.00012210011,Lambeth,Pubs,E09000022,11/27/2022
Lambeth,,Cut,,E09000022,"Young Vic, 66 The Cut",London,Waterloo,Bishop's,E05000416,-0.10570876649929495,531462.0001221001,51.50276432208711,179958.00012210011,Lambeth,Pubs,E09000022,11/27/2022
Lambeth,,Stage Door,,E09000022,30 Webber Street,London,Waterloo,Bishop's,E05000416,-0.10593663685955716,531452.0001221001,51.5007444415383,179733.00012210011,Lambeth,Pubs,E09000022,11/27/2022
Lambeth,,Fire Station,,E09000022,150 Waterloo Road,London,Waterloo,Bishop's,E05000416,-0.10907036864337294,531231.0001221001,51.50197318053982,179864.00012210011,Lambeth,Pubs,E09000022,11/27/2022
Lambeth,,Hole in the Wall,,E09000022,5 Mepham Street,London,Waterloo,Bishop's,E05000416,-0.11154404780263462,531056.0001221001,51.50313724483074,179989.00012210011,Lambeth,Pubs,E09000022,11/27/2022
Lambeth,,Kings Arms,,E09000022,25 Roupell Street,London,Waterloo,Bishop's,E05000416,-0.10819158968002164,531286.0001221001,51.50405451537555,180097.00012210011,Lambeth,Pubs,E09000022,11/27/2022
Lambeth,,White Hart,,E09000022,29 Cornwall Road,London,Waterloo,Bishop's,E05000416,-0.1090636365036306,531224.0001221001,51.50457222262241,180153.00012210011,Lambeth,Pubs,E09000022,11/27/2022
Lambeth,,Wellington,,E09000022,81-83 Waterloo Road,London,Waterloo,Bishop's,E05000416,-0.11003034022598858,531160.0001221001,51.50349958198086,180032.00012210011,Lambeth,Pubs,E09000022,11/27/2022
Lambeth,,Waterloo Bar & Kitchen,,E09000022,131 Waterloo Road,London,Waterloo,Bishop's,E05000416,-0.10744109979670173,531346.0001221001,51.50129935606496,179792.00012210011,Lambeth,Pubs,E09000022,11/27/2022
Lambeth,,BFI IMAX,,E09000022,1 Charlie Chaplin Walk,London,Waterloo,Bishop's,E05000416,-0.11204336337040123,531018.0001221001,51.504305459092954,180118.00012210011,Lambeth,Pubs,E09000022,11/27/2022
Lambeth,,Riverfront Bar,,E09000022,"BFI Southbank, Belvedere Road",London,Waterloo,Bishop's,E05000416,-0.11436195081128854,530851.0001221001,51.50643827302991,180351.00012210011,Lambeth,Pubs,E09000022,11/27/2022
Lambeth,,Festival Square,,E09000022,"Basement, Royal Festival Hall, Belvedere Road",London,South Bank,Bishop's,E05000416,-0.11521780822584986,530795.0001221001,51.50525588481383,180218.00012210011,Lambeth,Pubs,E09000022,11/27/2022
Lambeth,,Railway Bell,,E09000022,14 Cawnpore Street,Gipsy Hill,London,Gipsy Hill,E05000422,-0.08115266493615772,533401.0001221001,51.42212335640507,171036.00012210011,Lambeth,Pubs,E09000022,11/27/2022
Lambeth,,Gipsy Hill Tavern,,E09000022,79 Gipsy Hill,Gipsy Hill,London,Gipsy Hill,E05000422,-0.08211325718732233,533333.0001221001,51.42254380047677,171081.00012210011,Lambeth,Pubs,E09000022,11/27/2022
Lambeth,,Walker Briggs,,E09000022,23 Westow Hill,Crystal Palace,London,Gipsy Hill,E05000422,-0.08052039231519208,533453.0001221001,51.41936091473601,170730.00012210011,Lambeth,Pubs,E09000022,11/27/2022
Lambeth,,Faber Fox,,E09000022,25-27 Westow Hill,Crystal Palace,London,Gipsy Hill,E05000422,-0.08052039231519208,533453.0001221001,51.41936091473601,170730.00012210011,Lambeth,Pubs,E09000022,11/27/2022
Lambeth,,Westow House,,E09000022,79 Westow Hill,Crystal Palace,London,Gipsy Hill,E05000422,-0.07774385189422175,533646.0001221001,51.41936936280319,170736.00012210011,Lambeth,Pubs,E09000022,11/27/2022
Lambeth,,Green Room,,E09000022,101 Upper Ground,London,Waterloo,Bishop's,E05000416,-0.10867399172232065,531244.0001221001,51.50702119088784,180426.00012210011,Lambeth,Pubs,E09000022,11/27/2022
Lambeth,,Mulberry Bush,,E09000022,89 Upper Ground,London,South Bank,Bishop's,E05000416,-0.10867399172232065,531244.0001221001,51.50702119088784,180426.00012210011,Lambeth,Pubs,E09000022,11/27/2022
Lambeth,,Studio 6,,E09000022,"Gabriel's Wharf, 56 Upper Ground",London,South Bank,Bishop's,E05000416,-0.10867399172232065,531244.0001221001,51.50702119088784,180426.00012210011,Lambeth,Pubs,E09000022,11/27/2022
Lambeth,,Understudy,,E09000022,"National Theatre, South Bank",London,Waterloo,Bishop's,E05000416,-0.11247749581064519,530982.0001221001,51.50635399380952,180345.00012210011,Lambeth,Pubs,E09000022,11/27/2022
Lambeth,,Alleyns Head,,E09000022,100 Park Hall Road,Dulwich,West Dulwich,Gipsy Hill,E05000422,-0.08901517104266529,532816.0001221001,51.435373686252916,172495.00012210011,Lambeth,Pubs,E09000022,11/27/2022
Lambeth,,Rosendale,,E09000022,65 Rosendale Road,Dulwich,West Dulwich,Thurlow Park,E05000434,-0.09306305043514009,532532.0001221001,51.43630301726334,172591.00012210011,Lambeth,Pubs,E09000022,11/27/2022
Lambeth,,Commercial,,E09000022,210-212 Railton Road,Herne Hill,London,Herne Hill,E05000423,-0.10102738802783506,531932.0001221001,51.45244110599965,174371.00012210011,Lambeth,Pubs,E09000022,11/27/2022
Lambeth,,Agile Rabbit,,E09000022,216 Railton Road,Herne Hill,London,Herne Hill,E05000423,-0.10102738802783506,531932.0001221001,51.45244110599965,174371.00012210011,Lambeth,Pubs,E09000022,11/27/2022
Lambeth,,Florence,,E09000022,131-133 Dulwich Road,Herne Hill,London,Herne Hill,E05000423,-0.10158185190958124,531894.0001221001,51.452261220387626,174350.00012210011,Lambeth,Pubs,E09000022,11/27/2022
Lambeth,,Prince Regent,,E09000022,69 Dulwich Road,Herne Hill,London,Herne Hill,E05000423,-0.1059547797858767,531586.0001221001,51.45372598405299,174505.00012210011,Lambeth,Pubs,E09000022,11/27/2022
Lambeth,,Tulse Hill Hotel,,E09000022,150 Norwood Road,Herne Hill,Tulse Hill,Thurlow Park,E05000434,-0.10461132743560883,531715.0001221001,51.441328960645436,173129.00012210011,Lambeth,Pubs,E09000022,11/27/2022
Lambeth,,Bullfinch Brewery Tap,,E09000022,"Railway Arches 886-887, Rosendale Road",Herne Hill,London,Thurlow Park,E05000434,-0.09951734662309568,532050.0001221001,51.44790180212534,173869.00012210011,Lambeth,Pubs,E09000022,11/27/2022
Lambeth,,Great North Wood,,E09000022,3 Knights Hill,West Norwood,London,Knight's Hill,E05000424,-0.10248557351441209,531894.0001221001,51.43046614787556,171925.00012210011,Lambeth,Pubs,E09000022,11/27/2022
Lambeth,,Horns Tavern,,E09000022,40 Knights Hill,West Norwood,London,Knight's Hill,E05000424,-0.10256008436774282,531884.0001221001,51.432140183793166,172111.00012210011,Lambeth,Pubs,E09000022,11/27/2022
Lambeth,,Knowles of Norwood,,E09000022,294-296 Norwood Road,London,West Norwood,Knight's Hill,E05000424,-0.1027835419357564,531861.0001221001,51.434733988208016,172399.00012210011,Lambeth,Pubs,E09000022,11/27/2022
Lambeth,,Railway,,E09000022,7 Station Rise,West Norwood,Tulse Hill,Thurlow Park,E05000434,-0.10410246132241217,531756.0001221001,51.43936909880848,172912.00012210011,Lambeth,Pubs,E09000022,11/27/2022
Lambeth,,Hope,,E09000022,49 Norwood High Street,West Norwood,London,Gipsy Hill,E05000422,-0.10019550751041102,532054.0001221001,51.43017722172741,171897.00012210011,Lambeth,Pubs,E09000022,11/27/2022
Lambeth,,Park,,E09000022,56 Elder Road,West Norwood,London,Knight's Hill,E05000424,-0.09667519523061312,532317.0001221001,51.423833490275534,171198.00012210011,Lambeth,Pubs,E09000022,11/27/2022
Lambeth,,Paxton,,E09000022,255 Gipsy Road,West Norwood,London,Gipsy Hill,E05000422,-0.08621353664854821,533035.0001221001,51.427008772688275,171570.00012210011,Lambeth,Pubs,E09000022,11/27/2022
Lambeth,,Two Towers,,E09000022,201 Gipsy Road,West Norwood,London,Gipsy Hill,E05000422,-0.08621353664854821,533035.0001221001,51.427008772688275,171570.00012210011,Lambeth,Pubs,E09000022,11/27/2022
Lambeth,,Bricklayers Arms,,E09000022,1 Hamilton Road,West Norwood,London,Gipsy Hill,E05000422,-0.08991922675395511,532770.0001221001,51.42956948745143,171848.00012210011,Lambeth,Pubs,E09000022,11/27/2022
Lambeth,,London Beer Factory Brewery Tap Room,,E09000022,160 Hamilton Road,West Norwood,London,Gipsy Hill,E05000422,-0.0871323842914411,532969.0001221001,51.42774327321111,171650.00012210011,Lambeth,Pubs,E09000022,11/27/2022
Lambeth,,Golden Goose,,E09000022,146 Camberwell New Road,Camberwell,London,Vassall,E05000436,-0.10022834016784278,531917.0001221001,51.47688193015625,177090.00012210011,Lambeth,Pubs,E09000022,11/27/2022
Lambeth,,Kennington,,E09000022,60 Camberwell New Road,Camberwell,London,Vassall,E05000436,-0.10426356746512272,531632.0001221001,51.478557112400075,177269.00012210011,Lambeth,Pubs,E09000022,11/27/2022
Lambeth,,Cambria,,E09000022,40 Kemerton Road,Camberwell,London,Herne Hill,E05000423,-0.0959216598182903,532253.0001221001,51.46409502542797,175676.00012210011,Lambeth,Pubs,E09000022,11/27/2022
Lambeth,,Sun of Camberwell,,E09000022,61-63 Coldharbour Lane,Camberwell,London,Herne Hill,E05000423,-0.09414130658852132,532362.0001221001,51.46915650952937,176242.00012210011,Lambeth,Pubs,E09000022,11/27/2022
Lambeth,,Junction,,E09000022,171 Coldharbour Lane,Camberwell,London,Herne Hill,E05000423,-0.09801044229933269,532101.0001221001,51.46649426944067,175939.00012210011,Lambeth,Pubs,E09000022,11/27/2022
Lambeth,,Amaryllis,,E09000022,66 Coldharbour Lane,Camberwell,London,Herne Hill,E05000423,-0.09537662448627277,532276.0001221001,51.46923054849335,176248.00012210011,Lambeth,Pubs,E09000022,11/27/2022
Lambeth,,Swan,,E09000022,215 Clapham Road,Stockwell,London,Larkhall,E05000425,-0.1209927144444892,530491.0001221001,51.47137071412501,176440.00012210011,Lambeth,Pubs,E09000022,11/27/2022
Lambeth,,White Lion,,E09000022,232 Streatham High Road,Streatham,London,St. Leonard's,E05000428,-0.12820472489628387,530106.0001221001,51.430618940579635,171896.00012210011,Lambeth,Pubs,E09000022,11/27/2022
Lambeth,,Rebel Inn,,E09000022,78a Streatham High Road,Streatham,Streatham Hill,St. Leonard's,E05000428,-0.12694505156812583,530182.0001221001,51.43468194375975,172350.00012210011,Lambeth,Pubs,E09000022,11/27/2022
Lambeth,,Five Bells,,E09000022,68/70 Streatham High Road,Streatham,Streatham Hill,St. Leonard's,E05000428,-0.12661704106211238,530201.0001221001,51.43601675836542,172499.00012210011,Lambeth,Pubs,E09000022,11/27/2022
Lambeth,,Horse & Groom,,E09000022,60 Streatham High Road,Streatham,Streatham Hill,St. Leonard's,E05000428,-0.12661704106211238,530201.0001221001,51.43601675836542,172499.00012210011,Lambeth,Pubs,E09000022,11/27/2022
Lambeth,,Hamlet,,E09000022,10 Streatham High Road,Streatham,Streatham Hill,St. Leonard's,E05000428,-0.12606959083127772,530236.0001221001,51.43708724692104,172619.00012210011,Lambeth,Pubs,E09000022,11/27/2022
Lambeth,,Exhibit B,,E09000022,5 Streatham High Road,Streatham,Streatham Hill,Streatham Wells,E05000432,-0.12573583657875514,530261.0001221001,51.43645235283056,172549.00012210011,Lambeth,Pubs,E09000022,11/27/2022
Lambeth,,Perfect Blend,,E09000022,8/9 Streatleigh Parade,Streatham,Streatham Hill,Streatham Wells,E05000432,-0.12541140225918193,530282.0001221001,51.43699577800232,172610.00012210011,Lambeth,Pubs,E09000022,11/27/2022
Lambeth,,Chalkpit,,E09000022,"The High Parade, 20-21 Streatham High Rd",Streatham,London,Streatham Wells,E05000432,-0.12626435460183705,530231.0001221001,51.43408647384156,172285.00012210011,Lambeth,Pubs,E09000022,11/27/2022
Lambeth,,Holland Tringham,,E09000022,107-109 Streatham High Road,Streatham,London,St. Leonard's,E05000428,-0.1284887777548761,530090.0001221001,51.42930140629809,171749.00012210011,Lambeth,Pubs,E09000022,11/27/2022
Lambeth,,Pratts & Payne,,E09000022,103 Streatham High Road,Streatham,London,St. Leonard's,E05000428,-0.1284887777548761,530090.0001221001,51.42930140629809,171749.00012210011,Lambeth,Pubs,E09000022,11/27/2022
Lambeth,,Leigham Well,,E09000022,1 Wellfield Road,Streatham,London,Streatham Wells,E05000432,-0.12413480068499187,530394.0001221001,51.42881808407452,171703.00012210011,Lambeth,Pubs,E09000022,11/27/2022
Lambeth,,Mere Scribbler,,E09000022,426-428 Streatham High Road,Streatham,Streatham Common,Streatham South,E05000431,-0.12745650827762472,530186.0001221001,51.42076789512041,170802.00012210011,Lambeth,Pubs,E09000022,11/27/2022
Lambeth,,Bull,,E09000022,498 Streatham High Road,Streatham,Streatham Common,Streatham South,E05000431,-0.12676996048494443,530239.0001221001,51.41891321487563,170597.00012210011,Lambeth,Pubs,E09000022,11/27/2022
Lambeth,,Rabbit Hole,,E09000022,151-153 Greyhound Lane,Streatham,Streatham Common,St. Leonard's,E05000428,-0.1280220231893608,530145.0001221001,51.42136152043634,170867.00012210011,Lambeth,Pubs,E09000022,11/27/2022
Lambeth,,Railway,,E09000022,"2 Greyhound Lane,",Streatham,London,Streatham South,E05000431,-0.13268918530812107,529830.0001221001,51.41802737613041,170488.00012210011,Lambeth,Pubs,E09000022,11/27/2022
Lambeth,,Earl Ferrers,,E09000022,22 Ellora Road,Streatham,London,St. Leonard's,E05000428,-0.13107404422953012,529928.0001221001,51.423065074184315,171051.00012210011,Lambeth,Pubs,E09000022,11/27/2022
Lambeth,,Manor Arms,,E09000022,13 Mitcham Lane,Streatham,London,St. Leonard's,E05000428,-0.13121209597742214,529906.0001221001,51.42743820546471,171537.00012210011,Lambeth,Pubs,E09000022,11/27/2022
Lambeth,,Elm Park Tavern,,E09000022,76 Elm Park,Brixton,London,Tulse Hill,E05000435,-0.11707276378176464,530826.0001221001,51.44940827987444,174005.00012210011,Lambeth,Pubs,E09000022,11/27/2022
Lambeth,,Effra Social,,E09000022,89 Effra Road,Brixton,London,Herne Hill,E05000423,-0.11185550573021318,531172.0001221001,51.45515224716818,174653.00012210011,Lambeth,Pubs,E09000022,11/27/2022
Lambeth,,Hootananny,,E09000022,95 Effra Road,Brixton,London,Herne Hill,E05000423,-0.11185550573021318,531172.0001221001,51.45515224716818,174653.00012210011,Lambeth,Pubs,E09000022,11/27/2022
Lambeth,,Effra Hall,,E09000022,38A Kellett Road,Brixton,London,Coldharbour,E05000420,-0.11228030391612084,531131.0001221001,51.45916126803736,175098.00012210011,Lambeth,Pubs,E09000022,11/27/2022
Lambeth,,Gremio De Brixton,,E09000022,"The Crypt, St Matthews Church, Effra Rd,",Brixton,,Tulse Hill,E05000435,-0.11449742885742978,530977.0001221001,51.45916097749594,175094.00012210011,Lambeth,Pubs,E09000022,11/27/2022
Lambeth,,Ritzy Cinema Bar,,E09000022,"1 Brixton Oval, Coldharbour Lane",Brixton,London,Coldharbour,E05000420,-0.1130351271824491,531074.0001221001,51.46075630482703,175274.00012210011,Lambeth,Pubs,E09000022,11/27/2022
Lambeth,,White Horse,,E09000022,94 Brixton Hill,Brixton,London,Brixton Hill,E05000417,-0.11842300003813933,530718.0001221001,51.454376476302635,174555.00012210011,Lambeth,Pubs,E09000022,11/27/2022
Lambeth,,Crown & Sceptre,,E09000022,2A Streatham Hill,Streatham Hill,London,Streatham Hill,E05000430,-0.12317785228474826,530416.0001221001,51.444442764822945,173442.00012210011,Lambeth,Pubs,E09000022,11/27/2022
Lambeth,,Sultan,,E09000022,37 New Park Road,Brixton,London,Brixton Hill,E05000417,-0.12269774540827795,530438.0001221001,51.448428262230195,173886.00012210011,Lambeth,Pubs,E09000022,11/27/2022
Lambeth,,Hand In Hand,,E09000022,61 New Park Road,Brixton,London,Brixton Hill,E05000417,-0.12549550203526413,530248.0001221001,51.446890155746495,173710.00012210011,Lambeth,Pubs,E09000022,11/27/2022
Lambeth,,Windmill,,E09000022,22 Blenheim Gardens,Brixton,London,Brixton Hill,E05000417,-0.12088557343717715,530548.0001221001,51.45400227252185,174509.00012210011,Lambeth,Pubs,E09000022,11/27/2022
Lambeth,,Prince of Wales,,E09000022,169-171 Lyham Road,Brixton,London,Brixton Hill,E05000417,-0.12503008017661066,530263.0001221001,51.452980409806294,174388.00012210011,Lambeth,Pubs,E09000022,11/27/2022
Lambeth,,Barrio,,E09000022,30 Acre Lane,Brixton,London,Ferndale,E05000421,-0.11589279747092075,530876.0001221001,51.46058642386773,175250.00012210011,Lambeth,Pubs,E09000022,11/27/2022
Lambeth,,Hope & Anchor,,E09000022,123 Acre Lane,Brixton,London,Brixton Hill,E05000417,-0.125905483519552,530185.0001221001,51.45902015260645,175058.00012210011,Lambeth,Pubs,E09000022,11/27/2022
Lambeth,,Picture House Bar,,E09000022,76 Venn Street,Clapham,London,Clapham Town,E05000419,-0.13652421817173774,529436.0001221001,51.463056702267544,175488.00012210011,Lambeth,Pubs,E09000022,11/27/2022
Lambeth,,Rectory,,E09000022,87 Rectory Grove,Clapham,London,Clapham Town,E05000419,-0.13931201470916316,529236.0001221001,51.465313416405145,175734.00012210011,Lambeth,Pubs,E09000022,11/27/2022
Lambeth,,No 32 The Old Town,,E09000022,32 The Pavement,Clapham,London,Clapham Town,E05000419,-0.13900845917842636,529265.0001221001,51.46251158183577,175423.00012210011,Lambeth,Pubs,E09000022,11/27/2022
Lambeth,,Rose & Crown,,E09000022,2 The Polygon,Clapham,London,Clapham Town,E05000419,-0.13981033034808238,529208.0001221001,51.46297399033571,175473.00012210011,Lambeth,Pubs,E09000022,11/27/2022
Lambeth,,Sun,,E09000022,47 Old Town,Clapham,London,Clapham Town,E05000419,-0.13930917743636864,529241.0001221001,51.46361357732311,175545.00012210011,Lambeth,Pubs,E09000022,11/27/2022
Lambeth,,Jam Tree,,E09000022,13-19 Old Town,Clapham,London,Clapham Town,E05000419,-0.13947345939788608,529226.0001221001,51.46488428517427,175686.00012210011,Lambeth,Pubs,E09000022,11/27/2022
Lambeth,,Prince of Wales,,E09000022,38 Old Town,Clapham,London,Clapham Town,E05000419,-0.14015775741678477,529182.0001221001,51.46363603729089,175546.00012210011,Lambeth,Pubs,E09000022,11/27/2022
Lambeth,,Bobbin,,E09000022,1-3 Lillieshall Road,Clapham,London,Clapham Town,E05000419,-0.14186493837858719,529058.0001221001,51.46556076339865,175757.00012210011,Lambeth,Pubs,E09000022,11/27/2022
Lambeth,,Stonhouse,,E09000022,165 Stonhouse Street,Clapham,London,Clapham Town,E05000419,-0.13533831289765902,529516.0001221001,51.46389223862495,175583.00012210011,Lambeth,Pubs,E09000022,11/27/2022
Lambeth,,Bridge Wine Bar,,E09000022,8 Voltaire Road,Clapham,,Clapham Town,E05000419,-0.13201329161121253,529743.0001221001,51.465278281509356,175743.00012210011,Lambeth,Pubs,E09000022,11/27/2022
Lambeth,,Bread & Roses,,E09000022,68 Clapham Manor Street,Clapham,London,Clapham Town,E05000419,-0.1353004967155205,529513.0001221001,51.46587922783179,175804.00012210011,Lambeth,Pubs,E09000022,11/27/2022
Lambeth,,Clapham Tap,,E09000022,128 Clapham Manor Street,Clapham,London,Clapham Town,E05000419,-0.1340385407929886,529606.0001221001,51.463988473389115,175596.00012210011,Lambeth,Pubs,E09000022,11/27/2022
Lambeth,,WC Wine & Charcuterie,,E09000022,Underneath Clapham Common tube station,Clapham,,Clapham Common,E05000418,-0.1362321485890378,529462.0001221001,51.461037486695766,175264.00012210011,Lambeth,Pubs,E09000022,11/27/2022
Lambeth,,Alexandra,,E09000022,14 Clapham Common South Side,Clapham,London,Clapham Common,E05000418,-0.1362321485890378,529462.0001221001,51.461037486695766,175264.00012210011,Lambeth,Pubs,E09000022,11/27/2022
Lambeth,,Belle Vue,,E09000022,1 Clapham Common South Side,Clapham,London,Clapham Common,E05000418,-0.1362321485890378,529462.0001221001,51.461037486695766,175264.00012210011,Lambeth,Pubs,E09000022,11/27/2022
Lambeth,,King & Co,,E09000022,100 Clapham Park Road,Clapham,London,Clapham Common,E05000418,-0.1324129098531542,529734.0001221001,51.45866533662263,175007.00012210011,Lambeth,Pubs,E09000022,11/27/2022
Lambeth,,Coach & Horses,,E09000022,173/175 Clapham Park Road,Clapham,London,Ferndale,E05000421,-0.12963591042079717,529925.0001221001,51.459331556798865,175086.00012210011,Lambeth,Pubs,E09000022,11/27/2022
Lambeth,,Red Dog South,,E09000022,27-31 Bedford Rd,Clapham,London,Larkhall,E05000425,-0.12754181156459246,530056.0001221001,51.46441550363431,175655.00012210011,Lambeth,Pubs,E09000022,11/27/2022
Lambeth,,Falcon,,E09000022,33 Bedford Road,Clapham,London,Larkhall,E05000425,-0.12749452046455248,530061.0001221001,51.46381217480328,175588.00012210011,Lambeth,Pubs,E09000022,11/27/2022
Lambeth,,Bodean's,,E09000022,169 Clapham High St,Clapham,London,Clapham Town,E05000419,-0.13472452310008157,529565.0001221001,51.461643060522206,175334.00012210011,Lambeth,Pubs,E09000022,11/27/2022
Lambeth,,Revolution,,E09000022,95/97 Clapham High Street,Clapham,London,Clapham Town,E05000419,-0.13283798943788155,529694.0001221001,51.46235949755397,175417.00012210011,Lambeth,Pubs,E09000022,11/27/2022
Lambeth,,Stane Street Syndicate,,E09000022,196 Clapham High Street,Clapham,London,Clapham Town,E05000419,-0.13646550192937731,529444.0001221001,51.46167075054065,175334.00012210011,Lambeth,Pubs,E09000022,11/27/2022
Lambeth,,Two Brewers,,E09000022,114 Clapham High Street,Clapham,London,Clapham Town,E05000419,-0.13324314963333636,529665.0001221001,51.462662740120436,175450.00012210011,Lambeth,Pubs,E09000022,11/27/2022
Lambeth,,64th & Social,,E09000022,64 Clapham High Street,Clapham,London,Clapham Town,E05000419,-0.1320456702300564,529747.0001221001,51.4630753586033,175498.00012210011,Lambeth,Pubs,E09000022,11/27/2022
Lambeth,,La Rueda,,E09000022,66 Clapham High St,Clapham,London,Clapham Town,E05000419,-0.1320456702300564,529747.0001221001,51.4630753586033,175498.00012210011,Lambeth,Pubs,E09000022,11/27/2022
Lambeth,,Railway,,E09000022,18 Clapham High Street,Clapham,London,Clapham Town,E05000419,-0.13039997311854812,529859.0001221001,51.463885530568454,175591.00012210011,Lambeth,Pubs,E09000022,11/27/2022
Lambeth,,Fifty Five at the Oak,,E09000022,8-10 Clapham High Street,Clapham,London,Larkhall,E05000425,-0.12886339931139204,529964.0001221001,51.46449056801308,175661.00012210011,Lambeth,Pubs,E09000022,11/27/2022
Lambeth,,Rookery,,E09000022,69 Clapham Common South Side,Clapham,London,Clapham Common,E05000418,-0.14122294090059848,529128.0001221001,51.456556963637986,174757.00012210011,Lambeth,Pubs,E09000022,11/27/2022
Lambeth,,Windmill on the Common,,E09000022,Clapham Common South Side,Clapham,London,Clapham Common,E05000418,-0.14346232366090167,528971.0001221001,51.45706911529765,174810.00012210011,Lambeth,Pubs,E09000022,11/27/2022
Lambeth,,Perky Nel,,E09000022,"7/8 Cavendish Parade, Clapham Common South Side",Clapham,London,Clapham Common,E05000418,-0.14469770596281645,528896.0001221001,51.45323040957496,174381.00012210011,Lambeth,Pubs,E09000022,11/27/2022
Lambeth,,Abbeville,,E09000022,67-69 Abbeville Road,Clapham,London,Clapham Common,E05000418,-0.13810359694776644,529351.0001221001,51.45432200434841,174514.00012210011,Lambeth,Pubs,E09000022,11/27/2022
Lambeth,,33 Abbeville Road,,E09000022,33 Abbeville Road,Clapham,,Clapham Common,E05000418,-0.13959628320695153,529251.0001221001,51.45301464743892,174366.00012210011,Lambeth,Pubs,E09000022,11/27/2022
Lambeth,,SW9,,E09000022,11 Dorrell Place,Brixton,London,Ferndale,E05000421,-0.11409023869579864,530995.0001221001,51.46275188822054,175494.00012210011,Lambeth,Pubs,E09000022,11/27/2022
Lambeth,,Fentiman Arms,,E09000022,64 Fentiman Road,South Lambeth,London,Oval,E05000426,-0.11731076256532612,530720.0001221001,51.48070098932497,177484.00012210011,Lambeth,Pubs,E09000022,11/27/2022
Lambeth,,Tia Maria,,E09000022,126 South Lambeth Road,South Lambeth,London,Oval,E05000426,-0.12326513271232442,530308.0001221001,51.48021187097,177419.00012210011,Lambeth,Pubs,E09000022,11/27/2022
Lambeth,,Estrela Bar,,E09000022,111-115 South Lambeth Rd,South Lambeth,London,Stockwell,E05000429,-0.1217264907769548,530419.0001221001,51.47874825173607,177259.00012210011,Lambeth,Pubs,E09000022,11/27/2022
Lambeth,,Canton Arms,,E09000022,177 South Lambeth Road,South Lambeth,London,Stockwell,E05000429,-0.12128222417715596,530457.0001221001,51.47624090636011,176981.00012210011,Lambeth,Pubs,E09000022,11/27/2022
Lambeth,,Duke of Cambridge,,E09000022,74 Lansdowne Way,South Lambeth,London,Stockwell,E05000429,-0.12173951767568787,530431.0001221001,51.47422466812372,176756.00012210011,Lambeth,Pubs,E09000022,11/27/2022
Lambeth,,Cavendish Arms,,E09000022,128 Hartington Road,South Lambeth,London,Stockwell,E05000429,-0.12608680124934452,530124.0001221001,51.476030006060434,176949.00012210011,Lambeth,Pubs,E09000022,11/27/2022
Lambeth,,Riverside,,E09000022,"Hamilton House, 5 St George Wharf",Vauxhall,London,Oval,E05000426,-0.12454599504256214,530205.0001221001,51.48515187292301,177966.00012210011,Lambeth,Pubs,E09000022,11/27/2022
Lambeth,,Cottons,,E09000022,"Unit 12, Flagstaff House, 9 St George Wharf",Vauxhall,London,Oval,E05000426,-0.12454599504256214,530205.0001221001,51.48515187292301,177966.00012210011,Lambeth,Pubs,E09000022,11/27/2022
Lambeth,,Brunswick House,,E09000022,30 Wandsworth Road,Vauxhall,,Oval,E05000426,-0.12129628502104585,530430.0001221001,51.48536065981668,177995.00012210011,Lambeth,Pubs,E09000022,11/27/2022
Lambeth,,Nott,,E09000022,257 Wandsworth Road,South Lambeth,London,Oval,E05000426,-0.1270933806857329,530048.0001221001,51.47817757802401,177186.00012210011,Lambeth,Pubs,E09000022,11/27/2022
Lambeth,,Priory Arms,,E09000022,83 Lansdowne Way,South Lambeth,London,Stockwell,E05000429,-0.1277347806447858,530014.0001221001,51.47447345931845,176773.00012210011,Lambeth,Pubs,E09000022,11/27/2022
Lambeth,,Surprise,,E09000022,16 Southville,South Lambeth,London,Larkhall,E05000425,-0.12995701205220428,529861.0001221001,51.47401427901688,176718.00012210011,Lambeth,Pubs,E09000022,11/27/2022
Lambeth,,Feeleys Free House,,E09000022,99 Union Road,South Lambeth,London,Larkhall,E05000425,-0.1334513560718397,529627.0001221001,51.47096716937219,176373.00012210011,Lambeth,Pubs,E09000022,11/27/2022
Lambeth,,Griffin Belle,,E09000022,8 Wyvil Road,Vauxhall,London,Oval,E05000426,-0.1240738042210973,530249.0001221001,51.48121411073221,177529.00012210011,Lambeth,Pubs,E09000022,11/27/2022
Lambeth,,Mawbey Arms,,E09000022,7 Mawbey Street,South Lambeth,London,Oval,E05000426,-0.12418775534236508,530251.0001221001,51.47773540458821,177142.00012210011,Lambeth,Pubs,E09000022,11/27/2022
Lambeth,,Nolans,,E09000022,33 Wilcox Road,South Lambeth,London,Oval,E05000426,-0.12516177216009655,530179.0001221001,51.47927090608414,177311.00012210011,Lambeth,Pubs,E09000022,11/27/2022
Lambeth,,24 The Oval,,E09000022,24 Clapham Road,Stockwell,London,Oval,E05000426,-0.11216882443275202,531078.0001221001,51.4803484959978,177454.00012210011,Lambeth,Pubs,E09000022,11/27/2022
Lambeth,,Crown & Anchor,,E09000022,246 Brixton Road,Brixton,London,Vassall,E05000436,-0.11139103693525151,531160.0001221001,51.47058686748225,176370.00012210011,Lambeth,Pubs,E09000022,11/27/2022
Lambeth,,Phonox,,E09000022,418 Brixton Road,Brixton,London,Ferndale,E05000421,-0.11315477659273902,531057.0001221001,51.46378909164911,175611.00012210011,Lambeth,Pubs,E09000022,11/27/2022
Lambeth,,Beehive,,E09000022,407-409 Brixton Road,Brixton,London,Coldharbour,E05000420,-0.1126734233555749,531092.0001221001,51.463241723658136,175551.00012210011,Lambeth,Pubs,E09000022,11/27/2022
Lambeth,,Clarkshaw Tap Room,,E09000022,497 Ridgway Road,Loughborough Junction,,Coldharbour,E05000420,-0.10237272533512978,531803.0001221001,51.46477522821871,175740.00012210011,Lambeth,Pubs,E09000022,11/27/2022
Lambeth,,Hero Of Switzerland,,E09000022,142 Loughborough Road,Brixton,London,Coldharbour,E05000420,-0.10371427589342849,531705.0001221001,51.46645177082766,175924.00012210011,Lambeth,Pubs,E09000022,11/27/2022
Lambeth,,Duke Of Edinburgh,,E09000022,204 Ferndale Road,Brixton,London,Ferndale,E05000421,-0.11794301424610534,530727.0001221001,51.46289475226058,175503.00012210011,Lambeth,Pubs,E09000022,11/27/2022
Lambeth,,Canova Hall,,E09000022,250 Ferndale Road,Brixton,,Ferndale,E05000421,-0.11371007436388443,531019.0001221001,51.463591174545186,175588.00012210011,Lambeth,Pubs,E09000022,11/27/2022
Lambeth,,Trinity Arms,,E09000022,45 Trinity Gardens,Brixton,London,Ferndale,E05000421,-0.11716915812865236,530785.0001221001,51.46140736689879,175339.00012210011,Lambeth,Pubs,E09000022,11/27/2022
Lambeth,,Prince of Wales,,E09000022,467-469 Brixton Road,Brixton,London,Coldharbour,E05000420,-0.11341463158320263,531046.0001221001,51.46132901349045,175337.00012210011,Lambeth,Pubs,E09000022,11/27/2022
Lambeth,,Ekcovision,,E09000022,Arch 15 Atlantic Road,Brixton,London,Coldharbour,E05000420,-0.11184609978406883,531152.0001221001,51.46235601620466,175454.00012210011,Lambeth,Pubs,E09000022,11/27/2022
Lambeth,,Prince Albert,,E09000022,418 Coldharbour Lane,Brixton,London,Coldharbour,E05000420,-0.11147151534180288,531181.0001221001,51.46131571167821,175339.00012210011,Lambeth,Pubs,E09000022,11/27/2022
Lambeth,,Market House,,E09000022,443 Coldharbour Lane,Brixton,London,Coldharbour,E05000420,-0.1121485700208816,531135.0001221001,51.4609578777875,175298.00012210011,Lambeth,Pubs,E09000022,11/27/2022
Lambeth,,Satay Bar,,E09000022,447 Coldharbour Lane,Brixton,London,Coldharbour,E05000420,-0.1128425239152998,531087.0001221001,51.46088810904418,175289.00012210011,Lambeth,Pubs,E09000022,11/27/2022
Lambeth,,Dogstar,,E09000022,389 Coldharbour Lane,Brixton,London,Coldharbour,E05000420,-0.11068611820026973,531236.0001221001,51.46115915712999,175323.00012210011,Lambeth,Pubs,E09000022,11/27/2022
Lambeth,,Craft Beer Co.,,E09000022,11-13 Brixton Station Road,Brixton,London,Coldharbour,E05000420,-0.11255208594301147,531101.0001221001,51.46304190968359,175529.00012210011,Lambeth,Pubs,E09000022,11/27/2022
Lambeth,,Ghost Whale,,E09000022,70 Atlantic Road,Brixton,London,Coldharbour,E05000420,-0.10963126839073464,531312.0001221001,51.460206810277306,175219.00012210011,Lambeth,Pubs,E09000022,11/27/2022
Lambeth,,Lounge,,E09000022,56-58 Atlantic Road,Brixton,London,Coldharbour,E05000420,-0.1101858840387362,531271.0001221001,51.461070150587794,175314.00012210011,Lambeth,Pubs,E09000022,11/27/2022
Lambeth,,Phoenix,,E09000022,348 Clapham Road,Stockwell,London,Larkhall,E05000425,-0.1265853855278446,530114.0001221001,51.46737711464901,175986.00012210011,Lambeth,Pubs,E09000022,11/27/2022
Lambeth,,La Fonda de Maria,,E09000022,273A Clapham Road,Stockwell,London,Larkhall,E05000425,-0.12183701563020305,530435.0001221001,51.47044890618732,176336.00012210011,Lambeth,Pubs,E09000022,11/27/2022
Lambeth,,Clapham North,,E09000022,409 Clapham Road,Stockwell,London,Larkhall,E05000425,-0.12675499235134235,530106.0001221001,51.466048767696826,175838.00012210011,Lambeth,Pubs,E09000022,11/27/2022
Lambeth,,Café Cairo,,E09000022,88 Landor Road,Stockwell,London,Larkhall,E05000425,-0.12198065041230169,530445.0001221001,51.463445165081126,175557.00012210011,Lambeth,Pubs,E09000022,11/27/2022
Lambeth,,Porto,,E09000022,82 Landor Road,Stockwell,London,Larkhall,E05000425,-0.12348597077004611,530335.0001221001,51.46535793578093,175767.00012210011,Lambeth,Pubs,E09000022,11/27/2022
Lambeth,,Landor,,E09000022,70 Landor Road,Stockwell,London,Larkhall,E05000425,-0.12418403105229008,530287.0001221001,51.46518923536479,175747.00012210011,Lambeth,Pubs,E09000022,11/27/2022
Lambeth,,Marquis Of Lorne,,E09000022,49 Dalyell Road,Stockwell,London,Ferndale,E05000421,-0.11783760474707797,530727.0001221001,51.465456248441456,175788.00012210011,Lambeth,Pubs,E09000022,11/27/2022
Lambeth,,Queen's Head,,E09000022,144 Stockwell Road,Stockwell,London,Ferndale,E05000421,-0.11622289617147477,530836.0001221001,51.46655451707806,175913.00012210011,Lambeth,Pubs,E09000022,11/27/2022
Lambeth,http://www.metrobroadcast.com,Metro Broadcast,10090201545,E09000022,6 Camberwell New Road,,,Vassall,E05000436,-0.10796405623257327,531371.0001221001,51.47997493013016,177420.00012210011,Lambeth,Set and exhibition building,E09000022,11/27/2022
Lambeth,,Clapham-Common,0,E09000022,,,,Clapham Common,E05000418,-0.1420772339430386,529057.9445189983,51.46035445963992,175177.73730469495,Lambeth,Skate Parks,E09000022,11/27/2022
Lambeth,,House-of-Vans,0,E09000022,,,,Bishop's,E05000416,-0.11256225348119324,530994.1638793945,51.500061583097974,179645.19390869886,Lambeth,Skate Parks,E09000022,11/27/2022
Lambeth,,Kennington-Bowl,0,E09000022,,,,Oval,E05000426,-0.10703824951241933,531421.3928832933,51.48480372865832,177958.57489009947,Lambeth,Skate Parks,E09000022,11/27/2022
Lambeth,,Southbank,0,E09000022,,,,Bishop's,E05000416,-0.11568236682408384,530760.8651122972,51.505919310878426,180290.93652340025,Lambeth,Skate Parks,E09000022,11/27/2022
Lambeth,,Stockwell,0,E09000022,,,,Ferndale,E05000421,-0.1147139058309932,530943.3449096978,51.46566463770334,175816.7520751953,Lambeth,Skate Parks,E09000022,11/27/2022
Lambeth,https://www.alanoliver.co.uk/handwoven-rugs,Alan Oliver Handwoven Rugs & Textiles,100021856992,E09000022,124 Kennington Road,,,Bishop's,E05000416,-0.10964930455124085,531215.0001221001,51.493555504608246,178927.00012210011,Lambeth,Textile design,E09000022,11/27/2022
Lambeth,https://bridgetbailey.co.uk/,Bridget Bailey,100023572637,E09000022,Clockwork Studios,38 Southwell Road,,Herne Hill,E05000423,-0.09664551318935488,532197.0001221001,51.466076394102245,175895.00012210011,Lambeth,Textile design,E09000022,11/27/2022
Lambeth,http://victoriarichards.com/contact/,Victoria Richards,100023572637,E09000022,Clockwork Studios,38 Southwell Road,,Herne Hill,E05000423,-0.09664551318935488,532197.0001221001,51.466076394102245,175895.00012210011,Lambeth,Textile design,E09000022,11/27/2022
Lambeth,www.alfordhouse.org.uk,Alford House,100023230353,E09000022,Aveline Street,Kennington,,Prince's,E05000427,-0.11377690645729922,530834.3851288713,51.48755415264956,178306.5525715904,Lambeth,Theatre rehearsal studio,E09000022,11/27/2022
Lambeth,www.ovalhouse.com,Oval House,200000468066,E09000022,52-54 Kennington Oval,,,Oval,E05000426,-0.11714535195390079,530611.4403260025,51.48375939969497,177878.635868988,Lambeth,Theatre rehearsal studio,E09000022,11/27/2022
Lambeth,http://www.waterloocreativestudio.com/,Waterloo Creative Studio,10093059387,E09000022,20 Carlisle Lane,,,Bishop's,E05000416,-0.11650952200602004,530613.4354247742,51.49848826874769,179517.31517123297,Lambeth,Theatre rehearsal studio,E09000022,11/27/2022
Southwark,www.calderbookshop.com,Calder Theatre Bookshop,200003375676,E09000028,51 The Cut,Waterloo,,Borough & Bankside,E05011095,-0.10671115674867598,531280.297292074,51.503033720922915,180040.22516849812,Lambeth,Theatre rehearsal studio,E09000022,11/27/2022
Southwark,www.stjohnswaterloo.org,St Andrew's Church,200003495644,E09000028,Short Street,,,Borough & Bankside,E05011095,-0.10675635165139244,531278.297054864,51.50263876832714,179996.23326517816,Lambeth,Theatre rehearsal studio,E09000022,11/27/2022
Southwark,www.ett.org.uk,English Touring Theatre,200003375965,E09000028,25 Short Street,Waterloo,,Borough & Bankside,E05011095,-0.10675635165139244,531278.297054864,51.50263876832714,179996.23326517816,Lambeth,Theatre rehearsal studio,E09000022,11/27/2022
Lambeth,https://www.theshalalondon.com/,Shala Yoga,10091118696,E09000022,537 Norwood Road,,,Thurlow Park,E05000434,-0.10356511883891821,531695.3174706167,51.434736578306634,172452.68416624697,Lambeth,Theatre rehearsal studio,E09000022,11/27/2022
Lambeth,www.brixtoncommunitybase.org,Brixton Community Base,200000483133,E09000022,Talma Road,Brixton,,Coldharbour,E05000420,-0.11100758601457651,531108.4236778293,51.459047554236925,175142.1907062541,Lambeth,Theatre rehearsal studio,E09000022,11/27/2022
Lambeth,www.swcbrixton.com,SWC (Small World Centre),100023350649,E09000022,Unit 11 Eurolink Centre,49 Effra Rd,,Coldharbour,E05000420,-0.11415664382239414,530891.478386757,51.45843280187646,175068.20685176156,Lambeth,Theatre rehearsal studio,E09000022,11/27/2022
Lambeth,http://electricbrixton.uk.com/,Electric Brixton,200000455751,E09000022,Brixton Hill,,,Brixton Hill,E05000417,-0.11683360475708353,530700.5207952466,51.46019347340544,175259.17251036473,Lambeth,Theatre rehearsal studio,E09000022,11/27/2022
Lambeth,www.rehearseatccp.co.uk,Clapham Community Project,100023362582,E09000022,St Anne's Hall,31-33 Bromells Road,,Clapham Town,E05000419,-0.13921490001142964,529138.8664948969,51.46276308634552,175505.11756393878,Lambeth,Theatre rehearsal studio,E09000022,11/27/2022
Lambeth,www.omnibus-clapham.org,Omnibus,100023362765,E09000022,1 Clapham Common North Side,,,Clapham Town,E05000419,-0.14294205779100436,528878.9210821384,51.46315490615693,175542.1065775563,Lambeth,Theatre rehearsal studio,E09000022,11/27/2022
Lambeth,https://www.504arch.org/,504,200000478109,E09000022,504 Ridgway Road,,,Coldharbour,E05000420,-0.10395438526355617,531580.2960582724,51.46529158533812,175849.05414912774,Lambeth,Theatre rehearsal studio,E09000022,11/27/2022
Southwark,http://www.halfmoonhernehill.co.uk/,The Half Moon,6044554,E09000028,10 Half Moon Lane, Herne Hill,NA,Dulwich Village,E05011100,-0.0978911721042054,532035.7116524508,51.4533918452999,174536.97214123653,Lambeth,Theatres,E09000022,11/27/2022
Lambeth,https://networktheatre.org/,Network Theatre,10008787031,E09000022,246A Lower Rd, Waterloo,NA,Bishop's,E05000416,-0.11388852202820463,530783.116709876,51.502746116246115,179995.3864555774,Lambeth,Theatres,E09000022,11/27/2022
Lambeth,NA,"St Johns, Waterloo",10090199534,E09000022,73 Waterloo Rd, Lambeth,NA,Bishop's,E05000416,-0.11357939838240583,530798.1137436009,51.50499811222206,180246.3158558915,Lambeth,Theatres,E09000022,11/27/2022
Lambeth,https://www.thevaults.london/,The Vaults,10091121720,E09000022,Leake Street, Lamebth,NA,Bishop's,E05000416,-0.11755605740239879,530529.4294440716,51.50247047745965,179958.18721595156,Lambeth,Theatres,E09000022,11/27/2022
Southwark,http://www.cervantestheatre.com/,Cervantes Theatre,10091668523,E09000028,Arch 26, Old Union Arches, 229 Union Street,Borough & Bankside,E05011095,-0.10337947810822057,531509.0851294284,51.503860599984975,180138.14491707587,Lambeth,Theatres,E09000022,11/27/2022
Lambeth,https://www.waterlooeast.co.uk/,Waterloo East Theatre,10091908867,E09000022,Brad St, Lambeth,NA,Bishop's,E05000416,-0.11151769288476607,530942.2919584333,51.50460338652723,180206.1208401178,Lambeth,Theatres,E09000022,11/27/2022
Lambeth,https://www.breadandrosestheatre.co.uk/,The Bread & Roses Theatre,100022000000,E09000022,68 Clapham Manor St,NA,NA,Clapham Town,E05000419,-0.13848221865285104,529178.0180592203,51.466909694859254,175967.4239648686,Lambeth,Theatres,E09000022,11/27/2022
Lambeth,http://www.vauxhalltavern.com/,The Royal Vauxhall Tavern,100022000000,E09000022,372 Kennington Lane, Vauxhall,NA,Prince's,E05000427,-0.12140522218124666,530306.4818677279,51.48700390363328,178231.7570550674,Lambeth,Theatres,E09000022,11/27/2022
Lambeth,https://www.whitebeartheatre.co.uk/,White Bear Theatre,100022000000,E09000022,138 Kennington Park Rd, Kennington,NA,Prince's,E05000427,-0.10965837054656741,531121.2081123008,51.487220086722886,178276.78801998892,Lambeth,Theatres,E09000022,11/27/2022
Lambeth,https://www.landorspace.com/,Landor Space,100022000000,E09000022,70 Landor Rd, Clapham North,NA,Larkhall,E05000425,-0.12763222771292285,529933.5212685857,51.46618085287746,175905.60839525872,Lambeth,Theatres,E09000022,11/27/2022
Lambeth,https://www.youngvic.org/,Young Vic,100023000000,E09000022,66 The Cut, Waterloo,NA,Bishop's,E05000416,-0.10887473666188882,531128.0060446041,51.50378940848611,180120.3597660028,Lambeth,Theatres,E09000022,11/27/2022
Lambeth,https://www.streathamspaceproject.co.uk/,Streatham Space Project,100023000000,E09000022,Sternhold Avenue,NA,NA,Streatham Hill,E05000430,-0.12847473262437734,529951.7867461583,51.43917353860401,172901.47311994998,Lambeth,Theatres,E09000022,11/27/2022
Lambeth,https://omnibus-clapham.org/,Omnibus Theatre,100023000000,E09000022,1 Clapham Common North Side,NA,NA,Clapham Town,E05000419,-0.14454540532480598,528766.1221951983,51.4636699274074,175596.54236907285,Lambeth,Theatres,E09000022,11/27/2022
Lambeth,http://www.ovalhouse.com/,Ovalhouse,200000000000,E09000022,52-54 Kennington Oval, London,NA,Oval,E05000426,-0.11875235766670912,530498.4217624071,51.484273221589945,177932.89326832263,Lambeth,Theatres,E09000022,11/27/2022
Lambeth,https://www.oldvictheatre.com/,The Old Vic,200000000000,E09000022,The Cut, Lambeth,NA,Bishop's,E05000416,-0.1106267361802584,531010.2893590736,51.50244960180335,179968.2595818375,Lambeth,Theatres,E09000022,11/27/2022
Southwark,http://www.uniontheatre.biz/,Union Theatre,200003000000,E09000028,Old Union Arches, 229 Union St,NA,Borough & Bankside,E05011095,-0.10337947810822057,531509.0851294284,51.503860599984975,180138.14491707587,Lambeth,Theatres,E09000022,11/27/2022
Lambeth,http://calderbookshop.com/,The Calder Bookshop & Theatre,200003000000,E09000022,51 The Cut,NA,NA,Bishop's,E05000416,-0.10831998476935922,531167.1977048485,51.50354554098729,180094.24171898043,Lambeth,Theatres,E09000022,11/27/2022
