borough_name,website,site_name,os_addressbase_uprn,borough_code,address1,address2,address3,ward_2018_name,ward_2018_code,longitude,easting,latitude,northing,BOROUGH,Cultural Venue Type,gss_code,runtime
Newham,http://www.friar.org/our-heritage,"Friars Minor, English Province Archives",46068665,E09000025,The Friary ,58 St Antony's Road ,Forest Gate,Green Street West,E05000486,0.02490609943161514,540300.2354927135,51.539512615586844,184340.30559973238,Newham,Archives,E09000025,11/27/2022
Newham,http://www.friar.org/our-heritage,Franciscan Archives English Province,46068665,E09000025,Franciscan Friary ,56 St Antony's Road ,Forest Gate,Green Street West,E05000486,0.02490609943161514,540300.2354927135,51.539512615586844,184340.30559973238,Newham,Archives,E09000025,11/27/2022
Newham,https://www.newham.gov.uk/Pages/Services/Local-history-and-archives.aspx,Newham Archive and Local Studies Library,46101428,E09000025,Stratford Library ,3 The Grove,,Stratford and New Town,E05000492,0.004355963044646293,538865.6384807543,51.54277052430083,184663.29691231257,Newham,Archives,E09000025,11/27/2022
Newham,https://www.mind.org.uk/,Mind for Better Mental Health,10008984107,E09000025,15-19 Broadway ,Stratford,,Stratford and New Town,E05000492,0.0010865137530722251,538646.7040679413,51.54023648405224,184375.3669434986,Newham,Archives,E09000025,11/27/2022
Newham,https://www.britannica.com/topic/Christian-democracy,Movement for Christian Democracy,10008988833,E09000025,Mayflower Family Centre ,Vincent Street,,Canning Town South,E05000478,0.013149882946581122,539559.4773650828,51.5152456856087,181619.88448285405,Newham,Archives,E09000025,11/27/2022
Newham,https://www.uel.ac.uk/discover/library,University of East London: Library and Learning Centre,10008997988,E09000025,Library and Learning Service: Archives University of East London Docklands Campus ,4-6 University Way,,Beckton,E05000475,0.06478640895300126,543165.5365149075,51.507485969948796,180856.9683926202,Newham,Archives,E09000025,11/27/2022
Newham,http://www.stratfordeast.com/,"Theatre Royal, Stratford East",10009003230,E09000025,Gerry Raffles Square,,,Stratford and New Town,E05000492,0.0010008812952531942,538633.7047774503,51.54255806288698,184633.3104615531,Newham,Archives,E09000025,11/27/2022
Newham,www.bowarts.org    www.artiststudiofinder.org   www.londonsartistquarter.org,R>A>W Studios,10012839984,E09000025,"Norton Quays,",Royal Albert Wharf,,Beckton,E05000475,0.07492492514758721,543872.4519553822,51.506360870510306,180751.78405895858,Newham,Artists workspaces,E09000025,11/27/2022
Newham,www.acava.org,Flying Angel,10023998099,E09000025,287 Victoria Dock Rd,,,Custom House,E05000479,0.02804459169527561,540608.1909213747,51.51019552210415,181086.9205468282,Newham,Artists workspaces,E09000025,11/27/2022
Newham,https://www.throughthereddoor.org/get-in-touch/,REAR OF 120,10008987682,E09000025,120 High Street South,,,East Ham South,E05000482,0.05598330190278333,542495.6832288227,51.52640867372081,182943.52142419777,Newham,Artists workspaces,E09000025,11/27/2022
Newham,www.artcoreint.net,Napier Works,10008994852,E09000025,57-63 Napier Rd,,,Wall End,E05000493,0.0619462856062327,542895.5725593097,51.53075546744393,183438.42392329947,Newham,Artists workspaces,E09000025,11/27/2022
Newham,www.acme.org.uk,Warton House,10093475501,E09000025,150 Stratford High Street,Stratford,,Stratford and New Town,E05000492,-0.006814131670056295,538115.8477916863,51.53466961901537,183741.49786891637,Newham,Artists workspaces,E09000025,11/27/2022
Newham,www.acme.org.uk,Rowse Close,46250199,E09000025,1 and 3a Rowse Close,Stratford,,Stratford and New Town,E05000492,-0.007261892628809114,538073.8558016294,51.53828330256122,184142.41141989996,Newham,Artists workspaces,E09000025,11/27/2022
Newham,www.bowarts.org    www.artiststudiofinder.org   www.londonsartistquarter.org,Stratford Studios,10012838724,E09000025,375 High Street,Stratford,,Stratford and New Town,E05000492,-0.0003726850338298428,538549.7320892648,51.538858523134856,184219.40182453726,Newham,Artists workspaces,E09000025,11/27/2022
Newham,www.bowarts.org    www.artiststudiofinder.org   www.londonsartistquarter.org,Old Manor Park Library,10009001282,E09000025,835 Romford Road,Newham,,Little Ilford,E05000487,0.05375444324260445,542257.6628371078,51.55312931813055,185909.88363472832,Newham,Artists workspaces,E09000025,11/27/2022
Newham,www.createlondon.org,Old Manor Park Library,10009001282,E09000025,835 Romford Road,,,Little Ilford,E05000487,0.05375444324260445,542257.6628371078,51.55312931813055,185909.88363472832,Newham,Artists workspaces,E09000025,11/27/2022
Newham,https://stratford-circus.com/,Stratford Circus Arts Centre ,10008996899,E09000025,Theatre Square,,,Stratford and New Town,E05000492,0.0017436141571047386,538684.7104558783,51.542716602881285,184652.34545708826,Newham,Arts centres,E09000025,11/27/2022
Newham,,Showcase Newham,010008989589,E09000025,,Jenkins Ln,,Beckton,E05000475,0.08281314302185623,544471.0001221001,51.52582908332895,182878.00012210011,Newham,Cinemas,E09000025,11/27/2022
Newham,,Stratford East Picturehouse,010008985556,E09000025,,Gerry Raffell Square,Salway Road,Stratford and New Town,E05000492,0.003107908916422592,538892.0001221001,51.54254280796875,184582.00012210011,Newham,Cinemas,E09000025,11/27/2022
Newham,,Vue Westfield Stratford,010090326480,E09000025,2 Stratford Place,Westfield Stratford City,"Stratford 
",Stratford and New Town,E05000492,-0.005275917439149317,538310.0001221001,51.54278461520749,184593.00012210011,Newham,Cinemas,E09000025,11/27/2022
Newham,,Grassroots Community Centre,10023998843,E09000025,Memorial Avenue,Newham,NA,Canning Town North,E05000477,0.010103674183587525,539426.2301024944,51.526440689278594,182804.93011479825,Newham,Community centres,E09000025,11/27/2022
Newham,,Woodgrange Community Centre,10008997939,E09000025,Bluebell Avenue,Newham,NA,Manor Park,E05000488,0.048712988148905935,542037.0001221001,51.54796077857639,185272.00012210011,Newham,Community centres,E09000025,11/27/2022
Newham,,Paul Street Community Centre,10008994317,E09000025,48 West Ham Lane, Newham,NA,West Ham,E05000494,0.006786152381872345,539162.0001221001,51.53763233510844,184043.00012210011,Newham,Community centres,E09000025,11/27/2022
Newham,https://www.newham.gov.uk/Pages/ServiceChild/Vicarage-Lane-Community-Centre.aspx,Vicarage Lane Community Centre,10009002033,E09000025,Govier Close, Newham,NA,West Ham,E05000494,0.012094117175787551,539527.0001221001,51.53862963420729,184164.00012210011,Newham,Community centres,E09000025,11/27/2022
Newham,https://www.newham.gov.uk/Pages/ServiceChild/Queens-Road-West-Community-Centre.aspx,Queens Road West Community Centre,10009002930,E09000025,63 Queens Road West, Newham,NA,Plaistow North,E05000489,0.027059917007928737,540584.0001221001,51.532364134324276,183496.00012210011,Newham,Community centres,E09000025,11/27/2022
Newham,https://www.newham.gov.uk/Pages/ServiceChild/Trinity-Community-Centre.aspx,Trinity Community Centre,46099802,E09000025,Bothwell Close,Newham,NA,Canning Town South,E05000478,0.016926993835963577,539932.0001221001,51.51582848947275,181638.00012210011,Newham,Community centres,E09000025,11/27/2022
Newham,https://www.newham.gov.uk/Pages/ServiceChild/Jack-Cornwall-Community-Centre.aspx,Jack Cornwell Community Centre,10008995229,E09000025,Jack Cornwell Street,Newham,NA,Little Ilford,E05000487,0.06370913617847271,543064.0001221001,51.55196992533421,185747.00012210011,Newham,Community centres,E09000025,11/27/2022
Newham,https://www.newham.gov.uk/Pages/ServiceChild/Jeyes-Community-Centre.aspx,Jeyes Community Centre,10009001158,E09000025,1 James Close, Newham,NA,Plaistow North,E05000489,0.02377861880166068,540363.0001221001,51.53023532615869,183253.00012210011,Newham,Community centres,E09000025,11/27/2022
Newham,https://www.newham.gov.uk/Pages/ServiceChild/Chandos-Community-Centre.aspx,Chandos Community Centre,10009001471,E09000025,105 Barking Road,Newham,NA,Canning Town North,E05000477,0.012915778260121628,539650.0001221001,51.51704860878924,181766.00012210011,Newham,Community centres,E09000025,11/27/2022
Newham,https://www.newham.gov.uk/Pages/ServiceChild/Forest-Gate-Lodge-Community-Centre.aspx,Forest Lane Lodge,46100785,E09000025,Forest Lane,Newham,NA,Forest Gate North,E05000483,0.018490397764888904,539942.0001221001,51.54791814870797,185209.00012210011,Newham,Community centres,E09000025,11/27/2022
Newham,https://www.newham.gov.uk/Pages/ServiceChild/Beckton-Community-Centre.aspx,Beckton Community Centre,46251507,E09000025,14 East Ham Manor Way,Newham,NA,Beckton,E05000475,0.06478672068373338,543271.0001221001,51.50981512315869,181062.00012210011,Newham,Community centres,E09000025,11/27/2022
Newham,http://www.bonnydowns.org/,The Well Community Centre,46253395,E09000025,49 Vicarage Lane,Newham,NA,East Ham South,E05000482,0.06446125492918894,543196.0001221001,51.52652232587007,182919.00012210011,Newham,Community centres,E09000025,11/27/2022
Newham,http://www.virtualvenuevisit.com/venue/old-town-hall-stratford,Old Town Hall,46255417,E09000025,29 Broadway,Newham,NA,Stratford and New Town,E05000492,0.003499435630759173,538927.0001221001,51.53996392714256,184296.00012210011,Newham,Community centres,E09000025,11/27/2022
Newham,http://www.aston-mansfield.org.uk/froud-centre-room-hire,Froud Centre,10008986568,E09000025,1 Toronto Avenue,Newham,NA,Little Ilford,E05000487,0.05747546248083929,542627.0001221001,51.55353641689747,185909.00012210011,Newham,Community centres,E09000025,11/27/2022
Newham,https://www.newham.gov.uk/Pages/ServiceChild/Flanders-Community-Centre.aspx,Flanders Community Centre,10008989166,E09000025,116 Napier Road,Newham,NA,Wall End,E05000493,0.06301100965662454,543084.0001221001,51.53016334464646,183321.00012210011,Newham,Community centres,E09000025,11/27/2022
Newham,https://www.newham.gov.uk/Pages/ServiceChild/Ascot-Community-Centre.aspx,Ascot Community Centre,10008991266,E09000025,Hermit Road,Newham,NA,Canning Town North,E05000477,0.013462741997706936,539682.0001221001,51.51899085789602,181983.00012210011,Newham,Community centres,E09000025,11/27/2022
Newham,https://www.newham.gov.uk/Pages/ServiceChild/Cundy-Community-Centre.aspx,Cundy Community Centre,10008994537,E09000025,Hartington Road,Newham,NA,Custom House,E05000479,0.02877968821110633,540765.0001221001,51.512341310510465,181273.00012210011,Newham,Community centres,E09000025,11/27/2022
Newham,https://www.newham.gov.uk/Pages/ServiceChild/Woodman-Community-Centre.aspx,Woodman Community Centre,10009003863,E09000025,Woodman Street, North Woolwich, London,Royal Docks,E05000491,0.06918622345773365,543604.0001221001,51.50098658837002,180089.00012210011,Newham,Community centres,E09000025,11/27/2022
Newham,https://stratford-circus.com,Stratford Circus,10008996899,E09000025,Theatre Square,,,Stratford and New Town,E05000492,0.0017436141571047386,538684.7104558783,51.542716602881285,184652.34545708826,Newham,Dance performance venues,E09000025,11/27/2022
Newham,http://www.stratfordeast.com/whats-on/,"Theatre Royal, Stratford East",10009003230,E09000025,Gerry Raffles Square,,,Stratford and New Town,E05000492,0.0010008812952531942,538633.7047774503,51.54255806288698,184633.3104615531,Newham,Dance performance venues,E09000025,11/27/2022
Newham,https://www.newham.gov.uk/Pages/ServiceChild/Barking-Road-community-centre.aspx,Barking Road Community Centre: JÔÇÖs Dance Factory,10008983357,E09000025,633 Barking Rd,,,Plaistow South,E05000490,0.0326118929823577,540869.1042241694,51.52830003428191,183108.5255132405,Newham,Dance rehearsal studios,E09000025,11/27/2022
Newham,http://www.chobhamacademy.org.uk,Chobam Academy,10090758476,E09000025,40 Cheering Ln,,,Stratford and New Town,E05000492,-0.007030376171562869,538056.670536919,51.54925262044538,185362.38837028464,Newham,Dance rehearsal studios,E09000025,11/27/2022
Newham,http://www.marylandstudioz.com,Maryland Studioz,10008997508,E09000025,86 Leytonstone Rd,,,Forest Gate North,E05000483,0.0054370235680934464,538918.6432422204,51.549964527467196,185465.1563395401,Newham,Dance rehearsal studios,E09000025,11/27/2022
Newham,https://stratford-circus.com,Stratford Circus,10008996899,E09000025,Theatre Square,,,Stratford and New Town,E05000492,0.0017436141571047386,538684.7104558783,51.542716602881285,184652.34545708826,Newham,Dance rehearsal studios,E09000025,11/27/2022
Newham,http://www.stratfordeast.com/whats-on/,"Theatre Royal, Stratford East",10009003230,E09000025,Gerry Raffles Square,,,Stratford and New Town,E05000492,0.0010008812952531942,538633.7047774503,51.54255806288698,184633.3104615531,Newham,Dance rehearsal studios,E09000025,11/27/2022
Newham,https://www.newham.ac.uk/subject-area/fashion-and-tailoring.html,Newham College,10009001155,E09000025,East Ham Campus,High Street South,,East Ham Central,E05000480,0.054868651644339,542401.6903014762,51.531751938819035,183535.3923776325,Newham,Fashion and design,E09000025,11/27/2022
Newham,,Jana Smirnova,10009017863,E09000025,Unit 347 Stratford Workshops, Burford Road,,Stratford and New Town,E05000492,-0.0002667340281082044,538561.7305746606,51.5373279555642,184049.43871263263,Newham,Fashion and design,E09000025,11/27/2022
Newham,http://bfashionstudio.com/,Bfashion Studio,10009017863,E09000025,Unit 215 Stratford Workshops,Burford Road,,Stratford and New Town,E05000492,-0.0002667340281082044,538561.7305746606,51.5373279555642,184049.43871263263,Newham,Fashion and design,E09000025,11/27/2022
Newham,http://www.crossbowfashions.co.uk/,Crossbow Fashions Ltd,46098281,E09000025,Unit 4 Maryland Industrial Estate,26 Maryland Road,,Stratford and New Town,E05000492,0.003392899767205205,538781.4349226004,51.54849680295722,185298.09842819546,Newham,Fashion and design,E09000025,11/27/2022
Newham,http://www.simpson-london.com/,RBJ Simpson,10090851202,E09000025,9 Canning Town Business Park,101 Stephenson Street,,Canning Town North,E05000477,0.002247005881621119,538780.9264093284,51.52256991755763,182413.45043112652,Newham,Fashion and design,E09000025,11/27/2022
Newham,http://www.prosampling.co.uk/,Pro Sampling,10008985422,E09000025,Silver Building,60 Dock Road,,Royal Docks,E05000491,0.01713996754174065,539868.3501041926,51.50476314250824,180462.05612147687,Newham,Fashion and design,E09000025,11/27/2022
Newham,http://www.unit3showroom.co.uk/,Larisa Judina Ltd,10034512029,E09000025,Unit 4,14B High Street,,Stratford and New Town,E05000492,-0.012492680945241766,537733.5949858503,51.5308725377075,183308.6310767805,Newham,Fashion and design,E09000025,11/27/2022
Newham,https://www.facebook.com/AnointingFashionDesigns/timeline,Anointing Fashion,10009017863,E09000025,Unit 222 Stratford Workshops ,Burford Road,,Stratford and New Town,E05000492,-0.0002667340281082044,538561.7305746606,51.5373279555642,184049.43871263263,Newham,Fashion and design,E09000025,11/27/2022
Newham,http://www.masachuka.com/,Studio MasaChuka,46252102,E09000025,9 Essex House,375 High Street ,,Stratford and New Town,E05000492,-0.0003726850338298428,538549.7320892648,51.538858523134856,184219.40182453726,Newham,Fashion and design,E09000025,11/27/2022
Newham,http://www.elegantdesignuk.com/,Elegant Design UK Ltd,10012838785,E09000025,Unit 5 Kierbeck Business Complex,North Woolwich Road,,Royal Docks,E05000491,0.02666485234457022,540538.1577656276,51.50184705514254,180156.11015708913,Newham,Fashion and design,E09000025,11/27/2022
Newham,,Allfeminine Limited,10009002926,E09000025,D2 67-69 Rani Bazard,Queens Market,,Boleyn,E05000476,0.03556940023688448,541170.0001221001,51.53369172376232,183660.00012210011,Newham,Jewellery design,E09000025,11/27/2022
Newham,,"Dylanmolly (UK) Co., Ltd",10012839561,E09000025,Unit G25 Waterfront Studios,1 Dock Road,,Royal Docks,E05000491,0.017391746613305486,539996.0001221001,51.50546869682482,180487.00012210011,Newham,Jewellery design,E09000025,11/27/2022
Newham,,Eterniti Limited,46250721,E09000025,220 Green Street,,,Green Street West,E05000486,0.0339113807052232,541037.0001221001,51.53952144366305,184305.00012210011,Newham,Jewellery design,E09000025,11/27/2022
Newham,,Gold Diamond Limited,10012838696,E09000025,4 St. Stephens Parade,Green Street,,Green Street East,E05000485,0.035823499697650744,541176.0001221001,51.537446693568484,184078.00012210011,Newham,Jewellery design,E09000025,11/27/2022
Newham,,Insa Designs Ltd,10008989066,E09000025,12 Cody Road,,,Canning Town North,E05000477,0.0038551041518679646,539010.0001221001,51.52081026472946,182167.00012210011,Newham,Jewellery design,E09000025,11/27/2022
Newham,,Loli's Gold Limited,10008983472,E09000025,776-778 Barking Road,,,Plaistow South,E05000490,0.03898860870957867,541420.0001221001,51.52953118379358,183204.00012210011,Newham,Jewellery design,E09000025,11/27/2022
Newham,,Promises Promises Ltd,10023996691,E09000025,"Studio 6, The View Tube",The Greenway,,Stratford and New Town,E05000492,-0.01155024739783927,537899.0001221001,51.53484181563051,183698.00012210011,Newham,Jewellery design,E09000025,11/27/2022
Newham,http://www.richardcammish.com,Richard Cammish Studio Limited,10008989531,E09000025,International House,12 Constance Street,,Royal Docks,E05000491,0.04761156335528022,542103.0001221001,51.50221975233158,180184.00012210011,Newham,Jewellery design,E09000025,11/27/2022
Newham,http://filmlondon.org.uk/3-mills-studios#,3 Mills Studios,010008997114,E09000025,"Three Mill Lane, London ",Stratford,London,Stratford and New Town,E05000492,-0.004157844006727456,538435.9301147982,51.52682734877105,182820.84008789808,Newham,Large media production studios,E09000025,11/27/2022
,,Tina We Salute You (Regular LGBTQ+ Programming),,,Victory Parade,,,,,-0.012690000113940173,537672.9458613703,51.546419999774294,185036.78794253734,Newham,LGBT+ night time venues,E09000025,11/27/2022
Newham,,North Woolwich Library,10008995497,E09000025,Pier Parade,,,Royal Docks,E05000491,0.06426703844034841,543264.0001221001,51.500551655565445,180031.00012210011,Newham,Libraries,E09000025,11/27/2022
Newham,,Custom House Library,10008990024,E09000025,Prince Regent Lane,,,Custom House,E05000479,0.03300573504676005,541051.0001221001,51.514669452689986,181540.00012210011,Newham,Libraries,E09000025,11/27/2022
Newham,,Beckton Library,10008997116,E09000025,Kingsford Way,,,Beckton,E05000475,0.056999433050283814,542716.0001221001,51.514520834476976,181570.00012210011,Newham,Libraries,E09000025,11/27/2022
Newham,,Canning Town Library,10008988046,E09000025,Barking Road,,,Canning Town North,E05000477,0.012662185302805268,539633.0001221001,51.51685509941209,181744.00012210011,Newham,Libraries,E09000025,11/27/2022
Newham,,Plaistow Library,46096940,E09000025,North Street,,,Plaistow North,E05000489,0.02723595480581566,540606.0001221001,51.529186305557985,183143.00012210011,Newham,Libraries,E09000025,11/27/2022
Newham,,East Ham Library,46253323,E09000025,Barking Road,,,East Ham Central,E05000480,0.05705606061287467,542666.0001221001,51.53176990372555,183488.00012210011,Newham,Libraries,E09000025,11/27/2022
Newham,,Green Street Library,10009001054,E09000025,Green Street,,,Green Street East,E05000485,0.036907327113702385,541256.0001221001,51.535880953896786,183906.00012210011,Newham,Libraries,E09000025,11/27/2022
Newham,,Stratford Library,46101428,E09000025,The Grove,,,Stratford and New Town,E05000492,0.005951316191978111,539090.0001221001,51.54226037865868,184556.00012210011,Newham,Libraries,E09000025,11/27/2022
Newham,,The Gate Library ,10008993577,E09000025,Woodgrange Road,,,Forest Gate South,E05000484,0.02711326977660007,540542.0001221001,51.54719384986323,185145.00012210011,Newham,Libraries,E09000025,11/27/2022
Newham,,Manor Park Library,10008990819,E09000025,Romford Road,,,Manor Park,E05000488,0.04859772402700572,542022.0001221001,51.55021122439191,185522.00012210011,Newham,Libraries,E09000025,11/27/2022
Newham,www.bowarts.org,Bow Arts,10093130121,E09000025,RAW Studios A04-3,Norton Quays,Royal Albert Wharf,Beckton,E05000475,0.07526313778732062,543894.0660878007,51.506947616417335,180817.682466565,Newham,Live in artists' workspace,E09000025,11/27/2022
Newham,www.createlondon.org,Create,10008995499,E09000025,Old Manor Park Library,835 Romford Road,,Little Ilford,E05000487,0.05375444324260445,542257.6628371078,51.55312931813055,185909.88363472832,Newham,Makerspaces,E09000025,11/27/2022
Newham,http://www.workshopeast.co.uk/,Workshop East,46251688,E09000025,Workshop East,Unit A2,107 High Street,Plaistow North,E05000489,0.023914481005818666,540261.268765143,51.52983552186134,183262.53406319127,Newham,Makerspaces,E09000025,11/27/2022
Newham,https://www.newham.gov.uk/Pages/ServiceChild/Stratford-Workshops.aspx,Stratford Workshop /Lb Newham,10009017863,E09000025,Stratford Workshop,Burford Road,,Stratford and New Town,E05000492,-0.0002667340281082044,538561.7305746606,51.5373279555642,184049.43871263263,Newham,Makerspaces,E09000025,11/27/2022
Newham,http://www.mcdougall.co.uk/,J.D. McDougall Ltd,46255499,E09000025,4 McGrath Road,,,Forest Gate South,E05000484,0.014122057448988612,539645.0001221001,51.54601462688733,184989.00012210011,Newham,Making and manufacturing,E09000025,11/27/2022
Newham,https://www.studiomeno.com,Studio Meno Ltd,10008994852,E09000025,Napier Works,Napier Road,,Wall End,E05000493,0.06354817471119713,543121.0001221001,51.530243832067185,183331.00012210011,Newham,Making and manufacturing,E09000025,11/27/2022
Newham,NA,House Mill,10008997232,E09000025,Three Mill Lane,Bromley-by-Bow,NA,Stratford and New Town,E05000492,-0.0059849775480750765,538309.0001221001,51.526895842642396,182825.00012210011,Newham,Museums and public galleries,E09000025,11/27/2022
Newham,,Limitless Records 24/7 C.i.c.,0,E09000025,Silver Town 14b Camel Rd,,,Royal Docks,E05000491,0.047153402466087554,542069.000122197,51.50292926812023,180262.00012149662,Newham,Music (office based businesses),E09000025,11/27/2022
Newham,,Ageless One Publishing Ltd,46052181,E09000025,36 Mortlake Road,Newham,,Custom House,E05000479,0.030770025316947024,540899.000122197,51.51366491586159,181424.00012149662,Newham,Music (office based businesses),E09000025,11/27/2022
Newham,,Unruly Records Ltd,10008990036,E09000025,13 The Moorings,Prince Regent Lane,Newham,Custom House,E05000479,0.034386897355063596,541145.000122197,51.51525707516012,181608.00012149662,Newham,Music (office based businesses),E09000025,11/27/2022
Newham,,S.a.s.h Group Ltd,46055883,E09000025,79 Palmer Road,Newham,,Plaistow South,E05000490,0.02927491820497906,540778.000122197,51.51926692341749,182044.00012149662,Newham,Music (office based businesses),E09000025,11/27/2022
Newham,,Uncle Curly Records Ltd,46025008,E09000025,56 Eversleigh Road,Newham,,Boleyn,E05000476,0.04480276569219453,541805.000122197,51.53539281099853,183867.00012149662,Newham,Music (office based businesses),E09000025,11/27/2022
Newham,,Livarachi Records Ltd,46250405,E09000025,37 Broadway,Newham,,Stratford And New Town,E05000492,0.004138490805889167,538970.000122197,51.54039370006265,184345.00012149662,Newham,Music (office based businesses),E09000025,11/27/2022
Newham,,K2 Records Ltd,46014473,E09000025,64 Chobham Road,Newham,,Stratford And New Town,E05000492,0.0031565959249864285,538875.000122197,51.549233272822704,185326.00012149662,Newham,Music (office based businesses),E09000025,11/27/2022
Newham,,Karma Records Ltd,46043049,E09000025,3 Knighton Road,Newham,,Forest Gate North,E05000483,0.02420454439498354,540318.000122197,51.55445702744186,185947.00012149662,Newham,Music (office based businesses),E09000025,11/27/2022
Newham,,Press Play Studio Ltd,46022854,E09000025,151 Earlham Grove,Newham,,Forest Gate South,E05000484,0.022435477478246205,540216.000122197,51.54775126374549,185198.00012149662,Newham,Music recording studios,E09000025,11/27/2022
Newham,www.arch3studios.uk,Arch3 Studios,10023994437,E09000025,Unit 3 The Arches,Cranberry Lane,Newham,Canning Town North,E05000477,0.006418797028603609,539183.000122197,51.52239429278653,182348.00012149662,Newham,Music rehearsal studios,E09000025,11/27/2022
,www.shapescollective.com,Fold,,,Gillian House,Stephenson Street,,,,0.005805652016585836,539151.3509067968,51.51882520582024,181949.99157249928,Newham,Music venues (all),E09000025,11/27/2022
Newham,,The Beckton Arms,46004744,E09000025,Beckton Road Newham,,,Canning Town North,E05000477,0.0167314688437794,539916.000122197,51.516623300875864,181726.00012149662,Newham,Music venues (all),E09000025,11/27/2022
Newham,,Cody Dock,10090328328,E09000025,11c South Crescent,Newham,,Canning Town North,E05000477,-0.0005748814911926129,538710.000122197,51.518412606977996,181892.00012149662,Newham,Music venues (all),E09000025,11/27/2022
Newham,,Arch 1,10023994435,E09000025,Unit 1 The Arches,Cranberry Lane,Newham,Canning Town North,E05000477,0.006418797028603609,539183.000122197,51.52239429278653,182348.00012149662,Newham,Music venues (all),E09000025,11/27/2022
Newham,www.denmarkarms.co.uk,Denmark Arms,46003762,E09000025,381 Barking Road,Newham,,East Ham Central,E05000480,0.05560007246066208,542562.000122197,51.53273977717561,183593.00012149662,Newham,Music venues (all),E09000025,11/27/2022
Newham,,The View Tube,10023996691,E09000025,Pudding Mill Lane Newham,,,Stratford And New Town,E05000492,-0.011550247396679161,537899.000122197,51.534841815625064,183698.00012149662,Newham,Music venues (all),E09000025,11/27/2022
Newham,www.london-stadium.com,London Stadium,10014035637,E09000025,Olympic Stadium Newham,,,Stratford And New Town,E05000492,-0.014810669804303732,537663.000122197,51.53812577355489,184057.00012149662,Newham,Music venues (all),E09000025,11/27/2022
Newham,www.kingeddies.co.uk,King Edward Vii,10008984119,E09000025,47 Broadway,Newham,,Stratford And New Town,E05000492,0.004593553915245595,539001.000122197,51.54057479101626,184366.00012149662,Newham,Music venues (all),E09000025,11/27/2022
Newham,www.railwaytavernhotel.co.uk,The Railway Tavern,46001911,E09000025,131 Angel Lane,Newham,,Stratford And New Town,E05000492,0.0017402045774086807,538791.000122197,51.54457174774937,184805.00012149662,Newham,Music venues (all),E09000025,11/27/2022
Newham,www.foresttavern.com,Forest Tavern,10008986026,E09000025,173 Forest Lane,Newham,,Forest Gate North,E05000483,0.02599994001743086,540458.000122197,51.54940754859543,185389.00012149662,Newham,Music venues (all),E09000025,11/27/2022
,www.shapescollective.com,Fold,,,Gillian House,Stephenson Street,,,,0.005805652016585836,539151.3509067968,51.51882520582024,181949.99157249928,Newham,Music venues (grassroots),E09000025,11/27/2022
Newham,https://www.studiomeno.com,Studio Meno Ltd,10008994852,E09000025,Napier Works,Napier Road,,Wall End,E05000493,0.06354817471119713,543121.0001221001,51.530243832067185,183331.00012210011,Newham,Prop and costume making,E09000025,11/27/2022
Newham,,Blakesley Arms,,E09000025,53 Station Road,Manor Park,London,Manor Park,E05000488,0.04846553062384746,542010.0001221001,51.55112189961059,185623.00012210011,Newham,Pubs,E09000025,11/27/2022
Newham,,Golden Fleece,,E09000025,166 Capel Road,Manor Park,London,Manor Park,E05000488,0.04668310151371572,541877.0001221001,51.55415691718716,185957.00012210011,Newham,Pubs,E09000025,11/27/2022
Newham,,Black Lion,,E09000025,59-61 High Street,Plaistow,London,Plaistow North,E05000489,0.022348921443454763,540263.0001221001,51.53051181232986,183281.00012210011,Newham,Pubs,E09000025,11/27/2022
Newham,,Victoria Tavern,,E09000025,28 High Street,Plaistow,London,Plaistow North,E05000489,0.023454179690310703,540343.0001221001,51.52942249523055,183162.00012210011,Newham,Pubs,E09000025,11/27/2022
Newham,,Lamb,,E09000025,85 Pelly Road,Plaistow,London,Plaistow North,E05000489,0.02326294793224728,540318.0001221001,51.53323913278782,183586.00012210011,Newham,Pubs,E09000025,11/27/2022
Newham,,Red House,,E09000025,299 Barking Road,Plaistow,London,Canning Town North,E05000477,0.019438556663421803,540094.0001221001,51.5198144588202,182086.00012210011,Newham,Pubs,E09000025,11/27/2022
Newham,,Charlie's Bar,,E09000025,247 Barking Road,Plaistow,,Canning Town North,E05000477,0.019438556663421803,540094.0001221001,51.5198144588202,182086.00012210011,Newham,Pubs,E09000025,11/27/2022
Newham,,Abbey,,E09000025,384 Barking Road,Plaistow,London,Canning Town South,E05000478,0.022444660976434685,540300.0001221001,51.52063504667454,182183.00012210011,Newham,Pubs,E09000025,11/27/2022
Newham,,Army & Navy,,E09000025,36 New Barn Street,Plaistow,London,Canning Town South,E05000478,0.024753070805462424,540459.0001221001,51.52099993170429,182228.00012210011,Newham,Pubs,E09000025,11/27/2022
Newham,,Lord Stanley,,E09000025,15 St Mary's Road,Plaistow,London,Plaistow North,E05000489,0.026303615453039622,540536.0001221001,51.53092021987025,183334.00012210011,Newham,Pubs,E09000025,11/27/2022
Newham,,Queens,,E09000025,410 Green Street,Plaistow,London,Boleyn,E05000476,0.0368690619440415,541260.0001221001,51.533732115793796,183667.00012210011,Newham,Pubs,E09000025,11/27/2022
Newham,,Builders Arms,,E09000025,302 High Street,Stratford,London,Stratford and New Town,E05000492,-0.00016216331330972712,538679.0001221001,51.538029817691374,184074.00012210011,Newham,Pubs,E09000025,11/27/2022
Newham,,Railway Tavern,,E09000025,131 Angel Lane,Stratford,London,Stratford and New Town,E05000492,0.0017402045762505613,538791.0001221001,51.54457174775482,184805.00012210011,Newham,Pubs,E09000025,11/27/2022
Newham,,Bar One,,E09000025,7-9 Leytonstone Road,Stratford,London,Stratford and New Town,E05000492,0.007098495877616179,539157.0001221001,51.54636885529695,185015.00012210011,Newham,Pubs,E09000025,11/27/2022
Newham,,Eagle,,E09000025,157 Chobham Road,Stratford,London,Stratford and New Town,E05000492,0.001146462444302714,538737.0001221001,51.5487909184965,185273.00012210011,Newham,Pubs,E09000025,11/27/2022
Newham,,Sportsman,,E09000025,78-102 The Broadway,Stratford,London,Stratford and New Town,E05000492,0.003523512624749741,538925.0001221001,51.541168669727284,184430.00012210011,Newham,Pubs,E09000025,11/27/2022
Newham,,Goldengrove,,E09000025,146-148 The Grove,Stratford,London,Stratford and New Town,E05000492,0.00564752276654236,539065.0001221001,51.543551670704346,184699.00012210011,Newham,Pubs,E09000025,11/27/2022
Newham,,012 Bar & Grill,,E09000025,108-110 The Grove,Stratford,London,Stratford and New Town,E05000492,0.00564752276654236,539065.0001221001,51.543551670704346,184699.00012210011,Newham,Pubs,E09000025,11/27/2022
Newham,,Cart & Horses,,E09000025,1 Maryland Point,Stratford,London,Stratford and New Town,E05000492,0.005913159957848887,539078.0001221001,51.54532787748472,184897.00012210011,Newham,Pubs,E09000025,11/27/2022
Newham,,Carpenters Arms,,E09000025,17 Carpenters Road,Stratford,London,Stratford and New Town,E05000492,-0.003878707802573556,538424.0001221001,51.53713979746257,183968.00012210011,Newham,Pubs,E09000025,11/27/2022
Newham,,Britannia,,E09000025,2 Plaistow Grove,Stratford,London,West Ham,E05000494,0.014339364442055086,539698.0001221001,51.53362657041236,183612.00012210011,Newham,Pubs,E09000025,11/27/2022
Newham,,City View Hotel,,E09000025,11 Church Street,Stratford,London,West Ham,E05000494,0.00918171005462958,539334.0001221001,51.53570264652668,183833.00012210011,Newham,Pubs,E09000025,11/27/2022
Newham,,King Edward VII,,E09000025,47 The Broadway,Stratford,London,Stratford and New Town,E05000492,0.00422614685552646,538976.0001221001,51.540419183330556,184348.00012210011,Newham,Pubs,E09000025,11/27/2022
Newham,,Olde Black Bull,,E09000025,13 Broadway,Stratford,London,Stratford and New Town,E05000492,0.00422614685552646,538976.0001221001,51.540419183330556,184348.00012210011,Newham,Pubs,E09000025,11/27/2022
Newham,,Refreshment Room,,E09000025,27 The Broadway,Stratford,London,Stratford and New Town,E05000492,0.00422614685552646,538976.0001221001,51.540419183330556,184348.00012210011,Newham,Pubs,E09000025,11/27/2022
Newham,,Secret Weapon,,E09000025,25 West Ham Lane,Stratford,London,Stratford and New Town,E05000492,0.005734992912506064,539085.0001221001,51.53898138184708,184191.00012210011,Newham,Pubs,E09000025,11/27/2022
Newham,,Queens Head,,E09000025,5 West Ham Lane,Stratford,London,Stratford and New Town,E05000492,0.005734992912506064,539085.0001221001,51.53898138184708,184191.00012210011,Newham,Pubs,E09000025,11/27/2022
Newham,,Greyhound,,E09000025,136 West Ham Lane,Stratford,London,West Ham,E05000494,0.00723561360784213,539195.0001221001,51.53703106021221,183977.00012210011,Newham,Pubs,E09000025,11/27/2022
Newham,,Abbey Tap,,E09000025,14 The Broadway,Stratford,London,Stratford and New Town,E05000492,0.0019421763152160508,538819.0001221001,51.53997252966082,184294.00012210011,Newham,Pubs,E09000025,11/27/2022
Newham,,Fox @ Excel,,E09000025,"Warehouse 'K', Mace Gateway",Royal Docks,Canning Town,Canning Town South,E05000478,0.02660217202609877,540626.0001221001,51.50842171151282,180833.00012210011,Newham,Pubs,E09000025,11/27/2022
Newham,,Streeties,,E09000025,15 Shirley Street,Royal Docks,Canning Town,Canning Town South,E05000478,0.013415077927214783,539699.0001221001,51.512354302528024,181245.00012210011,Newham,Pubs,E09000025,11/27/2022
Newham,,Fox @ Connaught,,E09000025,Lynx Way,Royal Docks,Canning Town,Custom House,E05000479,0.04105208846933233,541629.0001221001,51.50828800065991,180846.00012210011,Newham,Pubs,E09000025,11/27/2022
Newham,,Beckton Arms,,E09000025,1 Beckton Road,Royal Docks,Canning Town,Canning Town North,E05000477,0.015759518424436913,539848.0001221001,51.51681089303057,181745.00012210011,Newham,Pubs,E09000025,11/27/2022
Newham,,Husk Brewing Taproom,,E09000025,"58A Railway Arches, North Woolwich Road",Royal Docks,,Royal Docks,E05000491,0.02021830782738036,540197.0001221001,51.50388210011269,180316.00012210011,Newham,Pubs,E09000025,11/27/2022
Newham,,Henley Arms,,E09000025,268 Albert Road,Royal Docks,London,Royal Docks,E05000491,0.059931994637186174,542964.0001221001,51.500286131885346,179993.00012210011,Newham,Pubs,E09000025,11/27/2022
Newham,,Royal Standard Hotel,,E09000025,116 Albert Road,Royal Docks,London,Royal Docks,E05000491,0.06517712908868034,543330.0001221001,51.49964524136465,179932.00012210011,Newham,Pubs,E09000025,11/27/2022
Newham,,Brick Lane Brews,,E09000025,"Gate 2B Airside, London City Airport,Westside Pier",Custom House,,Royal Docks,E05000491,0.04803522400704046,542128.0001221001,51.50363337217436,180342.00012210011,Newham,Pubs,E09000025,11/27/2022
Newham,,Reach Bar,,E09000025,"Gallions Hotel, Albert Basin Way",Royal Docks,,Beckton,E05000475,0.07529993824454212,544013.0001221001,51.505825140635004,180639.00012210011,Newham,Pubs,E09000025,11/27/2022
Newham,,Custom House (Pub & Kitchen),,E09000025,272-283 Victoria Dock Road,Royal Docks,Custom House,Custom House,E05000479,0.029641620479574284,540833.0001221001,51.50968223017596,180979.00012210011,Newham,Pubs,E09000025,11/27/2022
Newham,,Princess Alexandra,,E09000025,219 Barking Road,London,,Canning Town North,E05000477,0.016984028906165655,539927.0001221001,51.51875047190584,181963.00012210011,Newham,Pubs,E09000025,11/27/2022
Newham,,Durham Arms,,E09000025,24 Stephenson Street,London,,Canning Town North,E05000477,0.005325031550580625,539119.0001221001,51.518500734763684,181913.00012210011,Newham,Pubs,E09000025,11/27/2022
Newham,,Neighbourhood,,E09000025,52–54 Celebration Avenue,Stratford,East Village,Stratford and New Town,E05000492,-0.006319484608239646,538225.0001221001,51.54695743202363,185055.00012210011,Newham,Pubs,E09000025,11/27/2022
Newham,,Tap East,,E09000025,"Montfichet Road, 7 International Square",Westfield Stratford City,London,Stratford and New Town,E05000492,-0.007273556056994059,538169.0001221001,51.54361001319485,184681.00012210011,Newham,Pubs,E09000025,11/27/2022
Newham,,Bat & Ball,,E09000025,"Unit 1110/1111, Westfield Centre",Stratford City,London,Stratford and New Town,E05000492,-0.00472546864322595,538345.0001221001,51.543827512465,184710.00012210011,Newham,Pubs,E09000025,11/27/2022
Newham,,Bumpkin,,E09000025,105-106 The Street,Stratford,,Stratford and New Town,E05000492,-0.005952655986686174,538264.0001221001,51.542481343500185,184558.00012210011,Newham,Pubs,E09000025,11/27/2022
Newham,,Cow,,E09000025,4 Chestnut Plaza,Westfield Stratford City,London,Stratford and New Town,E05000492,-0.005713271236940426,538282.0001221001,51.54201859634822,184507.00012210011,Newham,Pubs,E09000025,11/27/2022
Newham,,Denmark Arms,,E09000025,381 Barking Road,East Ham,London,East Ham Central,E05000480,0.05431751082393791,542474.0001221001,51.53243847433686,183557.00012210011,Newham,Pubs,E09000025,11/27/2022
Newham,,Boleyn Tavern,,E09000025,1 Barking Road,East Ham,London,Boleyn,E05000476,0.04076053169954857,541541.0001221001,51.53013892016741,183275.00012210011,Newham,Pubs,E09000025,11/27/2022
Newham,,Overdraft Tavern,,E09000025,200-202 High Street,East Ham,London,East Ham Central,E05000480,0.05311837870633766,542372.0001221001,51.53847629422814,184226.00012210011,Newham,Pubs,E09000025,11/27/2022
Newham,,Miller's Well,,E09000025,419-421 Barking Road,East Ham,London,East Ham Central,E05000480,0.0584252330162646,542757.0001221001,51.533031989417296,183631.00012210011,Newham,Pubs,E09000025,11/27/2022
Newham,,Tollgate Tavern,,E09000025,"16 Mary Rose Mall, Frobisher Road",Beckton,London,Beckton,E05000475,0.05939403972982711,542884.0001221001,51.51392118966175,181508.00012210011,Newham,Pubs,E09000025,11/27/2022
Newham,,Red Lion,,E09000025,80 High Street South,East Ham,London,East Ham Central,E05000480,0.05720960648406541,542682.0001221001,51.530058394963305,183298.00012210011,Newham,Pubs,E09000025,11/27/2022
Newham,,Winsor House,,E09000025,Winsor Terrace,East Ham,London,Beckton,E05000475,0.06901314726621019,543549.0001221001,51.51466023660745,181609.00012210011,Newham,Pubs,E09000025,11/27/2022
Newham,,Forest Gate Hotel,,E09000025,105 Godwin Road,Forest Gate,London,Forest Gate North,E05000483,0.03547180033924774,541103.0001221001,51.55315583123427,185824.00012210011,Newham,Pubs,E09000025,11/27/2022
Newham,,Rising Sun,,E09000025,528 Romford Road,Forest Gate,London,Manor Park,E05000488,0.038695191298019536,541344.0001221001,51.54748777432891,185200.00012210011,Newham,Pubs,E09000025,11/27/2022
Newham,,Fox & Hounds,,E09000025,178 Forest Lane,Forest Gate,London,Forest Gate North,E05000483,0.02378260071749183,540306.0001221001,51.54885224156623,185323.00012210011,Newham,Pubs,E09000025,11/27/2022
Newham,,Forest Tavern,,E09000025,173 Forest Lane,Forest Gate,London,Forest Gate North,E05000483,0.02378260071749183,540306.0001221001,51.54885224156623,185323.00012210011,Newham,Pubs,E09000025,11/27/2022
Newham,,Hudson Bay,,E09000025,1-5 Upton Lane,Forest Gate,London,Forest Gate South,E05000484,0.027931063556719336,540607.0001221001,51.544499588726346,184847.00012210011,Newham,Pubs,E09000025,11/27/2022
Newham,,Frankie & Benny's,,E09000025,"Unit 1, Jenkins Lane",Barking,,Beckton,E05000475,0.07962275564018359,544256.0001221001,51.5238441089296,182651.00012210011,Newham,Pubs,E09000025,11/27/2022
Newham,https://www.block9.com,Block 9 ,10008985422,E09000025,The Silver Building,60 Dock Road,,Royal Docks,E05000491,0.0187357798175329,540093.0001221001,51.504249396137105,180354.00012210011,Newham,Set and exhibition building,E09000025,11/27/2022
Newham,http://www.mcdougall.co.uk/,J.D. McDougall Ltd,46255499,E09000025,4 McGrath Road,,,Forest Gate South,E05000484,0.014122057448988612,539645.0001221001,51.54601462688733,184989.00012210011,Newham,Set and exhibition building,E09000025,11/27/2022
Newham,https://riggingservices.co.uk,Rigging Services,10009018097,E09000025,3 Mills Studios,Three Mill Lane,,Stratford and New Town,E05000492,-0.0046830476525696755,538401.0001221001,51.526334077901325,182765.00012210011,Newham,Set and exhibition building,E09000025,11/27/2022
Newham,https://www.studiomeno.com,Studio Meno Ltd,10008994852,E09000025,Napier Works,Napier Road,,Wall End,E05000493,0.06354817471119713,543121.0001221001,51.530243832067185,183331.00012210011,Newham,Set and exhibition building,E09000025,11/27/2022
Newham,https://www.newham.ac.uk/subject-area/fashion-and-tailoring.html,Newham College,10009001155,E09000025,East Ham Campus,High Street South,,East Ham Central,E05000480,0.05646981661140099,542627.0001221001,51.53124055890853,183428.00012210011,Newham,Textile design,E09000025,11/27/2022
Newham,http://www.applecartarts.com/index.php,Applecart Arts Theatre,10012836969,E09000025,170 Harold Road,,,Green Street West,E05000486,0.027567994186604165,540501.1908556502,51.534187811332124,183753.41676305054,Newham,Theatre rehearsal studio,E09000025,11/27/2022
Newham,www.stratford-circus.com,Stratford Circus,10008991166,E09000025,Theatre Square,Stratford,,Stratford and New Town,E05000492,0.0014645615322592313,538664.6957961994,51.54293683256518,184676.30059858446,Newham,Theatre rehearsal studio,E09000025,11/27/2022
Newham,https://www.bricklanemusichall.co.uk/,Brick Lane Music Hall,10008988100,E09000025,443 North Woolwich Road,NA,NA,Royal Docks,E05000491,0.04118378843081843,541542.1684984616,51.502939622424655,180305.57366483222,Newham,Theatres,E09000025,11/27/2022
Newham,https://stratford-circus.com/,Stratford Circus Arts Centre,10008996899,E09000025,Theatre Square, Stratford,NA,Stratford and New Town,E05000492,-0.00015778421796739327,538550.6859620597,51.54344505535073,184729.7261434212,Newham,Theatres,E09000025,11/27/2022
Newham,http://www.stratfordeast.com/,Theatre Royal Stratford East,10009003230,E09000025,Gerry Raffles Square,NA,NA,Stratford and New Town,E05000492,-0.0006377019617914577,538518.703058555,51.54302209998728,184681.79348948208,Newham,Theatres,E09000025,11/27/2022
Newham,http://www.applecartarts.com/,Applecart Arts,10012836969,E09000025,170 Harold Rd,NA,NA,Plaistow North,E05000489,0.02597421832926133,540389.9778187049,51.53441802465949,183775.95276064973,Newham,Theatres,E09000025,11/27/2022
