borough_name,website,site_name,os_addressbase_uprn,borough_code,address1,address2,address3,ward_2018_name,ward_2018_code,longitude,easting,latitude,northing,BOROUGH,Cultural Venue Type,gss_code,runtime
Redbridge,https://www.cii.co.uk/,Chartered Insurance Institute,100023000000,E09000026,42-48 High Road,South Woodford,,South Woodford,E05011252,0.02265403617830677,539976.6349496037,51.593933325476364,190386.25399665145,Redbridge,Archives,E09000026,11/27/2022
Redbridge,http://www.valentinesmansion.com,,10034921528,E09000026,Valentines Mansion,Emerson Road,,Valentines,E05011253,0.06637715630924214,543072.8516451246,51.57210607681065,188044.29524841427,Redbridge,Artists workspaces,E09000026,11/27/2022
Redbridge,https://redbridgedramacentre.co.uk/RedbridgeDramaCentre.dll/Home,Redbridge Drama Centre ,100022987836,E09000026,Churchfields,South Woodford ,,Churchfields,E05011238,0.022659872980982022,539963.126887045,51.598452895907776,190888.73617861874,Redbridge,Arts centres,E09000026,11/27/2022
Redbridge,,Cineworld Illford,010034911858,E09000026,,Clements Rd,,Ilford Town,E05011246,0.07628429430137075,543918.5200805962,51.55740238535994,186375.70007319748,Redbridge,Cinemas,E09000026,11/27/2022
Redbridge,,Odeon South Woodford,010034922603,E09000026,,60-64 High Road,,South Woodford,E05011252,0.024795277495520216,540237.0001221001,51.59405494055922,190351.00012210011,Redbridge,Cinemas,E09000026,11/27/2022
Redbridge,,Odeon South Woodford,010034922603,E09000026,,60-64 High Road,,South Woodford,E05011252,0.024795277495520216,540237.0001221001,51.59405494055922,190351.00012210011,Redbridge,Cinemas,E09000026,11/27/2022
Redbridge,,Tiptree Community Hall | Clayhall,10023771023,E09000026,Tiptree Crescent,Redbridge,NA,Fullwell,E05000504,0.0705382302013211,543417.2600707933,51.5901118712134,190001.3300780952,Redbridge,Community centres,E09000026,11/27/2022
Redbridge,,Etteridge Hall,10090505113,E09000026,Ray Lodge Road,Redbridge,NA,Bridge,E05000497,0.04421255161169568,541540.370117195,51.60734564576261,191866.2200927958,Redbridge,Community centres,E09000026,11/27/2022
Redbridge,,The Parkside Community Centre,100023050425,E09000026,176 Goodmayes Lane,Redbridge,NA,Mayfield,E05000508,0.10872448965620658,546184.0001221001,51.552068681194086,185847.00012210011,Redbridge,Community centres,E09000026,11/27/2022
Redbridge,http://www.hfca-uk.com/,Hainault Forest Community Association,100023581966,E09000026,100 Manford Way,Redbridge,NA,Hainault,E05000506,0.10604818996526275,545821.7000731975,51.607254832377656,191977.70007319748,Redbridge,Community centres,E09000026,11/27/2022
Redbridge,,The Cranbrook Centre,10093036807,E09000026,Cranbrook Road,Redbridge,NA,Cranbrook,E05000502,0.07282155978364359,543650.0001221001,51.56645107375827,187375.00012210011,Redbridge,Community centres,E09000026,11/27/2022
Redbridge,https://find.redbridge.gov.uk/kb5/redbridge/fsd/service.page?id=6FPrv9bGDvA&familychannel=1_5_2,Loxford Community Corner,100023043938,E09000026,40 Loxford Lane,Redbridge,NA,Loxford,E05000507,0.08319869319200926,544432.4100952,51.5464589410309,185172.55010989308,Redbridge,Community centres,E09000026,11/27/2022
Redbridge,,Wanstead House Community Association,100022259565,E09000026,21 The Green, London ,NA,Wanstead,E05000515,0.030770633028992442,540713.6301269978,51.57371989987879,188101.44012449682,Redbridge,Community centres,E09000026,11/27/2022
Redbridge,www.kmtheatre.co.uk/hire-us/,Kenneth More Theatre,100023043000,E09000026,Kenneth More Road,,,Ilford Town,E05011246,0.07524058428155188,543729.2793140266,51.55867744085837,186568.74885696132,Redbridge,Dance performance venues,E09000026,11/27/2022
Redbridge,http://www.isaacnewtonacademy.org,Isaac Newton Academy,10090503930,E09000026,1 Crickleford Place,,,Ilford Town,E05011246,0.09160272554695643,544853.1860198672,51.56180574371861,186948.84234406357,Redbridge,Dance rehearsal studios,E09000026,11/27/2022
Redbridge,www.kmtheatre.co.uk/hire-us/,Kenneth More Theatre,100023043000,E09000026,Kenneth More Road,,,Ilford Town,E05011246,0.07524058428155188,543729.2793140266,51.55867744085837,186568.74885696132,Redbridge,Dance rehearsal studios,E09000026,11/27/2022
Redbridge,http://www.pronto-digital.com/,Pronto (London) UK Ltd,1.00022E+11,E09000026,2 Washington Road,,,Church End,E05000499,0.016305372878083216,539534.2439563966,51.59483931022773,190474.83077030414,Redbridge,Fashion and design,E09000026,11/27/2022
Redbridge,,Antony M Specterman Limited,10034923239,E09000026,The Retreat,406a Roding Lane South,,Clayhall,E05011239,0.04730456076931065,541807.0001221001,51.59047161806848,189996.00012210011,Redbridge,Jewellery design,E09000026,11/27/2022
Redbridge,http://www.carlojewellers.com,Carlo Jewellers Ltd,100023583604,E09000026,Hunter House,109 Snakes Lane,,Monkhams,E05011249,0.03390564001649852,540829.0001221001,51.60663238206124,191767.00012210011,Redbridge,Jewellery design,E09000026,11/27/2022
Redbridge,,Carriage Jewellery Ltd,100023049478,E09000026,54 New Road,Seven Kings,,Goodmayes,E05011244,0.09708383665438562,545349.0001221001,51.56088442387659,186804.00012210011,Redbridge,Jewellery design,E09000026,11/27/2022
Redbridge,,Eman Ventures Ltd,100023046417,E09000026,"161, Ley Street, Ilford, Essex",161 Ley Street,,Ilford Town,E05011246,0.07862506551418309,544068.0001221001,51.561437800074664,186829.00012210011,Redbridge,Jewellery design,E09000026,11/27/2022
Redbridge,,KHU KHU Limited,10023769904,E09000026,Treviot House,186-192 High Road,,Ilford Town,E05011246,0.07768525598160171,544011.0001221001,51.5588642482536,186541.00012210011,Redbridge,Jewellery design,E09000026,11/27/2022
Redbridge,,Lol Jewellery Limited,100023051842,E09000026,117 Fencepiece Road,Ilford,,Fairlop,E05011242,0.08554962260188242,544420.0001221001,51.601750728123115,191325.00012210011,Redbridge,Jewellery design,E09000026,11/27/2022
Redbridge,,Muller & Carter Limited,10093036970,E09000026,Suite 4,Cranbook House,,Valentines,E05011253,0.07100567649935433,543545.0001221001,51.5598367705553,186636.00012210011,Redbridge,Jewellery design,E09000026,11/27/2022
Redbridge,http://www.lancejames.co.uk,Multiple businesses ,10034923180,E09000026,Priestley House,Priestley Gardens,,Seven Kings,E05011251,0.11844704696472919,546792.0001221001,51.57253426873604,188142.00012210011,Redbridge,Jewellery design,E09000026,11/27/2022
Redbridge,,Watches International Limited,100023583039,E09000026,Unit 17,Bourne Court,,Clayhall,E05011239,0.045624123628932915,541691.0001221001,51.590348033798236,189979.00012210011,Redbridge,Jewellery design,E09000026,11/27/2022
Redbridge,,Uphall School Library,100023043973,E09000026,Uphall Road,Ilford,,Loxford,E05011247,0.07376153370784565,543775.0001221001,51.54746663789085,185266.00012210011,Redbridge,Libraries,E09000026,11/27/2022
Redbridge,,Redbridge Central Library,100023043071,E09000026,Clements Road,Ilford,,Ilford Town,E05011246,0.07693303918424754,543963.0001221001,51.557555486957405,186394.00012210011,Redbridge,Libraries,E09000026,11/27/2022
Redbridge,,Goodmayes Library,100023050383,E09000026,Goodmayes Lane,Ilford,,Mayfield,E05011248,0.11059999201213912,546292.1000976935,51.55889344242594,186609.5800780952,Redbridge,Libraries,E09000026,11/27/2022
Redbridge,,Aldersbrook Library,100023583395,E09000026,Park Road,,,Wanstead Park,E05011254,0.034606393193318145,541013.0001221001,51.56285706081323,186901.00012210011,Redbridge,Libraries,E09000026,11/27/2022
Redbridge,,Seven Kings Library,10034922466,E09000026,High Road,Ilford,,Seven Kings,E05011251,0.10146687046961476,545642.0001221001,51.56425060468767,187187.00012210011,Redbridge,Libraries,E09000026,11/27/2022
Redbridge,,Wanstead Library,100022960264,E09000026,Spratt Hall Road,,,Wanstead Village,E05011255,0.026895284042304967,540440.0001221001,51.575383831320906,188279.00012210011,Redbridge,Libraries,E09000026,11/27/2022
Redbridge,,Keith Axon Library,10090503264,E09000026,Grove Road,Romford,,Chadwell,E05011237,0.12292914859311357,547098.2100829929,51.57387615545674,188300.2100829929,Redbridge,Libraries,E09000026,11/27/2022
Redbridge,,Gants Hill Library,10034912233,E09000026,Cranbrook Road,Ilford,,Barkingside,E05011235,0.0716763661593868,543537.0001221001,51.57712887251374,188560.00012210011,Redbridge,Libraries,E09000026,11/27/2022
Redbridge,,Clayhall Library,100023051395,E09000026,Claybury Broadway,Ilford,,Clayhall,E05011239,0.0510569850657872,542069.0001221001,51.58979451570923,189928.00012210011,Redbridge,Libraries,E09000026,11/27/2022
Redbridge,,Fullwell Cross Library,10013585783,E09000026,High Street,Ilford,,Fairlop,E05011242,0.08689642005347464,544542.0001221001,51.59269709392773,190321.00012210011,Redbridge,Libraries,E09000026,11/27/2022
Redbridge,,South Woodford Library and Gym,10034922615,E09000026,High Road,,,Churchfields,E05011238,0.023571197741990742,540144.3001098931,51.59663024907063,190635.00012210011,Redbridge,Libraries,E09000026,11/27/2022
Redbridge,,Woodford Green Library,200001843478,E09000026,Snakes Lane West,Woodford Green,,Monkhams,E05011249,0.03395499335138501,540831.0001221001,51.60709020205249,191818.00012210011,Redbridge,Libraries,E09000026,11/27/2022
Redbridge,,Hainault Library,10034923013,E09000026,Manford Way,Chigwell,,Hainault,E05011245,0.10576666858012246,545801.3001098931,51.60753868990425,192008.70007319748,Redbridge,Libraries,E09000026,11/27/2022
Redbridge,redbridgefirstworldwar.org.uk,Redbridge Museum,10091799736,E09000026,Redbridge Central Library,Clements Road,lford,Ilford Town,E05011246,0.07693303918424754,543963.0001221001,51.557555486957405,186394.00012210011,Redbridge,Museums and public galleries,E09000026,11/27/2022
Redbridge,,Rnc Records Ltd,100000000000,E09000026,10 Abbotsford Road,Redbridge,,Goodmayes,E05011244,0.11222288365518591,546402.0001222938,51.55969543851414,186702.00012139976,Redbridge,Music (office based businesses),E09000026,11/27/2022
Redbridge,,Erra Records Ltd,100000000000,E09000026,45 Kenwood Gardens,Redbridge,,Barkingside,E05011235,0.07126034769012589,543496.0001222938,51.58099452342001,188989.00012149662,Redbridge,Music (office based businesses),E09000026,11/27/2022
Redbridge,,Fidelity Records Ltd,100000000000,E09000026,69 Campbell Avenue,Redbridge,,Barkingside,E05011235,0.08118650518021622,544183.0001222938,51.581187612760864,189030.00012149662,Redbridge,Music (office based businesses),E09000026,11/27/2022
Redbridge,,Basildon Studios Ltd,100000000000,E09000026,5 Chigwell Road,Redbridge,,South Woodford,E05011252,0.032781252455915816,540805.000122197,51.58922217975895,189829.00012149662,Redbridge,Music (office based businesses),E09000026,11/27/2022
Redbridge,,Gold Coast Army Records Ltd,100000000000,E09000026,27 Kingsley Road,Redbridge,,Fairlop,E05011242,0.08413823706321916,544335.0001222938,51.59773762832002,190876.00012149662,Redbridge,Music (office based businesses),E09000026,11/27/2022
Redbridge,www.oneills.co.uk/national-search/london/ilford,O'neills,10034926974,E09000026,Station Road Redbridge,,,Ilford Town,E05011246,0.07242447185214188,543648.0001222938,51.55835472657465,186474.00012149662,Redbridge,Music venues (all),E09000026,11/27/2022
Redbridge,www.princeofwales-ilford.co.uk,Prince Of Wales,100000000000,E09000026,63 Green Lane,Redbridge,,Ilford Town,E05011246,0.08762968307634107,544701.0001222938,51.558615743123774,186533.00012139976,Redbridge,Music venues (all),E09000026,11/27/2022
Redbridge,www.thenightingalewanstead.com,Nightingale,100000000000,E09000026,51 Nightingale Lane,Redbridge,,Wanstead Village,E05011255,0.030052188871685107,540641.000122197,51.581121172226055,188923.00012149662,Redbridge,Music venues (all),E09000026,11/27/2022
Redbridge,www.thedukewanstead.com,The Duke,100000000000,E09000026,79 Nightingale Lane,Redbridge,,Wanstead Village,E05011255,0.029433513087827944,540595.000122197,51.582139165226685,189035.00012149662,Redbridge,Music venues (all),E09000026,11/27/2022
Redbridge,,Railway Bell,10034917375,E09000026,87 George Lane,Redbridge,,South Woodford,E05011252,0.02956277416308606,540575.000122197,51.59151731242589,190078.00012149662,Redbridge,Music venues (all),E09000026,11/27/2022
Redbridge,www.craft-pubs.co.uk/georgesouthwoodford,George,10034932897,E09000026,70 High Road,Redbridge,,South Woodford,E05011252,0.02418363592231058,540194.000122197,51.59426335316952,190373.00012149662,Redbridge,Music venues (all),E09000026,11/27/2022
Redbridge,www.classicinns.co.uk/thecrownandcrookedbilletwoodfordgreen,Crown & Crooked Billet,100000000000,E09000026,13 Cross Road,Redbridge,,Bridge,E05011236,0.06270072475189531,542822.0001222938,51.606822300532976,191844.00012149662,Redbridge,Music venues (all),E09000026,11/27/2022
Redbridge,,Eagle,,E09000026,73 Hollybush Hill,Wanstead,Snaresbrook,Wanstead Village,E05011255,0.022324368896540936,540101.0001221001,51.582639647872355,189077.00012210011,Redbridge,Pubs,E09000026,11/27/2022
Redbridge,,Cuckfield,,E09000026,31 High Street,Wanstead,London,Wanstead Village,E05011255,0.02599468345353044,540366.0001221001,51.579149744629746,188696.00012210011,Redbridge,Pubs,E09000026,11/27/2022
Redbridge,,Duke,,E09000026,79 Nightingale Lane,Wanstead,London,Wanstead Village,E05011255,0.029689160856668815,540614.0001221001,51.58172103460679,188989.00012210011,Redbridge,Pubs,E09000026,11/27/2022
Redbridge,,Nightingale on the Green,,E09000026,51 Nightingale Lane,Wanstead,London,Wanstead Village,E05011255,0.029689160856668815,540614.0001221001,51.58172103460679,188989.00012210011,Redbridge,Pubs,E09000026,11/27/2022
Redbridge,,Luppolo,,E09000026,36-38 High Street Wanstead,Wanstead,London,Wanstead Village,E05011255,0.02894570101750716,540581.0001221001,51.575726124468325,188321.00012210011,Redbridge,Pubs,E09000026,11/27/2022
Redbridge,,George,,E09000026,159 High Street Wanstead,Wanstead,London,Wanstead Village,E05011255,0.029551451979869636,540622.0001221001,51.5760394195052,188357.00012210011,Redbridge,Pubs,E09000026,11/27/2022
Redbridge,,Manor House,,E09000026,129 High St,Wanstead,,Wanstead Village,E05011255,0.029551451979869636,540622.0001221001,51.5760394195052,188357.00012210011,Redbridge,Pubs,E09000026,11/27/2022
Redbridge,,William The Conqueror,,E09000026,628-630 Romford Road,Manor Park,London,Wanstead Park,E05011254,0.038639897912070155,541295.0001221001,51.562058546169766,186820.00012210011,Redbridge,Pubs,E09000026,11/27/2022
Redbridge,,Lizard Lounge,,E09000026,186-188 George Lane,South Woodford,London,South Woodford,E05011252,0.02620694270181969,540337.0001221001,51.593329069035235,190273.00012210011,Redbridge,Pubs,E09000026,11/27/2022
Redbridge,,Slug & Lettuce,,E09000026,184 George Lane,South Woodford,London,South Woodford,E05011252,0.02620694270181969,540337.0001221001,51.593329069035235,190273.00012210011,Redbridge,Pubs,E09000026,11/27/2022
Redbridge,,Railway Bell,,E09000026,87 George Lane,South Woodford,London,South Woodford,E05011252,0.029826885479826495,540594.0001221001,51.59128790268774,190053.00012210011,Redbridge,Pubs,E09000026,11/27/2022
Redbridge,,George,,E09000026,70-74 High Road,South Woodford,London,South Woodford,E05011252,0.024310463903586228,540207.0001221001,51.592894131995614,190221.00012210011,Redbridge,Pubs,E09000026,11/27/2022
Redbridge,,Frankie & Benny's,,E09000026,"Unit 1b, Iscene Leisure, Clements Road",Ilford,Ilford,Ilford Town,E05011246,0.07570157721041033,543879.0001221001,51.55712759642164,186344.00012210011,Redbridge,Pubs,E09000026,11/27/2022
Redbridge,,General Havelock,,E09000026,229 High Road / Hainault Street,Ilford,,Ilford Town,E05011246,0.07866260221992818,544077.0001221001,51.559413540297925,186604.00012210011,Redbridge,Pubs,E09000026,11/27/2022
Redbridge,,Prince Of Wales,,E09000026,63 Green Lane / Connaught Road,Ilford,,Ilford Town,E05011246,0.08823683918052991,544743.0001221001,51.55864091131093,186537.00012210011,Redbridge,Pubs,E09000026,11/27/2022
Redbridge,,Papermakers Arms,,E09000026,57 Roden Street,Ilford,,Loxford,E05011247,0.07145898350737462,543588.0001221001,51.5561593175702,186228.00012210011,Redbridge,Pubs,E09000026,11/27/2022
Redbridge,,Champs Sports Bar & Grill,,E09000026,19/21 Chapel Road / Clements Lane,Ilford,,Ilford Town,E05011246,0.07195940037095905,543619.0001221001,51.55732866092554,186359.00012210011,Redbridge,Pubs,E09000026,11/27/2022
Redbridge,,O'Neill's,,E09000026,Station Road,Ilford,,Ilford Town,E05011246,0.07286054611467666,543677.0001221001,51.55874274663826,186518.00012210011,Redbridge,Pubs,E09000026,11/27/2022
Redbridge,,Great Spoon Of Ilford,,E09000026,114/116 Cranbrook Road,Ilford,,Valentines,E05011253,0.07005292989595155,543473.0001221001,51.561733279194016,186845.00012210011,Redbridge,Pubs,E09000026,11/27/2022
Redbridge,,Jono's Bar,,E09000026,37 Cranbrook Road,Ilford,,Valentines,E05011253,0.07131073021575043,543568.0001221001,51.559246791089805,186571.00012210011,Redbridge,Pubs,E09000026,11/27/2022
Redbridge,,Sydney's,,E09000026,545 Cranbrook Road,Gants Hill,Ilford,Cranbrook,E05011241,0.06740887600301422,543247.0001221001,51.57533345585749,188352.00012210011,Redbridge,Pubs,E09000026,11/27/2022
Redbridge,,Visage 80s Bar,,E09000026,442-444 Cranbrook Road,Gants Hill,Ilford,Barkingside,E05011235,0.0691671827139118,543366.0001221001,51.5762288116913,188455.00012210011,Redbridge,Pubs,E09000026,11/27/2022
Redbridge,,King George V,,E09000026,645 Cranbrook Road,Gants Hill,Ilford,Barkingside,E05011235,0.07245865927417733,543589.0001221001,51.577825560467055,188639.00012210011,Redbridge,Pubs,E09000026,11/27/2022
Redbridge,,Miller & Carter Steakhouse Dick Turpin,,E09000026,Aldborough Road North,Aldborough Hatch,Ilford,Aldborough,E05011234,0.10435587741095645,545774.0001221001,51.58555901519913,189562.00012210011,Redbridge,Pubs,E09000026,11/27/2022
Redbridge,,O'Grady's Irish Bar,,E09000026,699 High Road,Seven Kings,Ilford,Seven Kings,E05011251,0.10273330859521686,545729.0001221001,51.56448873068965,187216.00012210011,Redbridge,Pubs,E09000026,11/27/2022
Redbridge,,Ash Grove,,E09000026,271 Green Lane / New Road,Seven Kings,Ilford,Goodmayes,E05011244,0.09674794014821973,545329.0001221001,51.55985614378576,186689.00012210011,Redbridge,Pubs,E09000026,11/27/2022
Redbridge,,Bridge House,,E09000026,62/64 Goodmayes Road / Ashgrove Road,Goodmayes,Ilford,Goodmayes,E05011244,0.11184505060456318,546358.0001221001,51.56524241866182,187318.00012210011,Redbridge,Pubs,E09000026,11/27/2022
Redbridge,,Red House [Beefeater],,E09000026,Redbridge Lane East,Redbridge,Ilford,Clayhall,E05011239,0.04638631966175177,541787.0001221001,51.57646648608508,188437.00012210011,Redbridge,Pubs,E09000026,11/27/2022
Redbridge,,Beehive [Harvester],,E09000026,Beehive Lane,Gants Hill,Ilford,Barkingside,E05011235,0.0612548205303576,542817.0001221001,51.57649400303376,188469.00012210011,Redbridge,Pubs,E09000026,11/27/2022
Redbridge,,Unicorn,,E09000026,225 Clayhall Avenue / Caterham Avenue,Clayhall,Woodford Green,Fullwell,E05011243,0.06570530284501695,543079.0001221001,51.59123735560719,190117.00012210011,Redbridge,Pubs,E09000026,11/27/2022
Redbridge,,New Fairlop Oak,,E09000026,Fencepiece Road,Barkingside,Fulwell Cross,Fairlop,E05011242,0.08660453944668717,544519.0001221001,51.59357467566441,190418.00012210011,Redbridge,Pubs,E09000026,11/27/2022
Redbridge,,Old Maypole,,E09000026,105 Fencepiece Road / Cleeves Walk,Barkingside,Ilford,Fairlop,E05011242,0.08567871985579929,544432.0001221001,51.600786106846066,191218.00012210011,Redbridge,Pubs,E09000026,11/27/2022
Redbridge,,Fairlop Waters (Dalton's & S/D),,E09000026,Forest Road,Barkingside,Ilford,Aldborough,E05011234,0.09960063490892325,545416.0001221001,51.59452102863556,190549.00012210011,Redbridge,Pubs,E09000026,11/27/2022
Redbridge,,Forester,,E09000026,107 Burrow Road,Hainault,Chigwell,Hainault,E05011245,0.11362442177528653,546331.0001221001,51.611986929204015,192519.00012210011,Redbridge,Pubs,E09000026,11/27/2022
Redbridge,,Travellers Friend,,E09000026,496-498 High Road,Woodford Green,Woodford Wells,Monkhams,E05011249,0.02733716128199617,540348.0001221001,51.61513708664726,192700.00012210011,Redbridge,Pubs,E09000026,11/27/2022
Redbridge,,Horse & Well,,E09000026,566/568 High Road,Woodford Green,Woodford Wells,Monkhams,E05011249,0.028569340114994464,540428.0001221001,51.6168515631677,192893.00012210011,Redbridge,Pubs,E09000026,11/27/2022
Redbridge,,Rose & Crown,,E09000026,31 Mill Lane,Woodford Green,,Monkhams,E05011249,0.02253673737238885,540034.0001221001,51.60919419075911,192030.00012210011,Redbridge,Pubs,E09000026,11/27/2022
Redbridge,,Miller & Carter Woodford Green,,E09000026,393-395 High Road,Woodford Green,,Monkhams,E05011249,0.02276892141753964,540051.0001221001,51.608893399690665,191997.00012210011,Redbridge,Pubs,E09000026,11/27/2022
Redbridge,,Railway Tavern,,E09000026,126 Snakes Lane East / West Grove,Woodford Green,,Bridge,E05011236,0.04035075998514195,541273.0001221001,51.607347917411865,191859.00012210011,Redbridge,Pubs,E09000026,11/27/2022
Redbridge,,La Sala,,E09000026,692-694 Chigwell Road,Woodford Bridge,Woodford Green,Bridge,E05011236,0.05702311379956548,542431.0001221001,51.60615749632688,191759.00012210011,Redbridge,Pubs,E09000026,11/27/2022
Redbridge,,Crown & Crooked Billet,,E09000026,13 Cross Road,Woodford Bridge,Woodford Green,Bridge,E05011236,0.06270072474934531,542822.0001221001,51.60682230053844,191844.00012210011,Redbridge,Pubs,E09000026,11/27/2022
Redbridge,,Toby Carvery Woodford Green,,E09000026,1 Southend Road / Roding Lane North,Clayhall,Woodford Green,Fullwell,E05011243,0.048958307074526385,541920.0001221001,51.59096438507962,190054.00012210011,Redbridge,Pubs,E09000026,11/27/2022
Redbridge,,Cricketers,,E09000026,299-301 High Road,Woodford Green,,Churchfields,E05011238,0.02053047172158851,539919.0001221001,51.60142228781529,191162.00012210011,Redbridge,Pubs,E09000026,11/27/2022
Redbridge,,Eva Hart,,E09000026,1128 High Road,Chadwell Heath,Romford,Chadwell,E05011237,0.13160747859814811,547712.0001221001,51.57001145786518,187888.00012210011,Redbridge,Pubs,E09000026,11/27/2022
Redbridge,,Greyhound [Harvester],,E09000026,900 High Road,Chadwell Heath,Romford,Chadwell,E05011237,0.12206349347222227,547057.0001221001,51.568061948191286,187652.00012210011,Redbridge,Pubs,E09000026,11/27/2022
Redbridge,https://www.covertexltd.co.uk,Cover-Tex Ltd,100023052049,E09000026,56-58 Fowler Road,,,Hainault,E05000506,0.12639885812822882,547227.0001221001,51.6083745095393,192143.00012210011,Redbridge,Textile design,E09000026,11/27/2022
Redbridge,http://www.pronto-digital.com/,Pronto (London) UK Ltd,100022260472,E09000026,2 Washington Road,,,Church End,E05000499,0.01790551824821308,539759.0001221001,51.59433550930775,190369.00012210011,Redbridge,Textile design,E09000026,11/27/2022
Redbridge,http://www.redbridgedramacentre.co.uk/,Redbridge Drama Centre,100023000000,E09000026,Churchfields, South Woodford,NA,Churchfields,E05011238,0.025399643869176123,540151.7866554954,51.598789500602805,190931.41484468378,Redbridge,Theatres,E09000026,11/27/2022
Redbridge,https://www.kmtheatre.co.uk/,Kenneth More Theatre,100023000000,E09000026,Oakfield Road, Ilford,NA,Ilford Town,E05011246,0.07101540572494508,543430.6606043054,51.560525556756566,186765.91268801014,Redbridge,Theatres,E09000026,11/27/2022
