borough_name,website,site_name,os_addressbase_uprn,borough_code,address1,address2,address3,ward_2018_name,ward_2018_code,longitude,easting,latitude,northing,BOROUGH,Cultural Venue Type,gss_code,runtime
Southwark,https://www.themdu.com/,Medical Defence Union,10000809744,E09000028,230 Blackfriars Road,,,Borough & Bankside,E05011095,-0.10400095875260895,531460.2623808631,51.50584065279232,180357.16923407663,Southwark,Archives,E09000028,11/27/2022
Southwark,https://www.arts.ac.uk/students/library-services/special-collections-and-archives/archives-and-special-collections-centre,University of the Arts London: University Archives and Special Collections,10000810907,E09000028,London College of Communication ,Elephant and Castle,,St. George's,E05011114,-0.10181813949227936,531643.2060673953,51.49491510290432,179146.3978456324,Southwark,Archives,E09000028,11/27/2022
Southwark,https://www.arts.ac.uk/colleges/london-college-of-communication,University of the Arts London: London College of Communication,10000810907,E09000028,Elephant and Castle,,,St. George's,E05011114,-0.10181813949227936,531643.2060673953,51.49491510290432,179146.3978456324,Southwark,Archives,E09000028,11/27/2022
Southwark,http://www.ciostrokeproject.co.uk/,Confederation of Indian Organisations (UK),10000813756,E09000028,5 Westminster Bridge Road,,,St. George's,E05011114,-0.10569174420911834,531364.271590901,51.49843095040856,179530.32135058346,Southwark,Archives,E09000028,11/27/2022
Southwark,http://www.kingscollections.org/catalogues/kclca/collection/u/10un50-1/,United Medical and Dental Schools: The Wills Library,10000816533,E09000028,Guy's Hospital London Bridge,,,London Bridge & West Bermondsey,E05011104,-0.08824991956746134,532560.0148080876,51.50345368730176,180120.2253974249,Southwark,Archives,E09000028,11/27/2022
Southwark,https://www.iwm.org.uk/collections/film,Imperial War Museum Film Archive,10000816541,E09000028,All Saints Building Austral Street,,,St. George's,E05011114,-0.10644452165379531,531323.275273232,51.494522265957514,179094.40390351153,Southwark,Archives,E09000028,11/27/2022
Southwark,https://www.iwm.org.uk/collections/photographs,Imperial War Museum Photograph Archive,10000816541,E09000028,All Saints Austral Street,,,St. George's,E05011114,-0.10644452165379531,531323.275273232,51.494522265957514,179094.40390351153,Southwark,Archives,E09000028,11/27/2022
Southwark,https://www.britishnewspaperarchive.co.uk/,News UK Archive,10090747871,E09000028,1 London Bridge Street,,,London Bridge & West Bermondsey,E05011104,-0.08771916921158429,532591.1112776196,51.505426317500564,180340.50319860457,Southwark,Archives,E09000028,11/27/2022
Southwark,https://cop.org.uk/,Society of Chiropodists and Podiatrists,10093339987,E09000028,1 Fellmonger's Path ,176 Tower Bridge Road,,London Bridge & West Bermondsey,E05011104,-0.07807426599114471,533274.8544175283,51.500436600261835,179803.28161313623,Southwark,Archives,E09000028,11/27/2022
Southwark,http://www.uspg.org.uk/news/newname/,United Society for the Propagation of the Gospel,200003000000,E09000028,Harling House ,47-51 Great Suffolk Street,,Borough & Bankside,E05011095,-0.1011092316782516,531668.2125670521,51.50330287219761,180080.22279308963,Southwark,Archives,E09000028,11/27/2022
Southwark,http://www.lsbu.ac.uk/about-us/professional-services/archives-centre,London South Bank University Archives Centre,200003000000,E09000028,103 Borough Road ,,,St. George's,E05011114,-0.10174255625170776,531637.5223820738,51.49870594548669,179567.99730285152,Southwark,Archives,E09000028,11/27/2022
Southwark,https://www.electoral-reform.org.uk/,Electoral Reform Society of Great Britain and Ireland,200003000000,E09000028,Thomas Hare House ,6 Chancel Street,,Borough & Bankside,E05011095,-0.10291976820536355,531537.2443098116,51.50515770523742,180283.18389331893,Southwark,Archives,E09000028,11/27/2022
Southwark,http://www.commonwealthveterans.org.uk/,Royal Commonwealth Ex-Services League,200003000000,E09000028,Haig House,199 Borough High Street,,Chaucer,E05011098,-0.09164079709276562,532329.0637123241,51.50196215312613,179948.25550005905,Southwark,Archives,E09000028,11/27/2022
Southwark,https://www.southwark.gov.uk/libraries/local-history-library-and-archive/visiting-the-local-history-library-and-archive,Southwark Local History Library and Archive,200003000000,E09000028,John Harvard Library ,211 Borough High Street,,Chaucer,E05011098,-0.09190824070810069,532311.0674034578,51.501768663389015,179926.2594319872,Southwark,Archives,E09000028,11/27/2022
Southwark,http://www.rbcc.com/,Russo-British Chamber of Commerce,200003000000,E09000028,42 Southwark Street,,,Borough & Bankside,E05011095,-0.09360370330039489,532184.1008883606,51.50498866452759,180281.19106465002,Southwark,Archives,E09000028,11/27/2022
Southwark,https://www.uco.ac.uk/,National Osteopathic Archive,200003000000,E09000028,c/o British School of Osteopathy ,275 Borough High Street,,Chaucer,E05011098,-0.094312878523686,532149.1008998308,51.5000811450062,179734.29323750676,Southwark,Archives,E09000028,11/27/2022
Southwark,https://www.uco.ac.uk/,British School of Osteopathy,200003000000,E09000028,275 Borough High Street,,,Chaucer,E05011098,-0.094312878523686,532149.1008998308,51.5000811450062,179734.29323750676,Southwark,Archives,E09000028,11/27/2022
Southwark,,DayCare Trust,200003000000,E09000028,21 St George Road,,,St. George's,E05011114,-0.10266664595312627,531583.2196549047,51.4952975359691,179187.38930372207,Southwark,Archives,E09000028,11/27/2022
Southwark,https://www.banksidegallery.com/,Bankside Gallery,200003000000,E09000028,48 Hopton Street, Blackfriars,,Borough & Bankside,E05011095,-0.10093468931649623,531666.2205445569,51.50819211966978,180624.1232459591,Southwark,Archives,E09000028,11/27/2022
Southwark,https://www.shakespearesglobe.com/education/library-research/library-archive,Shakespeare's Globe Library and Archives,200003000000,E09000028,21 New Globe Walk ,Bankside,,Borough & Bankside,E05011095,-0.09657156024934022,531969.1534819565,51.50811239465346,180623.12584075326,Southwark,Archives,E09000028,11/27/2022
Southwark,https://cioj.org/,Chartered Institute of Journalists,200003000000,E09000028,2 Dock Offices ,Surrey Quays Road,,Rotherhithe,E05011112,-0.05102771886724906,535162.4377819846,51.49677062517324,179445.32372727426,Southwark,Archives,E09000028,11/27/2022
Southwark,https://www.rnib.org.uk/who-we-are/action-for-blind-people,Action for Blind People,200003000000,E09000028,14-16 Verney Road,,,Old Kent Road,E05011109,-0.0628357516947148,534378.5836367748,51.48468217472787,178079.59787411388,Southwark,Archives,E09000028,11/27/2022
Southwark,https://www.dulwich.org.uk/about/history/the-archives,Dulwich College Archive,200003000000,E09000028,Dulwich College ,Dulwich Common,,Dulwich Wood,E05011101,-0.08501812132884018,532967.9939920317,51.44028028702964,173102.54603476007,Southwark,Archives,E09000028,11/27/2022
Southwark,https://www.dulwichpicturegallery.org.uk/,Dulwich Picture Gallery,200003000000,E09000028,Gallery Road,,,Dulwich Village,E05011100,-0.08642036459140846,532854.0134095617,51.44597770462068,173733.43081762985,Southwark,Archives,E09000028,11/27/2022
Southwark,https://www.alleyns.org.uk/senior-school/aboutalleyns/school-archive,Alleyn's School Archive,200003000000,E09000028,Townley Road ,Dulwich,,Goose Green,E05011103,-0.081993244319189,533135.9286138366,51.45478128570839,174720.24414790724,Southwark,Archives,E09000028,11/27/2022
Southwark,https://www.southlondongallery.org/,South London Gallery,200003000000,E09000028,65-67 Peckham Road,,,St. Giles,E05011115,-0.07974972510366078,533234.8735661121,51.47428602972737,176892.84083381284,Southwark,Archives,E09000028,11/27/2022
Southwark,https://www.jags.org.uk/,James Allen's Girls' School,200003000000,E09000028,East Dulwich Grove,,,Dulwich Village,E05011100,-0.085528085168551,532888.5494559504,51.45542039320969,174784.87601749046,Southwark,Archives,E09000028,11/27/2022
Southwark,https://www.britishlegion.org.uk/,Royal British Legion,200003000000,E09000028,199 Borough High Street,,,Chaucer,E05011098,-0.09212210136208826,532295.0716215989,51.50216782385471,179970.2508971024,Southwark,Archives,E09000028,11/27/2022
Southwark,http://www.hiddenlives.org.uk/,The Children's Society Records and Archive Centre,200003000000,E09000028,Block A Floor 2 Tower Bridge Business Complex ,100 Clement's Road,,North Bermondsey,E05011106,-0.06282118214146996,534351.6099910146,51.4941963404656,179137.3956630358,Southwark,Archives,E09000028,11/27/2022
Southwark,https://www.arts.ac.uk/colleges/camberwell-college-of-arts,University of the Arts London: Camberwell College of Arts,200003000000,E09000028,Peckham Road,,,St. Giles,E05011115,-0.07988640393804575,533225.8761037404,51.47411740516427,176873.84452354012,Southwark,Archives,E09000028,11/27/2022
Southwark,https://www.sor.org/,Society of Radiographers,200003000000,E09000028,207 Providence Square,Mill Street,,North Bermondsey,E05011106,-0.07067450065635324,533784.7491707441,51.501654933083685,179952.23689214682,Southwark,Archives,E09000028,11/27/2022
Southwark,https://www.wildlondon.org.uk/,London Wildlife Trust,200003000000,E09000028,Skyline House ,200 Union Street,,Borough & Bankside,E05011095,-0.1017491912119276,531622.2235547312,51.50385279845544,180140.21122930205,Southwark,Archives,E09000028,11/27/2022
Southwark,https://party.coop/,Co-operative Party,200003000000,E09000028,77 Weston Street,,,London Bridge & West Bermondsey,E05011104,-0.08598774845695034,532720.9766067322,51.502076873895675,179971.25616600207,Southwark,Archives,E09000028,11/27/2022
Southwark,http://sonsolesprintstudio.co.uk/studio-facilities/,,200003394386,E09000028,"Unit 11, Print Village",Chadwick Road,,Rye Lane,E05011113,-0.07409054512939307,533645.7797678439,51.46813197348256,176218.9571889345,Southwark,Artists workspaces,E09000028,11/27/2022
Southwark,www.the-arches-studios.com,,200003394624,E09000028,Blenheim Court,48-50 Blenheim Grove ,,Rye Lane,E05011113,-0.0687914593321716,534008.685506797,51.46985232816431,176419.91280420253,Southwark,Artists workspaces,E09000028,11/27/2022
Southwark,www.copelandpark.com,,200000000000,E09000028,133 Copeland Road,,,Rye Lane,E05011113,-0.0657471416952201,534219.6316988606,51.46999995448365,176441.9038412975,Southwark,Artists workspaces,E09000028,11/27/2022
Southwark,www.vanguardcourt.org,,10000812526,E09000028,36-38 Peckham Road,,,St. Giles,E05011115,-0.08158572899881714,533110.9067358887,51.47308408020072,176755.86859230872,Southwark,Artists workspaces,E09000028,11/27/2022
Southwark,www.assemblypoint.xyz,,10091667089,E09000028,47 Staffordshire Street,,,Peckham,E05011110,-0.06548648497410756,534221.6234998672,51.4754813046828,177051.79218908632,Southwark,Artists workspaces,E09000028,11/27/2022
Southwark,www.spacestudios.org.uk,Havil Street,200003456108,E09000028,233 Havil Street,Southwark,,St. Giles,E05011115,-0.08305331842771528,533000.9294591006,51.475859904544414,177061.81314222567,Southwark,Artists workspaces,E09000028,11/27/2022
Southwark,www.artistic-spaces.co.uk,3-5 Latona Road,200003494009,E09000028,Peckham,,,Old Kent Road,E05011109,-0.07110331542312406,533812.7183624327,51.481949827210556,177760.66878489533,Southwark,Artists workspaces,E09000028,11/27/2022
Southwark,www.artistic-spaces.co.uk,7-17 Latona Road,200003494009,E09000028,Peckham,,,Old Kent Road,E05011109,-0.07110331542312406,533812.7183624327,51.481949827210556,177760.66878489533,Southwark,Artists workspaces,E09000028,11/27/2022
Southwark,www.acme.org.uk,Galleria,10013530269,E09000028,Pennack Road,Peckham,,Peckham,E05011110,-0.07364924477841744,533635.7621486672,51.482027671998786,177764.67105666868,Southwark,Artists workspaces,E09000028,11/27/2022
Southwark,www.spacestudios.org.uk,Haymerle,200000000000,E09000028,90 Haymerle Road,Southwark,,Old Kent Road,E05011109,-0.06981288789201892,533900.6958917747,51.48249513145557,177823.65557645808,Southwark,Artists workspaces,E09000028,11/27/2022
Southwark,http://www.v22collection.com,Ilderton Road,200000000000,E09000028,180 Ilderton Road,,,Old Kent Road,E05011109,-0.0542424844057436,534979.442519783,51.483199869932996,177930.61084874248,Southwark,Artists workspaces,E09000028,11/27/2022
Southwark,http://studiomakecreate.wixsite.com/thetoasterfactory,Toaster factory ,200003378825,E09000028,16-18 penarth street,,,Old Kent Road,E05011109,-0.05494275280677875,534930.4540765891,51.48332840275995,177943.60968185618,Southwark,Artists workspaces,E09000028,11/27/2022
Southwark,,,200000000000,E09000028,52 Ossory Road,,,Old Kent Road,E05011109,-0.07127822299794433,533795.7211462915,51.48360738883932,177944.63467046712,Southwark,Artists workspaces,E09000028,11/27/2022
Southwark,,Penarth Centre,10009803448,E09000028,Penarth Street,,,Old Kent Road,E05011109,-0.05489828341647986,534932.4542899411,51.483696372773665,177984.6021498883,Southwark,Artists workspaces,E09000028,11/27/2022
Lewisham,cellprojects.org,GUILD HOUSE FIRST FLOOR FRONT,200000557503,E09000023,ROLLINS STREET,,,New Cross,E05000449,-0.05010797366291832,535264.3788687107,51.4838955423485,178015.58845748357,Southwark,Artists workspaces,E09000028,11/27/2022
Southwark,www.ascstudios.co.uk,Chaplin Centre,200003428020,E09000028,Chaplin Centre,Taplow House,,Faraday,E05011102,-0.08662018948952259,532716.9722142653,51.48835521819348,178444.54738936247,Southwark,Artists workspaces,E09000028,11/27/2022
Southwark,www.bainbridgeprint.com,,200003428008,E09000028,Units 7-9 Taplow House,Thurlow St ,,Faraday,E05011102,-0.08662018948952259,532716.9722142653,51.48835521819348,178444.54738936247,Southwark,Artists workspaces,E09000028,11/27/2022
Southwark,,,200000000000,E09000028,7-10 Occupation Road,London,,North Walworth,E05011107,-0.09679391326100392,532010.1273276363,51.488601702460755,178453.53796774888,Southwark,Artists workspaces,E09000028,11/27/2022
Southwark,http://www.pullensyards.co.uk/,,200003493888,E09000028,Iliffe Yard,,,Newington,E05011105,-0.10026816543001077,531766.1788741293,51.48957529266985,178555.51451280352,Southwark,Artists workspaces,E09000028,11/27/2022
Southwark,www.acme.org.uk,Highline,10091666566,E09000028,10 Steedman Street,Elephant and Castle,,North Walworth,E05011107,-0.09901095905315899,531847.1581200713,51.49174914707828,178799.46673862985,Southwark,Artists workspaces,E09000028,11/27/2022
Southwark,http://tanneryarts.org.uk/,,10093340245,E09000028,"Unit 8, Rich industrial Estate",46 Willow Walk,,London Bridge & West Bermondsey,E05011104,-0.07927058396186724,533209.8602847147,51.49426019227267,179114.41666057898,Southwark,Artists workspaces,E09000028,11/27/2022
Southwark,www.culdesacgallery.com,,10093339946,E09000028,65-69 County Street,,,Chaucer,E05011098,-0.09099701167054344,532395.0401339813,51.494613567886105,179132.41026719956,Southwark,Artists workspaces,E09000028,11/27/2022
Southwark,www.setspace.uk,,200003363615,E09000028,76-89 Alscot Road,,,South Bermondsey,E05011116,-0.07308655449564969,533638.7666629391,51.49434755016892,179135.40636681876,Southwark,Artists workspaces,E09000028,11/27/2022
Southwark,http://www.creeksideartists.co.uk/,TOWER BRIDGE BUSINESS COMPLEX,200003492917,E09000028,100 Clements Road,,,North Bermondsey,E05011106,-0.06282118214146996,534351.6099910146,51.4941963404656,179137.3956630358,Southwark,Artists workspaces,E09000028,11/27/2022
Southwark,assemblestudio.co.uk,,10025331048,E09000028,Sugarhouse Studios,19 Collett Rd,,North Bermondsey,E05011106,-0.06295838291107206,534334.1202253113,51.496905423515194,179438.33384354255,Southwark,Artists workspaces,E09000028,11/27/2022
Southwark,www.hotelelephant.co.uk,,10000811499,E09000028,23 Harper Road ,,,Chaucer,E05011098,-0.09595028513759142,532039.1238230565,51.4988217707068,179591.318486246,Southwark,Artists workspaces,E09000028,11/27/2022
Southwark,www.copperfieldgallery.com,,200000000000,E09000028,6 Copperfield Street,,,Borough & Bankside,E05011095,-0.0972675728328944,531935.1533306792,51.50316867124691,180072.22753258806,Southwark,Artists workspaces,E09000028,11/27/2022
Southwark,,East Dulwich Picturehouse & Cafe,010091663747,E09000028,,116a Lordship Lane,East Dulwich,Goose Green,E05011103,-0.0747255224572264,533749.0001221001,51.455924294140495,174806.00012210011,Southwark,Cinemas,E09000028,11/27/2022
Southwark,,Peckhamplex,200003394590,E09000028,,95a Rye Lane,Peckham,Rye Lane,E05011113,-0.06660922174718029,534270.8001098931,51.470227306820796,176411.19012449682,Southwark,Cinemas,E09000028,11/27/2022
Southwark,,Odeon Surrey Quays,010009803337,E09000028,,Surrey Quays Shopping Centre,Redriff Rd,Surrey Docks,E05011117,-0.04170451985187245,535924.0001221001,51.495857984720345,179307.00012210011,Southwark,Cinemas,E09000028,11/27/2022
Southwark,,Kino Bermondsey,010013529054,E09000028,,10 Bermondsey Square,,London Bridge & West Bermondsey,E05011104,-0.0792353334794473,533315.370117195,51.49718138657765,179385.12011719495,Southwark,Cinemas,E09000028,11/27/2022
Southwark,,Curzon Mondrian London,010091666184,E09000028,,20 Upper Ground,,Borough & Bankside,E05011095,-0.10535576745482274,531471.620117195,51.50793173862438,180533.20007319748,Southwark,Cinemas,E09000028,11/27/2022
Southwark,,Sands Film Cinema,010025575039,E09000028,82 St Marychurch St,42 Newighton Causeway,,Borough & Bankside,E05011095,-0.09621473586995899,532134.3001098931,51.498104761730076,179457.00012210011,Southwark,Cinemas,E09000028,11/27/2022
Southwark,http://cgplondon.org/#,CGP London,10000811263,E09000028,1 Park Approach,Southwark Park,NA,Rotherhithe,E05011112,-0.05231758823437974,535194.0001221001,51.493633448578684,179040.00012210011,Southwark,Commercial galleries,E09000028,11/27/2022
Southwark,http://www.purdyhicks.com/#,Purdy Hicks,10000811558,E09000028,65 Hopton Street,NA,NA,Borough & Bankside,E05011095,-0.1004329075415528,531816.0001221001,51.506959931776564,180434.00012210011,Southwark,Commercial galleries,E09000028,11/27/2022
Southwark,https://www.thegalleryguide.co.uk/galleries/vibe-gallery,Vibe Gallery,10009799375,E09000028,100 Clement’s Road,NA,NA,North Bermondsey,E05011106,-0.06064802246667941,534614.0001221001,51.4942481978018,179093.00012210011,Southwark,Commercial galleries,E09000028,11/27/2022
Southwark,http://unit24.info/#,Unit 24,10013527858,E09000028,20 Great Guildford Street,NA,NA,Borough & Bankside,E05011095,-0.09630293796591127,532107.0001221001,51.50542699866287,180271.00012210011,Southwark,Commercial galleries,E09000028,11/27/2022
Southwark,http://www.vitrinegallery.co.uk/#,Vitrine,10013529059,E09000028,15 Bermondsey Square,NA,NA,London Bridge & West Bermondsey,E05011104,-0.07916568848347914,533321.0900878981,51.496877609329054,179351.4700927958,Southwark,Commercial galleries,E09000028,11/27/2022
Southwark,http://www.horatiojr.com/#,Horatio Jr,10013529797,E09000028,"The Lord Nelson, 66 Canon Beck Road",NA,NA,Rotherhithe,E05011112,-0.047934029137016866,535477.4801024944,51.50063632805163,179826.75012210011,Southwark,Commercial galleries,E09000028,11/27/2022
Southwark,http://www.thesundaypainter.co.uk/#,The Sunday Painter,10090286666,E09000028,1st Floor,12-16 Blenheim Grove,NA,Rye Lane,E05011113,-0.06761387003033917,534204.0001221001,51.46921688173556,176297.00012210011,Southwark,Commercial galleries,E09000028,11/27/2022
Southwark,http://cargocollective.com/songallery/About,Son Gallery,10091666064,E09000028,Unit 9C,133 Copeland Road,NA,Rye Lane,E05011113,-0.06415312023793011,534443.5200805962,51.46949183012114,176333.92010499537,Southwark,Commercial galleries,E09000028,11/27/2022
Southwark,http://www.ascstudios.co.uk/asc-gallery/#,ASC Gallery,10093339547,E09000028,"Taplow House,",Thurlow Street,NA,Faraday,E05011102,-0.08503552597389555,532940.0001221001,51.487840846108966,178336.00012210011,Southwark,Commercial galleries,E09000028,11/27/2022
Southwark,http://www.thesassoongallery.co.uk/#,The Sassoon Gallery,200003492347,E09000028,Arch 213 Blenheim Grove,Peckham,NA,Rye Lane,E05011113,-0.06854833880284188,534139.8201293945,51.46897371325378,176268.25012210011,Southwark,Commercial galleries,E09000028,11/27/2022
Southwark,http://www1.lsbu.ac.uk/w2/boroughroadgallery#,Borough Road Gallery,200003353305,E09000028,103 Borough Road,NA,NA,St. George's,E05011114,-0.10015903341352779,531860.3101195991,51.49819283865863,179459.68011479825,Southwark,Commercial galleries,E09000028,11/27/2022
Southwark,http://www.poppysebire.com/#,Poppy Sebire,200003353342,E09000028,All Hallows Hall,6 Copperfield Street,NA,Borough & Bankside,E05011095,-0.09568350394604495,532158.0001221001,51.50265590088561,179964.00012210011,Southwark,Commercial galleries,E09000028,11/27/2022
Southwark,http://whitecube.com/#,White Cube,200003362685,E09000028,144-152 Bermondsey Street,NA,NA,London Bridge & West Bermondsey,E05011104,-0.08106888393898747,533183.0001221001,51.49893710793588,179577.00012210011,Southwark,Commercial galleries,E09000028,11/27/2022
Southwark,http://flattimeho.org.uk/#,Flat Time House,200003391772,E09000028,210 Bellenden Road,NA,NA,Rye Lane,E05011113,-0.07257661524788013,533870.0001221001,51.46558418848394,175884.00012210011,Southwark,Commercial galleries,E09000028,11/27/2022
Southwark,http://www.archcollective.co.uk/#,Arch Collective,200003401561,E09000028,Arch 12,Raymouth Road,NA,North Bermondsey,E05011106,-0.05770571498702332,534826.0001221001,51.49160931563166,178805.00012210011,Southwark,Commercial galleries,E09000028,11/27/2022
Southwark,http://www.southlondongallery.org/#,South London Gallery,200003464154,E09000028,65 Peckham Road,NA,NA,St. Giles,E05011115,-0.07816495285733928,533458.0001221001,51.47377025501703,176784.00012210011,Southwark,Commercial galleries,E09000028,11/27/2022
Southwark,http://www.meniergallery.co.uk/#,Menier Gallery,200003495859,E09000028,51 Southwark Street,NA,NA,Borough & Bankside,E05011095,-0.09261067664714051,532367.0001221001,51.50411688554498,180132.00012210011,Southwark,Commercial galleries,E09000028,11/27/2022
Southwark,http://www.jerwoodspace.co.uk/#,Jerwood Space Gallery,200003496580,E09000028,171 Union Street,NA,NA,Borough & Bankside,E05011095,-0.09749518965423139,532031.0001221001,51.50309901521721,180010.00012210011,Southwark,Commercial galleries,E09000028,11/27/2022
Southwark,http://www.hannahbarry.com/#,Hannah Barry Gallery,200003497923,E09000028,"Unit 9i, 133 Copeland Road",NA,NA,Rye Lane,E05011113,-0.06415312023793011,534443.5200805962,51.46949183012114,176333.92010499537,Southwark,Commercial galleries,E09000028,11/27/2022
Southwark,http://thewappingprojectbankside.com/#,The Wapping Project Bankside,200003498823,E09000028,65 Hopton Street,NA,NA,Borough & Bankside,E05011095,-0.10059245354746495,531805.0001221001,51.506935535344816,180431.00012210011,Southwark,Commercial galleries,E09000028,11/27/2022
Southwark,,Bird-In-Bush Centre,10091837834,E09000028,616 Old Kent Road,Southwark,NA,Livesey,E05000543,-0.0632382206258594,534469.0001221001,51.48242835432304,177774.00012210011,Southwark,Community centres,E09000028,11/27/2022
Southwark,0207 639 6718,Bells Garden Community Centre,10013530698,E09000028,19 Buller Close,Southwark,NA,Peckham,E05000546,-0.06649818863212638,534258.0001221001,51.47721186478037,177188.00012210011,Southwark,Community centres,E09000028,11/27/2022
Southwark,www.beormund.co.uk,Beormund Community Centre,200003356929,E09000028,177 Abbey Street,Southwark,NA,Riverside,E05000548,-0.07066267599644172,533908.0001221001,51.49797490271748,179489.00012210011,Southwark,Community centres,E09000028,11/27/2022
Southwark,http://www.browning-ema.org.uk/,Browning Community Hall,200003418937,E09000028,57-59 Browning Street,Southwark,NA,East Walworth,E05000540,-0.09170636986544355,532470.0001221001,51.490233995767404,178590.00012210011,Southwark,Community centres,E09000028,11/27/2022
Southwark,https://communitysouthwark.org/organisations-venues/venues/rockingham-community-centre,Rockingham Community Centre,200003495242,E09000028,Falmouth Road,Southwark,NA,Chaucer,E05000537,-0.09401685272786668,532296.0001221001,51.49493927335145,179109.00012210011,Southwark,Community centres,E09000028,11/27/2022
Southwark,http://bermondseyhall.org.uk/,Bermondsey Village Hall,10000811728,E09000028,Kirby Grove,Southwark,NA,Grange,E05000542,-0.08277599374739528,533059.6000976935,51.5006290352312,179762.0200805962,Southwark,Community centres,E09000028,11/27/2022
Southwark,http://www.creationtrust.org/hallsforhire,Thurlow Lodge Community Hall,10009805020,E09000028,1 Thurlow Street,Southwark,NA,Faraday,E05000541,-0.08104047176377968,533224.0900878981,51.485518388502584,178085.03009029478,Southwark,Community centres,E09000028,11/27/2022
Southwark,http://www.albrightoncommunitycentre.org/,Albrighton Community Centre,200003443914,E09000028,37 Albrighton Road,Southwark,NA,South Camberwell,E05000551,-0.07999694210462778,533359.0001221001,51.464096090819936,175705.00012210011,Southwark,Community centres,E09000028,11/27/2022
Southwark,,"Avondale Square, Community Center",10093340586,E09000028,Avondale Square,Southwark,NA,South Bermondsey,E05000550,-0.06838239253010105,534102.0100707933,51.4857893475112,178138.2700805962,Southwark,Community centres,E09000028,11/27/2022
Southwark,,Newington Estate Tenants Hall,10009791116,E09000028,Canterbury Place,Southwark,NA,Newington,E05000544,-0.09764296346827653,532059.0001221001,51.48986279895639,178538.00012210011,Southwark,Community centres,E09000028,11/27/2022
Southwark,,Alberta T R A Hall,10009804957,E09000028,Alberta Street,Southwark,NA,Newington,E05000544,-0.10159414434616501,531786.4901122972,51.489254926561536,178463.29010009766,Southwark,Community centres,E09000028,11/27/2022
Southwark,https://www.eastdulwichcommunitycentre.org.uk/,East Dulwich Community Centre,10009805006,E09000028,46-50 Darrell Road,Southwark,NA,East Dulwich,E05000539,-0.06934370190439332,534124.0001221001,51.455529986373584,174772.00012210011,Southwark,Community centres,E09000028,11/27/2022
Southwark,,Brayards Estate Tenants & Residents Association,10013533664,E09000028,Caulfield Road,Southwark,NA,Nunhead,E05000545,-0.05695904269641111,534943.0001221001,51.46952642087401,176351.00012210011,Southwark,Community centres,E09000028,11/27/2022
Southwark,,Sojourner Truth Centre,10090748514,E09000028,161 Sumner Road,Southwark,NA,Peckham,E05000546,-0.07178822395202367,533890.0001221001,51.47745188462772,177205.00012210011,Southwark,Community centres,E09000028,11/27/2022
Southwark,https://www.better.org.uk/leisure-centre/london/southwark/colombo-centre?utm_source=google&utm_medium=organic&utm_campaign=google_my_business,Colombo Centre,200003375944,E09000028,34-68 Colombo Street,Southwark,NA,Cathedrals,E05000536,-0.1034899433852039,531609.0001221001,51.50518371146434,180231.00012210011,Southwark,Community centres,E09000028,11/27/2022
Southwark,,Cossall Estate Tenants and Residents Association,200003382456,E09000028,48 Mortlock Close,Southwark,NA,Nunhead,E05000545,-0.05973993270716696,534745.6600952,51.470960389921785,176505.32012939453,Southwark,Community centres,E09000028,11/27/2022
Southwark,http://www.thegreennunhead.org/,The Green - Nunhead Community Centre,200003388332,E09000028,5 Nunhead Green,Southwark,NA,The Lane,E05000553,-0.05797977653566125,534887.0001221001,51.464479876239544,175788.00012210011,Southwark,Community centres,E09000028,11/27/2022
Southwark,,Links Community Centre,200003408047,E09000028,353 Rotherhithe New Road,Southwark,NA,Livesey,E05000543,-0.06051587613205293,534647.0001221001,51.48616069738342,178194.00012210011,Southwark,Community centres,E09000028,11/27/2022
Southwark,,Denmark Hill Community Centre,200003464190,E09000028,Blanchedowne,Southwark,NA,South Camberwell,E05000551,-0.0877231423424743,532823.0001221001,51.46388961862221,175668.00012210011,Southwark,Community centres,E09000028,11/27/2022
Southwark,,Peabody Walworth Community Centre,200003495244,E09000028,Rodney Road,Southwark,NA,East Walworth,E05000540,-0.0905079222276883,532551.0001221001,51.49098793703197,178676.00012210011,Southwark,Community centres,E09000028,11/27/2022
Southwark,https://www.shgroup.org.uk/media/233112/warner-road.pdf,Warner Road Community Centre,10000813735,E09000028,Warner Road,Southwark,NA,Camberwell Green,E05000535,-0.09237226165291625,532473.0001221001,51.47324683367467,176700.00012210011,Southwark,Community centres,E09000028,11/27/2022
Southwark,http://docklandsettlements.org.uk/,Docklands Settlements Community Centre,10091665500,E09000028,400 Salter Road,Southwark,NA,Surrey Docks,E05000552,-0.033555348161645134,536481.1301269978,51.498686008505516,179636.61010739952,Southwark,Community centres,E09000028,11/27/2022
Southwark,,Rennie Tenants and Residents Association New Hall,200003406799,E09000028,Galleywall Road,NA,NA,South Bermondsey,E05000550,-0.05697163010745202,534885.7401122972,51.48863229572041,178475.34008789808,Southwark,Community centres,E09000028,11/27/2022
Southwark,http://trass.org.uk/,Bluebird Community Centre,200003380837,E09000028,821 Old Kent Road,NA,NA,Livesey,E05000543,-0.05432611092988582,535097.0001221001,51.47928588828647,177441.00012210011,Southwark,Community centres,E09000028,11/27/2022
Southwark,,Bellenden Old School,200003394411,E09000028,165 Bellenden Rd, London,NA,South Camberwell,E05000551,-0.07166745811513826,533933.0001221001,51.46563219216702,175891.00012210011,Southwark,Community centres,E09000028,11/27/2022
Southwark,,Aylesbury Access Centre,10090286106,E09000028,Unit 7 Thurlow Street,London,NA,Faraday,E05000541,-0.08434451098208456,532989.5300902948,51.487303878693666,178277.55010989308,Southwark,Community centres,E09000028,11/27/2022
Southwark,southwarkpensioners.org.uk,Southwark Pensioners Centre,200003453259,E09000028,Southwark Pensioners Centre,305-307 Camberwell Road,London,Camberwell Green,E05000535,-0.09190130818568902,532499.0001221001,51.47555953359975,176958.00012210011,Southwark,Community centres,E09000028,11/27/2022
Southwark,,Dobson and Amigo Community Hall,200003499457,E09000028,Amigo House,Morley Street,London,Cathedrals,E05000536,-0.10756621686516424,531346.0001221001,51.49827952331345,179456.00012210011,Southwark,Community centres,E09000028,11/27/2022
Southwark,,Darwin Court,10093339233,E09000028,Darwin Court Office,1 Crail Row,London,East Walworth,E05000540,-0.08582632482052689,532875.0001221001,51.49131631356013,178721.00012210011,Southwark,Community centres,E09000028,11/27/2022
Southwark,https://www.shgroup.org.uk/media/233102/dawson-heights.pdf,Dawson Heights Community Centre,200003499670,E09000028,Community Flat,Ladlands,Overhill Road,College,E05000538,-0.06609491483168166,534375.0001221001,51.44690541222131,173819.00012210011,Southwark,Community centres,E09000028,11/27/2022
Southwark,http://cargocollective.com/universalworkspace,Universal Workspace,200003356102,E09000028,Universal Workspace,25-33 Southwark Street,,Borough & Bankside,E05011095,-0.0911151998833298,532471.0001221001,51.50403858857247,180126.00012210011,Southwark,Creative co-working desk space,E09000028,11/27/2022
Southwark,https://uncommon.co.uk/,The Carlyle Group,200003367752,E09000028,Uncommon,1 Long Lane,,Chaucer,E05011098,-0.09017115859080561,532546.0001221001,51.5007675248188,179764.00012210011,Southwark,Creative co-working desk space,E09000028,11/27/2022
Southwark,https://www.sustainableworkspaces.co.uk/bridges/,Sustainable Workspaces,200003376891,E09000028,Sustainable Workspaces,105 Summer Street,,Borough & Bankside,E05011095,-0.09456063616049416,532226.0001221001,51.506082215002486,180347.00012210011,Southwark,Creative co-working desk space,E09000028,11/27/2022
Southwark,,Many Hands,200003410687,E09000028,Many Hands,100 Drummond Road,,North Bermondsey,E05011106,-0.06163356164214203,534546.0001221001,51.49411160239772,179076.00012210011,Southwark,Creative co-working desk space,E09000028,11/27/2022
Southwark,http://www.keetonsandcollett.co.uk/,Buygivework At Keetons And Collett,200003410896,E09000028,Buygivework At Keetons And Collett,21 Collett Road,Bermondsey,North Bermondsey,E05011106,-0.06136524059289633,534559.4801024944,51.49585787346982,179270.66009519994,Southwark,Creative co-working desk space,E09000028,11/27/2022
Southwark,https://hubblehq.com/office-space/3705/ministry-of-sound,The Ministry,200003493558,E09000028,Ministry Of Sounds,,Gaunt Street,St. George's,E05011114,-0.09783574683042934,532025.0001221001,51.496997873271134,179331.00012210011,Southwark,Creative co-working desk space,E09000028,11/27/2022
Southwark,www.bizspace.co.uk/spaces/brixton,Biz Space,200003494142,E09000028,Camberwell Business Centre,99-103 Lomond Grove,,Camberwell Green,E05011096,-0.08964471639780071,532653.0001221001,51.4764851052086,177065.00012210011,Southwark,Creative co-working desk space,E09000028,11/27/2022
Southwark,www.artistic-spaces.co.uk,Artistic Spaces Ltd,10090748110,E09000028,Action House,53 Sandgate Street,,,,-0.06124869177667336,534602.0001221001,51.48416722665932,177971.00012210011,Southwark,Creative workspaces,E09000028,11/27/2022
Southwark,www.artistic-spaces.co.uk,Artistic Spaces Ltd,10091668508,E09000028,7-17 Latona Road,7-17 Latona Road,,,,-0.06915265665371212,534060.9301147982,51.481564575979625,177667.11010739952,Southwark,Creative workspaces,E09000028,11/27/2022
Southwark,www.artistic-spaces.co.uk,Artistic Spaces Ltd,10093339514,E09000028,3-5 Latona Road,3-5 Latona Road,,,,-0.06951723384127022,534036.0001221001,51.48143468545867,177652.00012210011,Southwark,Creative workspaces,E09000028,11/27/2022
Southwark,http://setspace.uk/studio.html,Set,200003361788,E09000028,Set Alscot Road,76-89 Alscot Road,,,,-0.07192848591717292,533833.0001221001,51.49358883312768,178999.00012210011,Southwark,Creative workspaces,E09000028,11/27/2022
Southwark,https://www.soandsoatthebridge.com/home,So&so,200003363167,E09000028,So&so @ The Bridge,Capital House,42 Weston Street,,,-0.08361341248494686,532996.0001221001,51.50251322068443,179970.00012210011,Southwark,Creative workspaces,E09000028,11/27/2022
Southwark,https://www.peckhamlevels.org/about,Makeshift,200003394590,E09000028,Peckham Levels,Level 1 To 6 Peckham Town Centre Car Park,95a Rye Lane,,,-0.06660922174718029,534270.8001098931,51.470227306820796,176411.19012449682,Southwark,Creative workspaces,E09000028,11/27/2022
Southwark,www.copelandpark.com,Copeland Park,200003497923,E09000028,Copeland Park,133 Copeland Road,,,,-0.06415312023793011,534443.5200805962,51.46949183012114,176333.92010499537,Southwark,Creative workspaces,E09000028,11/27/2022
Southwark,http://www.southwarkplayhouse.co.uk,Southwark Playhouse,200003374411,E09000028,77-85 Newington Causeway,,,Chaucer,E05011098,-0.09822409282459499,531885.1564449987,51.49750075305259,179440.34489017754,Southwark,Dance performance venues,E09000028,11/27/2022
Southwark,,The Scoop at More London,10013532078,E09000028,Queen's Walk,,,London Bridge & West Bermondsey,E05011104,-0.07925760856509012,533179.3433921003,51.505030063061604,180311.82198097336,Southwark,Dance performance venues,E09000028,11/27/2022
Southwark,http://maverickprojects.co.uk/asylum/weddings/,"Asylum, Caroline Gardens Chapel",200003492048,E09000028,12 Asylum Road,,,Old Kent Road,E05011109,-0.060530333142687874,534555.5397641148,51.478933571378334,177444.71065362584,Southwark,Dance performance venues,E09000028,11/27/2022
Southwark,https://www.clfartcafe.org,The Bussey Building AKA The CLF Art Cafe,200003393120,E09000028,133 Rye Lane,,,Rye Lane,E05011113,-0.06736342452229606,534107.6002968203,51.46993399944465,176431.60842115624,Southwark,Dance performance venues,E09000028,11/27/2022
Southwark,http://www.shakespearesglobe.com,Shakespeare's Globe Theatre,,,21 New Globe Walk,,,,,-0.09657156024934022,531969.1534819565,51.50811239465346,180623.12584075326,Southwark,Dance performance venues,E09000028,11/27/2022
Southwark,unicorn theatre,Unicorn Theatre,10009804074,E09000028,147 Tooley Street,,,London Bridge & West Bermondsey,E05011104,-0.08063989503420484,533086.9005339423,51.50384192911409,180177.21196973388,Southwark,Dance performance venues,E09000028,11/27/2022
Southwark,https://www.unicorntheatre.com,Union Theatre,200003354927,E09000028,204 Union Street,,,Borough & Bankside,E05011095,-0.1019116971531961,531611.2258208988,51.50375650771803,180129.21309753053,Southwark,Dance performance venues,E09000028,11/27/2022
Lewisham,http://www.brockleyjack.co.uk,Brockley Jack Studio Theatre,100021937756,E09000023,410 Brockley Road,,,Crofton Park,E05000441,-0.03907693467554407,536120.1670288991,51.45363917833209,174672.18018634897,Southwark,Dance performance venues,E09000028,11/27/2022
Southwark,https://www.menierchocolatefactory.com/Online/default.asp,Menier Theatre,200003500280,E09000028,51-53 Southwark Street,,,Borough & Bankside,E05011095,-0.09446755392874248,532125.1134595063,51.504660977562715,180243.19766681956,Southwark,Dance performance venues,E09000028,11/27/2022
Southwark,https://www.theatrepeckham.co.uk,Theatre Peckham,10093342877,E09000028,221 Havil Street,,,St. Giles,E05011115,-0.0827585908476541,533025.3657666997,51.47449518638107,176910.62115935306,Southwark,Dance performance venues,E09000028,11/27/2022
Southwark,https://www.mountview.org.uk,Mountview Theatre School,10094742520,E09000028,120 Peckham Hill Street,,,Peckham,E05011110,-0.06987725571183873,533918.5706031593,51.47487429992848,176976.2626903809,Southwark,Dance performance venues,E09000028,11/27/2022
Southwark,http://www.siobhandavies.com,Siobhan Davies Studios,10009805291,E09000028,85 St GeorgeÔÇÖs Road,,,St. George's,E05011114,-0.10532906367427461,531396.2614309487,51.49605999784297,179267.3718267458,Southwark,Dance performance venues,E09000028,11/27/2022
Southwark,http://canadawaterculturespace.org.uk/contact-us,Canada Water Culture Space,10090284129,E09000028,21 Surrey Quays Road,,,Rotherhithe,E05011112,-0.04915361053641707,535289.4125404668,51.49780959239352,179564.2989557215,Southwark,Dance performance venues,E09000028,11/27/2022
Southwark,http://www.abacus-arts.org.uk,Abacus Arts,200003422528,E09000028,2a Browning Street,,,North Walworth,E05011107,-0.09586266847753287,532071.1115513468,51.48986355462631,178595.5100749089,Southwark,Dance rehearsal studios,E09000028,11/27/2022
Southwark,https://www.alleyns.org.uk,Alleyn's School,200003440977,E09000028,24 Townley Road,,,Goose Green,E05011103,-0.081993244319189,533135.9286138366,51.45478128570839,174720.24414790724,Southwark,Dance rehearsal studios,E09000028,11/27/2022
Southwark,https://anatomiestudio.com,Anatomie Studio,10091668508,E09000028,7-17 Latona Road,,,Old Kent Road,E05011109,-0.07073878453356638,533837.6420215701,51.482079709052236,177775.77555015276,Southwark,Dance rehearsal studios,E09000028,11/27/2022
Southwark,N/A,BTS Project,200003406389,E09000028,52-56 Verney Road,,,Old Kent Road,E05011109,-0.05922194985124234,534626.5291074626,51.485665553238405,178195.57059006806,Southwark,Dance rehearsal studios,E09000028,11/27/2022
Southwark,http://www.canadawaterstudios.com/contact/,Canada Water Studios,10090284887,E09000028,Vancouver House,,,Rotherhithe,E05011112,-0.048590554962780357,535324.5383615803,51.49914131786068,179713.39977650222,Southwark,Dance rehearsal studios,E09000028,11/27/2022
Southwark,www.glasshillstudios.com,Glasshill Studios,200003354702,E09000028,1 King's Bench Street,,,Borough & Bankside,E05011095,-0.10155142165135825,531643.2150230379,51.50133161691509,179860.26271658717,Southwark,Dance rehearsal studios,E09000028,11/27/2022
Southwark,www.huskystudios.co.uk,Husky Studios,200003432841,E09000028,29a Amelia Street,,,Newington,E05011105,-0.09843923090547169,531893.151257528,51.48956363692586,178557.5156990791,Southwark,Dance rehearsal studios,E09000028,11/27/2022
Southwark,www.jerwoodspace.co.uk/rehearsals/,Jerwood Space,200003355048,E09000028,171 Union Street,,,Borough & Bankside,E05011095,-0.09909311398597134,531807.1824040035,51.50362093267887,180119.21740397462,Southwark,Dance rehearsal studios,E09000028,11/27/2022
Southwark,www.kelechnekoff.com,Kelechnekoff Studio,200003400803,E09000028,161 Sumner Road,,,Peckham,E05011110,-0.07337387998379764,533666.7598240072,51.4779673733793,177313.7545272,Southwark,Dance rehearsal studios,E09000028,11/27/2022
Southwark,http://www.londonbubble.org.uk,London Bubble,200003410746,E09000028,5 Elephant Lane,,,Rotherhithe,E05011112,-0.05526380428633876,534857.5143673767,51.50048305146294,179850.24563571217,Southwark,Dance rehearsal studios,E09000028,11/27/2022
Southwark,http://studio68london.net,Studio 68,10090749641,E09000028,68 Ewer St,,,Borough & Bankside,E05011095,-0.09864395994541883,531835.7574796904,51.504517516460425,180219.70931135723,Southwark,Dance rehearsal studios,E09000028,11/27/2022
Southwark,http://www.theartworks.london/classrooms/,The Classrooms,200003356660,E09000028,42 Borough High Street,,,Borough & Bankside,E05011095,-0.09104903565850114,532363.0601774962,51.50439855407516,180220.2042339376,Southwark,Dance rehearsal studios,E09000028,11/27/2022
Southwark,,The Siding,10090751127,E09000028,5 O'Meara Street,,,Borough & Bankside,E05011095,-0.09426468134181065,532140.1096188546,51.504343024458535,180208.21436035418,Southwark,Dance rehearsal studios,E09000028,11/27/2022
Southwark,http://uglyduck.org.uk,47-49 Tanner Street,10093342879,E09000028,49 Tanner Street,,,London Bridge & West Bermondsey,E05011104,-0.07791579108020132,533286.8113500557,51.50010756407733,179766.98850246298,Southwark,Dance rehearsal studios,E09000028,11/27/2022
Southwark,info@thebridge-uk.org,The Bridge ,10090748590,E09000028,73 – 81 Southwark Bridge Road,,,Borough & Bankside,E05011095,-0.0954819172877504,532055.1287864752,51.50452457634492,180226.20019587787,Southwark,Dance rehearsal studios,E09000028,11/27/2022
Southwark,unicorn theatre,Unicorn Theatre,10009804074,E09000028,147 Tooley Street,,,London Bridge & West Bermondsey,E05011104,-0.08063989503420484,533086.9005339423,51.50384192911409,180177.21196973388,Southwark,Dance rehearsal studios,E09000028,11/27/2022
Southwark,https://www.unicorntheatre.com,Union Theatre,200003354927,E09000028,204 Union Street,,,Borough & Bankside,E05011095,-0.1019116971531961,531611.2258208988,51.50375650771803,180129.21309753053,Southwark,Dance rehearsal studios,E09000028,11/27/2022
Lewisham,http://www.brockleyjack.co.uk,Brockley Jack Studio Theatre,100021937756,E09000023,410 Brockley Road,,,Crofton Park,E05000441,-0.03907693467554407,536120.1670288991,51.45363917833209,174672.18018634897,Southwark,Dance rehearsal studios,E09000028,11/27/2022
Southwark,https://www.menierchocolatefactory.com/Online/default.asp,Menier Theatre,200003500280,E09000028,51-53 Southwark Street,,,Borough & Bankside,E05011095,-0.09446755392874248,532125.1134595063,51.504660977562715,180243.19766681956,Southwark,Dance rehearsal studios,E09000028,11/27/2022
Southwark,https://www.theatrepeckham.co.uk,Theatre Peckham,10093342877,E09000028,221 Havil Street,,,St. Giles,E05011115,-0.0827585908476541,533025.3657666997,51.47449518638107,176910.62115935306,Southwark,Dance rehearsal studios,E09000028,11/27/2022
Southwark,https://www.mountview.org.uk,Mountview Theatre School,10094742520,E09000028,120 Peckham Hill Street,,,Peckham,E05011110,-0.06987725571183873,533918.5706031593,51.47487429992848,176976.2626903809,Southwark,Dance rehearsal studios,E09000028,11/27/2022
Southwark,http://www.siobhandavies.com,Siobhan Davies Studios,10009805291,E09000028,85 St GeorgeÔÇÖs Road,,,St. George's,E05011114,-0.10532906367427461,531396.2614309487,51.49605999784297,179267.3718267458,Southwark,Dance rehearsal studios,E09000028,11/27/2022
Southwark,http://canadawaterculturespace.org.uk/contact-us,Canada Water Culture Space,10090284129,E09000028,21 Surrey Quays Road,,,Rotherhithe,E05011112,-0.04915361053641707,535289.4125404668,51.49780959239352,179564.2989557215,Southwark,Dance rehearsal studios,E09000028,11/27/2022
Southwark,https://www.notjustalabel.com/antithesis,Antithesis,2.00003E+11,E09000028,5th Floor,7A Rich Industrial Estate,,Grange,E05000542,-0.07819160545849108,533284.8438450146,51.49422452243082,179112.4159726338,Southwark,Fashion and design,E09000028,11/27/2022
Southwark,http://www.lasercutworks.com/,LaserCut Works,2.00003E+11,E09000028,Arch 12,12 Raymouth Road,,Rotherhithe,E05000549,-0.05844098779741675,534662.5355611081,51.49183970375092,178883.44221846852,Southwark,Fashion and design,E09000028,11/27/2022
Southwark,,Phil Garment Design,2.00003E+11,E09000028,158 Old Kent Road,,,East Walworth,E05000540,-0.08191215728877543,533035.8965481974,51.49104805837756,178752.4878851208,Southwark,Fashion and design,E09000028,11/27/2022
Southwark,http://www.3rdrailclothing.co.uk/,3rd Rail,10094087496,E09000028,Unit 107,95A Rye Lane,,The Lane,E05000553,-0.06819515733783633,534047.4743494344,51.47074349546161,176520.08369309502,Southwark,Fashion and design,E09000028,11/27/2022
Southwark,http://www.londonpatternbureau.co.uk,London Pattern Bureau,10009791234,E09000028,12a Market Place,,,South Bermondsey,E05000550,-0.0634046131742532,534315.6143582262,51.49266822173589,178966.43149924907,Southwark,Fashion and design,E09000028,11/27/2022
Lewisham,http://www.cfscreativefashionservices.com/,Creative Fashion Services,1.00023E+11,E09000023,Unit 12 Excelsior Works , Rollins Street,,New Cross,E05000449,-0.05034383172619012,535247.383312282,51.484106303105634,178038.58470121986,Southwark,Fashion and design,E09000028,11/27/2022
Southwark,,A&G Jewellery Services LTD.,200003404560,E09000028,Unit 8,Dock Offices,,Rotherhithe,E05011112,-0.049439285178109305,535386.0001221001,51.49625672406921,179337.00012210011,Southwark,Jewellery design,E09000028,11/27/2022
Southwark,,Goldstyle Limited,200003375234,E09000028,2 St. Georges Mews,43 Westminster Bridge Road,,St. George's,E05011114,-0.10536858344560054,531501.0001221001,51.4974166220274,179364.00012210011,Southwark,Jewellery design,E09000028,11/27/2022
Southwark,http://www.grantmacdonald.com,Grant Macdonald (Silversmiths) Limited,200003354842,E09000028,36 Bear Lane,,,Borough & Bankside,E05011095,-0.10082543441361466,531795.0001221001,51.504798830422295,180193.00012210011,Southwark,Jewellery design,E09000028,11/27/2022
Southwark,,Lowndes London Limited,10013524600,E09000028,15 Weller Street,,,Borough & Bankside,E05011095,-0.09491963891937823,532215.0001221001,51.50127646299542,179812.00012210011,Southwark,Jewellery design,E09000028,11/27/2022
Southwark,,Mercury Gold Ltd,200003377706,E09000028,23 Oswin Street 23 Oswin Street,Kennington,,St. George's,E05011114,-0.10128014810286848,531795.0001221001,51.49386096423841,178976.00012210011,Southwark,Jewellery design,E09000028,11/27/2022
Southwark,http://www.mixyfandino.com,Mixy Fandino Limited,10009803426,E09000028,24 Old Jamaica Road,Unit 18 Jamaica Business Estate,,North Bermondsey,E05011106,-0.06901976778913416,534025.0001221001,51.49695855610407,179379.00012210011,Southwark,Jewellery design,E09000028,11/27/2022
Southwark,,The Buena Vida Collective LTD.,10090748110,E09000028,9-10 Action House,53 Sandgate Street,,Old Kent Road,E05011109,-0.06124869177667336,534602.0001221001,51.48416722665932,177971.00012210011,Southwark,Jewellery design,E09000028,11/27/2022
Southwark,,Tilly Lauder London Limited,10091963632,E09000028,3 More London Riverside,,,London Bridge & West Bermondsey,E05011104,-0.07802645401672761,533380.0001221001,51.50377981801567,180121.00012210011,Southwark,Jewellery design,E09000028,11/27/2022
Southwark,http://www.xxl-london.com/xxl-london/,Pulse,,E09000028,1 Invicta Plaza,Southbank,,Borough & Bankside,E05011095,-0.10543437595705592,531353.2467147015,51.50846914017211,180646.82779320597,Southwark,LGBT+ night time venues,E09000028,11/27/2022
,,The Chateau,,,29-33 Camberwell Church St,,,,,-0.09017221928194517,532512.059193009,51.47401131106834,176843.37343862798,Southwark,LGBT+ night time venues,E09000028,11/27/2022
Southwark,https://diyspaceforlondon.org/,DIY Space for London (Regular LGBTQ+ Programming),,,96-108 Ormside Street,,,,,-0.05547423156462301,534894.8040651289,51.4829075802266,177895.84338566376,Southwark,LGBT+ night time venues,E09000028,11/27/2022
Southwark,,Kingswood Library,200003436418,E09000028,Seeley Drive,,,Dulwich Wood,E05011101,-0.08012089214867327,533450.0001221001,51.42992201696994,171905.00012210011,Southwark,Libraries,E09000028,11/27/2022
Southwark,,Dulwich Library,200003440972,E09000028,Lordship Lane,,,Dulwich Village,E05011100,-0.07297420067566748,533893.0001221001,51.44828683387968,173960.00012210011,Southwark,Libraries,E09000028,11/27/2022
Southwark,,Grove Vale Library,200003443932,E09000028,Grove Vale,,,Goose Green,E05011103,-0.07771833171788546,533526.0001221001,51.461099821839156,175376.00012210011,Southwark,Libraries,E09000028,11/27/2022
Southwark,,Nunhead Library,200003385977,E09000028,Gordon Road,,,Nunhead & Queen's Road,E05011108,-0.05810446844269867,534876.0001221001,51.46527338871759,175876.00012210011,Southwark,Libraries,E09000028,11/27/2022
Southwark,,Peckham Library,200003394812,E09000028,Peckham Hill Street,,,Peckham,E05011110,-0.06776288247969328,534180.0001221001,51.473869077103096,176814.00012210011,Southwark,Libraries,E09000028,11/27/2022
Southwark,,Camberwell Library,10090749181,E09000028,Camberwell Green,,,Camberwell Green,E05011096,-0.09103313772277206,532560.0001221001,51.47531156485251,176932.00012210011,Southwark,Libraries,E09000028,11/27/2022
Southwark,,Brandon Library,200003494326,E09000028,Maddock Way,,,Newington,E05011105,-0.10134662505750766,531824.0001221001,51.482206295332276,177680.00012210011,Southwark,Libraries,E09000028,11/27/2022
Southwark,,East Street Library,200003494660,E09000028,Old Kent Road,,,North Walworth,E05011107,-0.08010259079525231,533275.0001221001,51.4903863195971,178628.00012210011,Southwark,Libraries,E09000028,11/27/2022
Southwark,,Blue Anchor Library,200003408074,E09000028,Market Place,,,South Bermondsey,E05011116,-0.062081863362978496,534520.0001221001,51.49237424087109,178882.00012210011,Southwark,Libraries,E09000028,11/27/2022
Southwark,,Newington Temporary Library,10093341252,E09000028,Elephant Road,,,North Walworth,E05011107,-0.09695339741663699,532096.5100707933,51.49344456416777,178937.50012210011,Southwark,Libraries,E09000028,11/27/2022
Southwark,,Canada Water Library,10090284129,E09000028,Surrey Quays Road,,,Rotherhithe,E05011112,-0.04756497723099625,535513.0001221001,51.49729577685604,179456.00012210011,Southwark,Libraries,E09000028,11/27/2022
Southwark,,John Harvard Library,200003356510,E09000028,Borough High Street,,,Chaucer,E05011098,-0.09032366953784811,532534.0001221001,51.50125566453026,179818.00012210011,Southwark,Libraries,E09000028,11/27/2022
Southwark,www.southlondongallery.org/,South London Gallery,200000000000,E09000028,65-67 Peckham Rd, , ,St. Giles,E05011115,-0.07974972330057029,533234.8736881798,51.47428603079586,176892.8409558902,Southwark,Live in artists' workspace,E09000028,11/27/2022
Southwark,http;//ossory.com,52 Ossory Llp,200003000000,E09000028,52 Ossory,52 Ossory Road,,Old Kent Road,E05011109,-0.07127822299794433,533795.7211462915,51.48360738883932,177944.63467046712,Southwark,Makerspaces,E09000028,11/27/2022
Southwark,www.bainbridgeprint.com,Bainbridge Print,10090286107,E09000028,Bainbridge Print,Units 7-9 Taplow House,Thurlow St,Faraday,E05011102,-0.08600232564670002,532761.0532575973,51.48794369914169,178399.91671160195,Southwark,Makerspaces,E09000028,11/27/2022
Southwark,http://www.fluxstudios.org/membership.html,Flux Studios,200003000000,E09000028,Flux Jewellery Centre Of Excellence,2f Vanguard Court,,St. Giles,E05011115,-0.08143425251291196,533123.1446123385,51.472493558262244,176690.49050480168,Southwark,Makerspaces,E09000028,11/27/2022
Southwark,http://www.pangaeasculptorscentre.com/,Pangea Sculptors' Centre,200003000000,E09000028,Pangea Sculptors' Centre,133 Copeland Road,,Rye Lane,E05011113,-0.06573931003820578,534220.1515545914,51.47000809864083,176442.8236607681,Southwark,Makerspaces,E09000028,11/27/2022
Southwark,http://peckhamprintstudio.com/,Peckham Print Studio,200003000000,E09000028,Peckham Print Studio,The Sunday Painter,12-16 Blenheim Grove,Rye Lane,E05011113,-0.06919964771369894,533980.6927521,51.469733154326036,176405.9159361212,Southwark,Makerspaces,E09000028,11/27/2022
Southwark,http://sonsolesprintstudio.co.uk/studio-facilities/,Sonsoles Print Stuido,200003000000,E09000028,Sonsoles Print Stuido,"Unit 11, Print Village",Chadwick Road,Rye Lane,E05011113,-0.07409054512939307,533645.7797678439,51.46813197348256,176218.9571889345,Southwark,Makerspaces,E09000028,11/27/2022
Southwark,www.sugarhousestudios.co.uk/,Sugarhouse Studios,10094085505,E09000028,Sugarhouse Studios,19 Collett Road,,North Bermondsey,E05011106,-0.06349997009232128,534298.6263620779,51.49619495212066,179358.3507289522,Southwark,Makerspaces,E09000028,11/27/2022
Southwark,https://www.sustainableworkspaces.co.uk/bridges/,Sustainable Workspaces,200003000000,E09000028,Sustainable Workspaces,29 Shand Street,,London Bridge & West Bermondsey,E05011104,-0.08121611255500588,533049.906398343,51.50281720043114,180062.23609555612,Southwark,Makerspaces,E09000028,11/27/2022
Southwark,www.thegoodlifecentre.co.uk/,The Goodlife Centre,10013527006,E09000028,The Goodlife Centre,122 Webber Street,Southwark,Borough & Bankside,E05011095,-0.09977662204591332,531768.1864997722,51.50070036086281,179793.27667763043,Southwark,Makerspaces,E09000028,11/27/2022
Southwark,http://www.johnhindsframing.com,John Hinds Framing,10091666155,E09000028,Studio 10,3-5 Latona Road,,Livesey,E05000543,-0.06951723384127022,534036.0001221001,51.48143468545867,177652.00012210011,Southwark,Making and manufacturing,E09000028,11/27/2022
Southwark,https://www.londonstonecarving.com,London Stone Carving,2.00003E+11,E09000028,52 Ossory Road,,,East Walworth,E05000540,-0.06969209075827913,534019.0001221001,51.48309240092146,177836.00012210011,Southwark,Making and manufacturing,E09000028,11/27/2022
Southwark,,Patey Hats,2.00003E+11,E09000028,12 Ilderton Rd,,,Livesey,E05000543,-0.05193429305988594,535259.0001221001,51.48065817947147,177598.00012210011,Southwark,Making and manufacturing,E09000028,11/27/2022
Southwark,http://www.purposepowdercoatings.com/index.php,Purpose Powder Coatings,2.00003E+11,E09000028,18 Manor Grove,,,Livesey,E05000543,-0.05345090405778955,535151.0001221001,51.48157374641601,177697.00012210011,Southwark,Making and manufacturing,E09000028,11/27/2022
Southwark,http://fluxmetal.co.uk,Flux Metal,10013524422,E09000028,25 Hatcham Road,,,Livesey,E05000543,-0.053366686198361726,535156.0001221001,51.481860146348815,177729.00012210011,Southwark,Making and manufacturing,E09000028,11/27/2022
Southwark,https://weberindustries.com/,Weber Industries,2.00003E+11,E09000028,Studio 11G,90  Haymerle Road,,Livesey,E05000543,-0.06822663851797364,534124.0001221001,51.48198002871997,177715.00012210011,Southwark,Making and manufacturing,E09000028,11/27/2022
Southwark,https://www.steeldeck.co.uk/,Steeldeck,10000813686,E09000028,Unit 58 Marchant Estate,42-72 Verney Road,,Livesey,E05000543,-0.0580190809692939,534824.0001221001,51.484914213659245,178060.00012210011,Southwark,Making and manufacturing,E09000028,11/27/2022
Southwark,http://www.tate.org.uk/modern,Tate Modern,10000813334,E09000028,Bankside,NA,NA,Borough & Bankside,E05011095,-0.09778944104236914,531999.0001221001,51.507105946087954,180455.00012210011,Southwark,Museums and public galleries,E09000028,11/27/2022
Southwark,http://www.ftmlondon.org/,Fashion and Textile Museum,10000818830,E09000028,83 Bermondsey Street London,NA,NA,London Bridge & West Bermondsey,E05011104,-0.08020362914982261,533238.0001221001,51.500667710567775,179771.00012210011,Southwark,Museums and public galleries,E09000028,11/27/2022
Southwark,http://www.culture24.org.uk/mw921,London Fire Brigade Museum,200003353307,E09000028,Winchester House,94a Southwark Bridge Rd,NA,Borough & Bankside,E05011095,-0.09654051697694496,532102.0001221001,51.5014556774631,179829.00012210011,Southwark,Museums and public galleries,E09000028,11/27/2022
Southwark,http://iwm.org.uk/,HMS Belfast,200003356908,E09000028,Uxbridge,Middlesex,NA,London Bridge & West Bermondsey,E05011104,-0.07987743963396833,533244.8500976935,51.50607878621127,180373.25012210011,Southwark,Museums and public galleries,E09000028,11/27/2022
Southwark,http://london.iwm.org.uk/,Imperial War Museum,200003372421,E09000028,Lambeth Rd,NA,NA,St. George's,E05011114,-0.10674497455217183,531411.0001221001,51.49549623355274,179148.00012210011,Southwark,Museums and public galleries,E09000028,11/27/2022
Southwark,http://www.oldoperatingtheatre.com/,Old Operating Theatre and Herb Garret,200003376919,E09000028,9A St Thomas’ Street,NA,NA,London Bridge & West Bermondsey,E05011104,-0.08684463255810528,532766.0001221001,51.504499614247344,180185.00012210011,Southwark,Museums and public galleries,E09000028,11/27/2022
Southwark,www.brunel-museum.org.uk/,Brunel Museum,200003410582,E09000028,Brunel Engine House,Railway Avenue,Rotherhithe,Rotherhithe,E05011112,-0.05135151331000887,535239.0001221001,51.50108214864109,179870.00012210011,Southwark,Museums and public galleries,E09000028,11/27/2022
Southwark,http://www.dulwichpicturegallery.org.uk/,Dulwich Picture Gallery,200003435462,E09000028,6 Gallery Road,Dulwich Village,NA,Dulwich Village,E05011100,-0.08483760757288923,533077.0001221001,51.445459396787655,173624.00012210011,Southwark,Museums and public galleries,E09000028,11/27/2022
Southwark,http://www.hedkandi.com,Hed Kandi Records,200000000000,E09000028,103 Gaunt Street,Southwark,,St. George's,E05011114,-0.0976137723616264,532040.000122197,51.497138170030446,179347.00012159348,Southwark,Music (office based businesses),E09000028,11/27/2022
Southwark,club.ministryofsound.com,Ministry Of Sound,200000000000,E09000028,103 Gaunt Street,Southwark,,St. George's,E05011114,-0.0976137723616264,532040.000122197,51.497138170030446,179347.00012159348,Southwark,Music (office based businesses),E09000028,11/27/2022
Southwark,https://www.makingmusic.org.uk/,Making Music,0,E09000028,8 Holyrood Streetlondon ,,,London Bridge & West Bermondsey,E05011104,-0.08054043734167014,533207.9329224974,51.50296302931066,180025.6029047966,Southwark,Music (office based businesses),E09000028,11/27/2022
Southwark,https://www.aastudioslondon.co.uk/?gclid=Cj0KCQjwpPHoBRC3ARIsALfx-_L6E7NDEKR4tN4OzDFXZUmLJxvfcHnoYERXPsswCVeyHn8jb31DRmEaAsEdEALw_wcB,AA Studios,,,212 Ilderton Road,South Bermondsey,,,,-0.05223863914105037,535234.4668018967,51.48180863582705,177725.35592009872,Southwark,Music recording studios,E09000028,11/27/2022
Southwark,https://hotmoneystudios.com/,Hot Money Studios/Atomic Studios,,,212 Ilderton Road,South Bermondsey,,,,-0.05252664969596093,535214.5208097994,51.481792049414295,177722.97970049828,Southwark,Music recording studios,E09000028,11/27/2022
Southwark,https://milocostudios.com/studios/,Miloco HQ,,,36 Leroy Street,,,,,-0.08152833046689663,533166.3664331958,51.493704378549786,178994.33882139623,Southwark,Music recording studios,E09000028,11/27/2022
Southwark,www.123productions.co.uk,123 Studios,0,E09000028,4b Copeland Park,133 Copeland Rd,London,Rye Lane,E05011113,-0.06471424365686074,534405.000122197,51.469339928070696,176316.00012159348,Southwark,Music recording studios,E09000028,11/27/2022
Southwark,https://www.thisisdrummerboy.com/,Drummer Boy Uk Ltd,0,E09000028,93 Peckham High Streetlondon ,,,Peckham,E05011110,-0.06763905387640405,534190.3386841938,51.47327609451378,176748.29388379306,Southwark,Music recording studios,E09000028,11/27/2022
Southwark,www.superunisonstudios.com,Super Unison Studios,0,E09000028,Unit 2a 1 Copeland Park,133 Copeland Road,Peckham,Rye Lane,E05011113,-0.06523723019330659,534369.000122197,51.46923164277684,176303.00012159348,Southwark,Music rehearsal studios,E09000028,11/27/2022
Southwark,www.huskystudios.co.uk,Husky Studios,200000000000,E09000028,29a Amelia Street,Southwark,,Newington,E05011105,-0.0968556606786586,532116.000122197,51.489049588791225,178449.00012159348,Southwark,Music rehearsal studios,E09000028,11/27/2022
Southwark,www.roguestudios.co.uk,Rogue Studios,200000000000,E09000028,Railway Arch 4 Bermondsey Trading Estate,Rotherhithe New Road,Southwark,South Bermondsey,E05011116,-0.05362047404010184,535118.000122197,51.48875352711152,178495.00012159348,Southwark,Music rehearsal studios,E09000028,11/27/2022
Southwark,www.musicbank.org,Music Bank,200000000000,E09000028,Block C-D Unit Tower Bridge Business Complex,100,Clements Road,North Bermondsey,E05011106,-0.060626774338034164,534619.000122197,51.4930516880961,178960.00012159348,Southwark,Music rehearsal studios,E09000028,11/27/2022
Southwark,www.vineyardstudios.co.uk,Vine Yard Studios,0,E09000028,Virama House 8c Vine Yard,,,Borough & Bankside,E05011095,-0.09240868398797482,532392.000122197,51.50032728495702,179711.00012159348,Southwark,Music rehearsal studios,E09000028,11/27/2022
Southwark,http://www.themiller.co.uk/rehearsal-studio,The Miller Pub,200000000000,E09000028,96 Snowsfields,Southwark,,London Bridge & West Bermondsey,E05011104,-0.08598813301931224,532834.000122197,51.50155371422932,179859.00012159348,Southwark,Music rehearsal studios,E09000028,11/27/2022
Southwark,https://londonbridgehive.org/,Hive London Bridge,0,E09000028,1 Melior Placelondon ,,,London Bridge & West Bermondsey,E05011104,-0.08282167789840732,533053.2755127996,51.5017119144606,179882.3421015963,Southwark,Music rehearsal studios,E09000028,11/27/2022
Southwark,www.peckhamlevels.org/events,Peckham Levels,0,E09000028,Peckham Levels 95a Rye Lane,London Se15 4st,,Rye Lane,E05011113,-0.06660641569886153,534271.000122197,51.47022555171327,176411.00012159348,Southwark,Music venues (all),E09000028,11/27/2022
Southwark,,Rumpus Room,10091666184,E09000028,20 Upper Ground,Southwark,,Borough & Bankside,E05011095,-0.1053503689668218,531472.000122197,51.50792985311685,180533.00012159348,Southwark,Music venues (all),E09000028,11/27/2022
Southwark,www.thehernetavern.co.uk,Herne Tavern,200000000000,E09000028,2 Forest Hill Road,Southwark,,Dulwich Hill,E05011099,-0.06158002254864555,534669.000122197,51.453594112934965,174571.00012159348,Southwark,Music venues (all),E09000028,11/27/2022
Southwark,www.greatexhibition.pub,Great Exhibition,200000000000,E09000028,193 Crystal Palace Road,Southwark,,Goose Green,E05011103,-0.0700539770893149,534078.000122197,51.454390488145116,174644.00012159348,Southwark,Music venues (all),E09000028,11/27/2022
Southwark,www.mct.alleyns.org.uk,The Mct At Alleyn's,0,E09000028,Alleyn's School Townley Road,East Dulwich,,Goose Green,E05011103,-0.0798481999770829,533392.4970703945,51.45615062855035,174821.82287549973,Southwark,Music venues (all),E09000028,11/27/2022
Southwark,www.ivyhousenunhead.com,Ivy House,10013526983,E09000028,40 Stuart Road,Southwark,,Peckham Rye,E05011111,-0.05049388212402185,535427.000122197,51.45769126535562,175047.00012159348,Southwark,Music venues (all),E09000028,11/27/2022
Southwark,www.eastdulwichtavern.com,East Dulwich Tavern,10091912263,E09000028,1 Lordship Lane,Southwark,,Goose Green,E05011103,-0.07330739963219708,533836.000122197,51.45985822258447,175246.00012159348,Southwark,Music venues (all),E09000028,11/27/2022
Southwark,www.theoldnunshead.co.uk,Old Nuns Head,200000000000,E09000028,15 Nunhead Green,Southwark,,Nunhead & Queen's Road,E05011108,-0.05802550021370836,534883.000122197,51.46475943885763,175819.00012159348,Southwark,Music venues (all),E09000028,11/27/2022
Southwark,,Canavan's Peckham Pool Club,200000000000,E09000028,Flat 188,Rye Lane,Southwark,Rye Lane,E05011113,-0.06501198452077159,534392.000122197,51.46672767617534,176025.00012159348,Southwark,Music venues (all),E09000028,11/27/2022
Southwark,,Tasty Bakery,200000000000,E09000028,207 Rye Lane,Southwark,,Rye Lane,E05011113,-0.06497934145962826,534393.000122197,51.46715883504692,176073.00012159348,Southwark,Music venues (all),E09000028,11/27/2022
Southwark,www.johntheunicorn.com,John The Unicorn,0,E09000028,157-159 Rye Ln London,,,Rye Lane,E05011113,-0.0659406067999548,534323.000122197,51.468262936391504,176194.00012159348,Southwark,Music venues (all),E09000028,11/27/2022
Southwark,,Copeland Gallery,10091904160,E09000028,Unit C2 Industrial Park,133,Copeland Road,Rye Lane,E05011113,-0.06414618193486392,534444.000122197,51.46949243518902,176334.00012159348,Southwark,Music venues (all),E09000028,11/27/2022
Southwark,,Copeland Park & Bussey Building,10091904160,E09000028,Unit C2 Industrial Park,133,Copeland Road,Rye Lane,E05011113,-0.06414618193486392,534444.000122197,51.46949243518902,176334.00012159348,Southwark,Music venues (all),E09000028,11/27/2022
Southwark,www.jazzlive.co.uk,Jazzlive At The Crypt,0,E09000028,St. Giles Church Camberwell Church St,London,,St. Giles,E05011115,-0.08525854559174639,532969.000122197,51.472546272404685,176635.00012159348,Southwark,Music venues (all),E09000028,11/27/2022
Southwark,,The Tiger,200000000000,E09000028,18 Camberwell Green,Southwark,,Camberwell Green,E05011096,-0.09087441641111654,532577.000122197,51.47324943166757,176703.00012159348,Southwark,Music venues (all),E09000028,11/27/2022
Southwark,,Prince Of Peckham,200000000000,E09000028,1 Clayton Road,Southwark,,Rye Lane,E05011113,-0.06372129857416942,534463.000122197,51.47306490972323,176732.00012159348,Southwark,Music venues (all),E09000028,11/27/2022
Southwark,www.hrp.org.uk/hampton-court-palace,Hampton Court Palace,200000000000,E09000028,35 Hampton Street,Southwark,,Newington,E05011105,-0.09895943448448172,531964.000122197,51.49111627878908,178675.00012159348,Southwark,Music venues (all),E09000028,11/27/2022
Southwark,www.corsicastudios.com,Corsica Studios,10013530837,E09000028,Southwark ,,,North Walworth,E05011107,-0.09713764606843979,532085.000122197,51.493002369861806,178888.00012159348,Southwark,Music venues (all),E09000028,11/27/2022
Southwark,,Bianca Road Brew Co,200000000000,E09000028,19 Pages Walk,Southwark,,London Bridge & West Bermondsey,E05011104,-0.07818633856776318,533395.000122197,51.49484275789494,179127.00012159348,Southwark,Music venues (all),E09000028,11/27/2022
Southwark,club.ministryofsound.com,Ministry Of Sound,200000000000,E09000028,103 Gaunt Street,Southwark,,St. George's,E05011114,-0.0976137723616264,532040.000122197,51.497138170030446,179347.00012159348,Southwark,Music venues (all),E09000028,11/27/2022
Southwark,,Canada Water Cultural Space,10090284129,E09000028,21 Surrey Quays Road,Southwark,,Rotherhithe,E05011112,-0.04756497722979679,535513.000122197,51.49729577685145,179456.00012159348,Southwark,Music venues (all),E09000028,11/27/2022
Southwark,,Printworks,200003500401,E09000028,1 Surrey Quays Road ,,,Surrey Docks,E05011117,-0.04226471550840029,535881.000122197,51.49724337406863,179460.00012159348,Southwark,Music venues (all),E09000028,11/27/2022
Southwark,www.thegladpub.co.uk,Gladstone Arms,200000000000,E09000028,64 Lant Street,Southwark,,Borough & Bankside,E05011095,-0.09353001444375332,532314.000122197,51.5003904899722,179716.00012159348,Southwark,Music venues (all),E09000028,11/27/2022
Southwark,www.themiller.co.uk,The Miller,200000000000,E09000028,93 Snowsfields,Southwark,,London Bridge & West Bermondsey,E05011104,-0.08633487243171269,532810.000122197,51.501532392670235,179856.00012159348,Southwark,Music venues (all),E09000028,11/27/2022
Southwark,www.bermondseyyardcafe.co.uk,Bermondsey Yard Cafe,10091904712,E09000028,40 Bermondsey Street,Southwark,,London Bridge & West Bermondsey,E05011104,-0.0811060819567776,533172.000122197,51.501824674346345,179898.00012159348,Southwark,Music venues (all),E09000028,11/27/2022
Southwark,https://www.theunderdog.london/,Underdog Gallery,0,E09000028,Arch 6 Crucifix Lane London ,,,London Bridge & West Bermondsey,E05011104,-0.08013241981609634,533239.4816895947,51.50185391670321,179903.02368109673,Southwark,Music venues (all),E09000028,11/27/2022
Southwark,https://www.kcl.ac.uk/greenwood/index.aspx,Greenwood Theatre,0,E09000028,55 Weston Street London ,,,London Bridge & West Bermondsey,E05011104,-0.08431681440198924,532948.2894898951,51.50213497684008,179926.6652826965,Southwark,Music venues (all),E09000028,11/27/2022
Southwark,www.belushis.com,Belushi's London Bridge,10090282771,E09000028,161-165 Borough High Street,Southwark,,Chaucer,E05011098,-0.09007659019826214,532548.000122197,51.50233986894428,179939.00012159348,Southwark,Music venues (all),E09000028,11/27/2022
Southwark,www.omearalondon.com,Omeara,0,E09000028,6 O'meara St London,,,Borough & Bankside,E05011095,-0.09299134896836236,532342.000122197,51.503628427973936,180077.00012159348,Southwark,Music venues (all),E09000028,11/27/2022
Southwark,,Great Suffolk Street Warehouse,200000000000,E09000028,29 Great Suffolk Street,Southwark,,Borough & Bankside,E05011095,-0.09981189065719617,531868.000122197,51.50387405606047,180092.00012159348,Southwark,Music venues (all),E09000028,11/27/2022
Southwark,www.menierchocolatefactory.com,Menier Chocolate Factory,200000000000,E09000028,Southwark ,,,Borough & Bankside,E05011095,-0.09286877355097649,532349.000122197,51.50414806436399,180135.00012159348,Southwark,Music venues (all),E09000028,11/27/2022
Southwark,www.shakespearesglobe.com/theatre/whats-on/sam-wanamaker-playhouse,Sam Wanamaker Playhouse,200000000000,E09000028,21 New Globe Walk,Southwark,,Borough & Bankside,E05011095,-0.09498731398111472,532192.000122197,51.50760007431416,180515.00012159348,Southwark,Music venues (all),E09000028,11/27/2022
Southwark,www.bargehouse.co.uk,Bargehouse,0,E09000028,Oxo Tower Wharf ,,,Borough & Bankside,E05011095,-0.10724306847881179,531341.000122197,51.50781652054718,180517.00012159348,Southwark,Music venues (all),E09000028,11/27/2022
Southwark,www.peckhamlevels.org/events,Peckham Levels,0,E09000028,Peckham Levels 95a Rye Lane,London Se15 4st,,Rye Lane,E05011113,-0.06660641569886153,534271.000122197,51.47022555171327,176411.00012159348,Southwark,Music venues (grassroots),E09000028,11/27/2022
Southwark,www.corsicastudios.com,Corsica Studios,10013530837,E09000028,Southwark ,,,North Walworth,E05011107,-0.09713764606843979,532085.000122197,51.493002369861806,178888.00012159348,Southwark,Music venues (grassroots),E09000028,11/27/2022
Southwark,www.omearalondon.com,Omeara,0,E09000028,6 O'meara St London,,,Borough & Bankside,E05011095,-0.09299134896836236,532342.000122197,51.503628427973936,180077.00012159348,Southwark,Music venues (grassroots),E09000028,11/27/2022
Southwark,https://www.southwark.gov.uk/parks-and-open-spaces/parks/southwark-park,Southwark Park,,E09000028,Gomm Road,,,Rotherhithe,E05011112,-0.054762076689755676,535021.7108764946,51.4945217732394,179134.26007079333,Southwark,Outdoor spaces for cultural use,E09000028,11/27/2022
Southwark,,Burgess Park ,,E09000028,150 Albany Rd,,,Faraday,E05011102,-0.08184099859925431,533174.1774901971,51.48357600110482,177867.6005248949,Southwark,Outdoor spaces for cultural use,E09000028,11/27/2022
Southwark,,Dulwich Park ,,E09000028,Dulwich,,,Dulwich Village,E05011100,-0.0787339998216367,533499.9321288988,51.4458530005016,173678.8715209961,Southwark,Outdoor spaces for cultural use,E09000028,11/27/2022
Southwark,https://aconstructionproduction.com,A Construction Production,2.00003E+11,E09000028,9 Alpha Street,,,The Lane,E05000553,-0.06659067431575001,534283.0001221001,51.466510894666776,175998.00012210011,Southwark,Prop and costume making,E09000028,11/27/2022
Southwark,http://absolutemotioncontrol.com,Absolute Motion Control Ltd,2.00003E+11,E09000028,78-82 Brandon Street,,,East Walworth,E05000540,-0.09176170536379158,532466.0001221001,51.490288858214164,178596.00012210011,Southwark,Prop and costume making,E09000028,11/27/2022
Southwark,https://www.ett.org.uk,English Touring Theatre,2.00003E+11,E09000028,25 Short Street,,,Cathedrals,E05000536,-0.10540872267965143,531484.0001221001,51.50235476234658,179913.00012210011,Southwark,Prop and costume making,E09000028,11/27/2022
Southwark,http://fluxmetal.co.uk/,Flux Metal,10013524422,E09000028,25 Hatcham Road,,,Livesey,E05000543,-0.053366686198361726,535156.0001221001,51.481860146348815,177729.00012210011,Southwark,Prop and costume making,E09000028,11/27/2022
Southwark,http://www.sandsfilms.co.uk/,Sands Films ,2.00003E+11,E09000028,82 Marychurch Street,,,Rotherhithe,E05000549,-0.051798295535364296,535208.0001221001,51.501080579068294,179869.00012210011,Southwark,Prop and costume making,E09000028,11/27/2022
Southwark,http://www.souvenir.co.uk,Scenic Souvenir Studios ,2.00003E+11,E09000028,Unit 8,12 Verney Road,,Livesey,E05000543,-0.06183767057915181,534559.620117195,51.48467413531149,178026.28009029478,Southwark,Prop and costume making,E09000028,11/27/2022
Southwark,https://www.setwo.co.uk/,Setwo Ltd,10000813689,E09000028,"Unit 48, T Marchant Trading Estate", Verney Road,,Livesey,E05000543,-0.05687334538155602,534905.0001221001,51.48441856463549,178007.00012210011,Southwark,Prop and costume making,E09000028,11/27/2022
Southwark,,Rye,,E09000028,31 Peckham Rye,Peckham,London,Rye Lane,E05011113,-0.06381138808364838,534483.0001221001,51.4641356522452,175739.00012210011,Southwark,Pubs,E09000028,11/27/2022
Southwark,,Hope,,E09000028,3 Melon Road,Peckham,London,Peckham,E05011110,-0.06945244459193495,534065.0001221001,51.47307848719919,176723.00012210011,Southwark,Pubs,E09000028,11/27/2022
Southwark,,Mc & Sons,,E09000028,160 Union Street,London,Southwark,Borough & Bankside,E05011095,-0.09876677657219421,531942.0001221001,51.5033624668974,180037.00012210011,Southwark,Pubs,E09000028,11/27/2022
Southwark,,Lord Nelson,,E09000028,243 Union Street,London,Southwark,Borough & Bankside,E05011095,-0.10068790389821314,531810.0001221001,51.502907944835655,179983.00012210011,Southwark,Pubs,E09000028,11/27/2022
Southwark,,Union Jack,,E09000028,225 Union Street,London,Southwark,Borough & Bankside,E05011095,-0.10068790389821314,531810.0001221001,51.502907944835655,179983.00012210011,Southwark,Pubs,E09000028,11/27/2022
Southwark,,Charlotte,,E09000028,204 Union Street,London,Southwark,Borough & Bankside,E05011095,-0.10032807568613128,531834.0001221001,51.50324387322698,180021.00012210011,Southwark,Pubs,E09000028,11/27/2022
Southwark,,Tall House,,E09000028,134 Southwark Street,London,Southwark,Borough & Bankside,E05011095,-0.09823838297930013,531973.0001221001,51.505323499499006,180256.00012210011,Southwark,Pubs,E09000028,11/27/2022
Southwark,,White Hart,,E09000028,22 Great Suffolk Street,London,Southwark,Borough & Bankside,E05011095,-0.09972979524273419,531871.0001221001,51.50480806116864,180196.00012210011,Southwark,Pubs,E09000028,11/27/2022
Southwark,,Duke of York,,E09000028,47-48 Borough Road,London,Borough,Borough & Bankside,E05011095,-0.09797726440669145,532010.0001221001,51.498789899567385,179530.00012210011,Southwark,Pubs,E09000028,11/27/2022
Southwark,,Ship,,E09000028,68 Borough Road,London,Borough,Borough & Bankside,E05011095,-0.09527441785006466,532197.0001221001,51.498988853083496,179557.00012210011,Southwark,Pubs,E09000028,11/27/2022
Southwark,,Lord Clyde,,E09000028,27 Clennam Street,London,Borough,Borough & Bankside,E05011095,-0.09409776437617987,532269.0001221001,51.502324354435956,179930.00012210011,Southwark,Pubs,E09000028,11/27/2022
Southwark,,Belushi's,,E09000028,161-165 Borough High Street,London,Borough,Chaucer,E05011098,-0.09017739500154787,532541.0001221001,51.502341510819015,179939.00012210011,Southwark,Pubs,E09000028,11/27/2022
Southwark,,Blue Eyed Maid,,E09000028,173 Borough High Street,London,Borough,Chaucer,E05011098,-0.09017739500154787,532541.0001221001,51.502341510819015,179939.00012210011,Southwark,Pubs,E09000028,11/27/2022
Southwark,,Trinity,,E09000028,202-206 Borough High Street,London,Borough,Borough & Bankside,E05011095,-0.09258725270263868,532379.0001221001,51.50053704320685,179734.00012210011,Southwark,Pubs,E09000028,11/27/2022
Southwark,,Old King's Head,,E09000028,"King's Head Yard, 45-49 Borough High Street",London,Borough,London Bridge & West Bermondsey,E05011104,-0.08788368504516968,532695.0001221001,51.50412084267246,180141.00012210011,Southwark,Pubs,E09000028,11/27/2022
Southwark,,George,,E09000028,77 Borough High Street,London,Borough,London Bridge & West Bermondsey,E05011104,-0.08885109096534428,532629.0001221001,51.50373190064646,180096.00012210011,Southwark,Pubs,E09000028,11/27/2022
Southwark,,St Christopher's Inn,,E09000028,121 Borough High Street,London,Borough,London Bridge & West Bermondsey,E05011104,-0.08951180946219604,532585.0001221001,51.50309512649253,180024.00012210011,Southwark,Pubs,E09000028,11/27/2022
Southwark,,Heeltap,,E09000028,"Chaucer House, White Hart Yard, Borough High Street",London,Borough,London Bridge & West Bermondsey,E05011104,-0.08804473237242534,532684.0001221001,51.50406051331397,180134.00012210011,Southwark,Pubs,E09000028,11/27/2022
Southwark,,Libertine,,E09000028,125 Great Suffolk Street,London,Borough,Borough & Bankside,E05011095,-0.09624510315056595,532126.0001221001,51.50024573667411,179695.00012210011,Southwark,Pubs,E09000028,11/27/2022
Southwark,,Gladstone Arms,,E09000028,64 Lant Street,London,Borough,Borough & Bankside,E05011095,-0.09302601106759989,532349.0001221001,51.50038229438487,179716.00012210011,Southwark,Pubs,E09000028,11/27/2022
Southwark,,Rose & Crown,,E09000028,65 Union Street,London,Borough,Borough & Bankside,E05011095,-0.09342173796860043,532313.0001221001,51.50332964356422,180043.00012210011,Southwark,Pubs,E09000028,11/27/2022
Southwark,,Southwark Tavern,,E09000028,22 Southwark Street,London,Borough,Borough & Bankside,E05011095,-0.09005150718585705,532544.0001221001,51.50431805745516,180159.00012210011,Southwark,Pubs,E09000028,11/27/2022
Southwark,,Sheaf,,E09000028,"The Hop Exchange, 24 Southwark Street",London,Borough,Borough & Bankside,E05011095,-0.08942924318817048,532587.0001221001,51.50437986934569,180167.00012210011,Southwark,Pubs,E09000028,11/27/2022
Southwark,,Katzenjammers,,E09000028,"The Hop Exchange, 24 Southwark Street",London,Borough,Borough & Bankside,E05011095,-0.08942924318817048,532587.0001221001,51.50437986934569,180167.00012210011,Southwark,Pubs,E09000028,11/27/2022
Southwark,,Bridge Tap,,E09000028,32-34 Borough High Street,London,Borough,Borough & Bankside,E05011095,-0.08911455900463754,532610.0001221001,51.5039790222687,180123.00012210011,Southwark,Pubs,E09000028,11/27/2022
Southwark,,Kings Arms,,E09000028,65 Newcomen Street,London,Borough,Chaucer,E05011098,-0.08964908074274514,532578.0001221001,51.50222498137487,179927.00012210011,Southwark,Pubs,E09000028,11/27/2022
Southwark,,Ship Aground,,E09000028,33 Wolseley Street,London,Bermondsey-West,North Bermondsey,E05011106,-0.06953136231911193,533980.0001221001,51.500195701863205,179738.00012210011,Southwark,Pubs,E09000028,11/27/2022
Southwark,,Marquis of Wellington,,E09000028,21 Druid Street,London,Bermondsey-West,London Bridge & West Bermondsey,E05011104,-0.07787436271285897,533395.0001221001,51.502257400246684,179952.00012210011,Southwark,Pubs,E09000028,11/27/2022
Southwark,,Southwark Brewing Co. Tap Room,,E09000028,46 Druid Street,London,Bermondsey-West,London Bridge & West Bermondsey,E05011104,-0.07456525200834951,533631.0001221001,51.50008060985429,179716.00012210011,Southwark,Pubs,E09000028,11/27/2022
Southwark,,Doodle Bar,,E09000028,60 Druid Street,London,Bermondsey-West,London Bridge & West Bermondsey,E05011104,-0.07456525200834951,533631.0001221001,51.50008060985429,179716.00012210011,Southwark,Pubs,E09000028,11/27/2022
Southwark,,Horniman at Hay's,,E09000028,"Unit 26, Hays Galleria, Counter Street",London,London Bridge,London Bridge & West Bermondsey,E05011104,-0.08193660228105304,533104.0001221001,51.50538175368488,180292.00012210011,Southwark,Pubs,E09000028,11/27/2022
Southwark,,Bottle Shop,,E09000028,128 Druid Street,London,Bermondsey-West,London Bridge & West Bermondsey,E05011104,-0.07160235956786336,533840.0001221001,51.498925700557145,179593.00012210011,Southwark,Pubs,E09000028,11/27/2022
Southwark,,Anspach & Hobday Brewery Tap Room,,E09000028,118 Druid Street,London,Bermondsey-West,London Bridge & West Bermondsey,E05011104,-0.07160235956786336,533840.0001221001,51.498925700557145,179593.00012210011,Southwark,Pubs,E09000028,11/27/2022
Southwark,,Barrel Project,,E09000028,80 Druid Street,London,Bermondsey-West,London Bridge & West Bermondsey,E05011104,-0.07098659912821546,533883.0001221001,51.49883462916909,179584.00012210011,Southwark,Pubs,E09000028,11/27/2022
Southwark,,Hawkes Cidery & Taproom,,E09000028,92 Druid Street,London,Bermondsey-West,London Bridge & West Bermondsey,E05011104,-0.07098659912821546,533883.0001221001,51.49883462916909,179584.00012210011,Southwark,Pubs,E09000028,11/27/2022
Southwark,,Kings Arms,,E09000028,251 Tooley Street,London,Bermondsey-West,North Bermondsey,E05011106,-0.07429355327753183,533647.0001221001,51.50105645539288,179825.00012210011,Southwark,Pubs,E09000028,11/27/2022
Southwark,,Anchor Tap,,E09000028,20 Horselydown Lane,London,Bermondsey-West,North Bermondsey,E05011106,-0.07463728022908603,533618.0001221001,51.502815860293985,180020.00012210011,Southwark,Pubs,E09000028,11/27/2022
Southwark,,Dean Swift,,E09000028,10 Gainsford Street,London,Bermondsey-West,North Bermondsey,E05011106,-0.07196333839210571,533806.0001221001,51.50198048349344,179932.00012210011,Southwark,Pubs,E09000028,11/27/2022
Southwark,,Mug House,,E09000028,1 Tooley Street,London,London Bridge,London Bridge & West Bermondsey,E05011104,-0.08646679765183563,532788.0001221001,51.505950416323934,180347.00012210011,Southwark,Pubs,E09000028,11/27/2022
Southwark,,Shipwrights Arms,,E09000028,88 Tooley Street,London,London Bridge,London Bridge & West Bermondsey,E05011104,-0.08202164641704078,533102.0001221001,51.504043093773916,180143.00012210011,Southwark,Pubs,E09000028,11/27/2022
Southwark,,Bridge Lounge,,E09000028,186 Tooley Street,London,Tower Bridge,London Bridge & West Bermondsey,E05011104,-0.07787401212893812,533394.0001221001,51.50260814640502,179991.00012210011,Southwark,Pubs,E09000028,11/27/2022
Southwark,,Pommelers Rest,,E09000028,196-198 Tower Bridge Road,London,Tower Bridge,North Bermondsey,E05011106,-0.07546832665039546,533563.0001221001,51.50190315784445,179917.00012210011,Southwark,Pubs,E09000028,11/27/2022
Southwark,,Draft House,,E09000028,206 Tower Bridge Road,London,Tower Bridge,North Bermondsey,E05011106,-0.0749666024373301,533595.0001221001,51.50286623542749,180025.00012210011,Southwark,Pubs,E09000028,11/27/2022
Southwark,,Browns,,E09000028,Butlers Wharf,London,Bermondsey-West,North Bermondsey,E05011106,-0.07106932756282622,533866.0001221001,51.50267627824106,180011.00012210011,Southwark,Pubs,E09000028,11/27/2022
Southwark,,All Bar One,,E09000028,34 Shad Thames,London,Bermondsey-West,North Bermondsey,E05011106,-0.07106932756282622,533866.0001221001,51.50267627824106,180011.00012210011,Southwark,Pubs,E09000028,11/27/2022
Southwark,,Grange,,E09000028,103 Grange Road,London,Bermondsey-West,South Bermondsey,E05011116,-0.07446704667834941,533656.0001221001,51.49386438500815,179025.00012210011,Southwark,Pubs,E09000028,11/27/2022
Southwark,,Leather Exchange,,E09000028,15 Leathermarket Street,London,Bermondsey-West,London Bridge & West Bermondsey,E05011104,-0.08291976830653791,533052.0001221001,51.49981278559735,179671.00012210011,Southwark,Pubs,E09000028,11/27/2022
Southwark,,Suchard,,E09000028,2 Crucifix Lane,London,Bermondsey-West,London Bridge & West Bermondsey,E05011104,-0.08020640951567082,533235.0001221001,51.50163007531137,179878.00012210011,Southwark,Pubs,E09000028,11/27/2022
Southwark,,Hiver Beers,,E09000028,"Arch 56, Stanworth Street",London,Bermondsey-West,London Bridge & West Bermondsey,E05011104,-0.07296919586381675,533748.0001221001,51.497949876682355,179482.00012210011,Southwark,Pubs,E09000028,11/27/2022
Southwark,,Horseshoe Inn,,E09000028,26 Melior Street,London,Bermondsey-West,London Bridge & West Bermondsey,E05011104,-0.08318811397347006,533027.0001221001,51.50200262575654,179914.00012210011,Southwark,Pubs,E09000028,11/27/2022
Southwark,,Britannia,,E09000028,44 Kipling Street,London,Bermondsey-West,London Bridge & West Bermondsey,E05011104,-0.0858681468000496,532845.0001221001,51.500634405271136,179757.00012210011,Southwark,Pubs,E09000028,11/27/2022
Southwark,,Miller,,E09000028,96 Snowsfields,London,Bermondsey-West,London Bridge & West Bermondsey,E05011104,-0.08598813302051647,532834.0001221001,51.501553714233886,179859.00012210011,Southwark,Pubs,E09000028,11/27/2022
Southwark,,Rose,,E09000028,123 Snowsfields,London,Bermondsey-West,London Bridge & West Bermondsey,E05011104,-0.0839512686236085,532975.0001221001,51.501673340446395,179876.00012210011,Southwark,Pubs,E09000028,11/27/2022
Southwark,,Woolpack,,E09000028,98 Bermondsey Street,London,Bermondsey-West,London Bridge & West Bermondsey,E05011104,-0.08052151607601028,533217.0001221001,51.50030417558792,179730.00012210011,Southwark,Pubs,E09000028,11/27/2022
Southwark,,Marigold,,E09000028,244 Bermondsey Street,London,Bermondsey-West,London Bridge & West Bermondsey,E05011104,-0.0800913337039433,533257.0001221001,51.49682558724442,179344.00012210011,Southwark,Pubs,E09000028,11/27/2022
Southwark,,Village East,,E09000028,171-173 Bermondsey Street,London,Bermondsey-West,London Bridge & West Bermondsey,E05011104,-0.07930186023289307,533307.0001221001,51.49846748813454,179528.00012210011,Southwark,Pubs,E09000028,11/27/2022
Southwark,,Garrison,,E09000028,99-101 Bermondsey Street,London,Bermondsey-West,London Bridge & West Bermondsey,E05011104,-0.07996709575326769,533256.0001221001,51.50012421934394,179711.00012210011,Southwark,Pubs,E09000028,11/27/2022
Southwark,,Hide,,E09000028,39-45 Bermondsey Street,London,Bermondsey-West,London Bridge & West Bermondsey,E05011104,-0.0802593865458099,533233.0001221001,51.5010553498748,179814.00012210011,Southwark,Pubs,E09000028,11/27/2022
Southwark,,Spit & Sawdust,,E09000028,21 Bartholomew Street,London,Bricklayers Arms,Chaucer,E05011098,-0.0864145318776323,532824.0001221001,51.4948154478535,179109.00012210011,Southwark,Pubs,E09000028,11/27/2022
Southwark,,Victoria,,E09000028,68-70 Page's Walk,London,Bricklayers Arms,London Bridge & West Bermondsey,E05011104,-0.07911190500489275,533333.0001221001,51.49407547739157,179040.00012210011,Southwark,Pubs,E09000028,11/27/2022
Southwark,,Royal Oak,,E09000028,44 Tabard Street,London,Borough,Chaucer,E05011098,-0.09004620421598529,532557.0001221001,51.499965056755066,179675.00012210011,Southwark,Pubs,E09000028,11/27/2022
Southwark,,Simon the Tanner,,E09000028,231 Long Lane,London,Bermondsey-West,London Bridge & West Bermondsey,E05011104,-0.0815491853782865,533153.0001221001,51.49779378137292,179449.00012210011,Southwark,Pubs,E09000028,11/27/2022
Southwark,,Bianca Road Brewery Taproom,,E09000028,19 Page's Walk,London,Bricklayers Arms,London Bridge & West Bermondsey,E05011104,-0.07873687284805107,533357.0001221001,51.49477083732281,179118.00012210011,Southwark,Pubs,E09000028,11/27/2022
Southwark,,George,,E09000028,40 Tower Bridge Road,London,Bricklayers Arms,London Bridge & West Bermondsey,E05011104,-0.0816260098298063,533156.0001221001,51.49493506000965,179131.00012210011,Southwark,Pubs,E09000028,11/27/2022
Southwark,,Other Room,,E09000028,60 Tower Bridge Road,London,Bermondsey-West,London Bridge & West Bermondsey,E05011104,-0.0816260098298063,533156.0001221001,51.49493506000965,179131.00012210011,Southwark,Pubs,E09000028,11/27/2022
Southwark,,Black Horse,,E09000028,254 Tabard Street,London,Bricklayers Arms,Chaucer,E05011098,-0.0865247293745271,532813.0001221001,51.49596843192223,179237.00012210011,Southwark,Pubs,E09000028,11/27/2022
Southwark,,Dover Castle,,E09000028,6a Great Dover Street,London,Borough,Chaucer,E05011098,-0.09140481052481368,532462.0001221001,51.50021201934996,179700.00012210011,Southwark,Pubs,E09000028,11/27/2022
Southwark,,Roebuck,,E09000028,50 Great Dover Street,London,Borough,Chaucer,E05011098,-0.0891196852103858,532628.0001221001,51.497656585647405,179420.00012210011,Southwark,Pubs,E09000028,11/27/2022
Southwark,,Windsor,,E09000028,888 Old Kent Road,Peckham,North Peckham,Nunhead & Queen's Road,E05011108,-0.05253028098247597,535226.0001221001,51.4778260719065,177282.00012210011,Southwark,Pubs,E09000028,11/27/2022
Southwark,,Afrikiko,,E09000028,871 Old Kent Road,Peckham,North Peckham,Old Kent Road,E05011109,-0.05518358043778135,535037.0001221001,51.47944401510992,177457.00012210011,Southwark,Pubs,E09000028,11/27/2022
Southwark,,Duke of Sussex,,E09000028,77 Friary Road,Peckham,North Peckham,Old Kent Road,E05011109,-0.06378334185396785,534442.0001221001,51.47874095377907,177363.00012210011,Southwark,Pubs,E09000028,11/27/2022
Southwark,,Golden Anchor,,E09000028,16 Evelina Road,Peckham,London,Nunhead & Queen's Road,E05011108,-0.05077839396580479,535374.0001221001,51.468920164618744,176295.00012210011,Southwark,Pubs,E09000028,11/27/2022
Southwark,,Beer Rebellion,,E09000028,129 Queens Road,Peckham,London,Nunhead & Queen's Road,E05011108,-0.055539459509397184,535031.0001221001,51.473109359205374,176752.00012210011,Southwark,Pubs,E09000028,11/27/2022
Southwark,,Asylum Tavern,,E09000028,40-42 Asylum Road,Peckham,London,Old Kent Road,E05011109,-0.05767278748824389,534870.0001221001,51.477470694254094,177233.00012210011,Southwark,Pubs,E09000028,11/27/2022
Southwark,,Hollydale Tavern,,E09000028,115 Hollydale Road,Peckham,London,Nunhead & Queen's Road,E05011108,-0.05439841875490505,535124.0001221001,51.46844967332047,176236.00012210011,Southwark,Pubs,E09000028,11/27/2022
Southwark,,Ivy House,,E09000028,40 Stuart Road,Nunhead,London,Peckham Rye,E05011111,-0.050754584167591835,535408.0001221001,51.45799239418615,175080.00012210011,Southwark,Pubs,E09000028,11/27/2022
Southwark,,Waverley Arms,,E09000028,202 Ivydale Road,Nunhead,London,Peckham Rye,E05011111,-0.045005491636854175,535801.0001221001,51.46012709434367,175328.00012210011,Southwark,Pubs,E09000028,11/27/2022
Southwark,,Pyrotechnists Arms,,E09000028,39 Nunhead Green,Nunhead,London,Nunhead & Queen's Road,E05011108,-0.05659912198770875,534982.0001221001,51.46478076841785,175824.00012210011,Southwark,Pubs,E09000028,11/27/2022
Southwark,,Beer Shop London,,E09000028,40 Nunhead Green,Nunhead,London,Nunhead & Queen's Road,E05011108,-0.05659912198770875,534982.0001221001,51.46478076841785,175824.00012210011,Southwark,Pubs,E09000028,11/27/2022
Southwark,,Man of Kent,,E09000028,2-4 Nunhead Green,Nunhead,London,Nunhead & Queen's Road,E05011108,-0.05659912198770875,534982.0001221001,51.46478076841785,175824.00012210011,Southwark,Pubs,E09000028,11/27/2022
Southwark,,Old Nun's Head,,E09000028,15 Nunhead Green,Nunhead,London,Nunhead & Queen's Road,E05011108,-0.05802550021490902,534883.0001221001,51.464759438862195,175819.00012210011,Southwark,Pubs,E09000028,11/27/2022
Southwark,,Victoria Inn,,E09000028,77-79 Choumert Road,Peckham,London,Rye Lane,E05011113,-0.0693624539609358,534089.0001221001,51.46702424993688,176050.00012210011,Southwark,Pubs,E09000028,11/27/2022
Southwark,,Montpelier,,E09000028,43 Choumert Road,Peckham,London,Rye Lane,E05011113,-0.0693624539609358,534089.0001221001,51.46702424993688,176050.00012210011,Southwark,Pubs,E09000028,11/27/2022
Southwark,,Gowlett SE15,,E09000028,62 Gowlett Road,Peckham,London,Goose Green,E05011103,-0.06862865718562076,534153.0001221001,51.46257826780115,175557.00012210011,Southwark,Pubs,E09000028,11/27/2022
Southwark,,White Horse,,E09000028,20 Peckham Rye,Peckham,London,Rye Lane,E05011113,-0.06514825296178271,534388.0001221001,51.46486822880724,175818.00012210011,Southwark,Pubs,E09000028,11/27/2022
Southwark,,Bar Story,,E09000028,213 Blenheim Grove,Peckham,Peckham Rye,Rye Lane,E05011113,-0.06880827966565872,534122.0001221001,51.46889480414129,176259.00012210011,Southwark,Pubs,E09000028,11/27/2022
Southwark,,Brick Brewery Tap Room,,E09000028,"Arch 209, Blenheim Grove",Peckham,Peckham Rye,Rye Lane,E05011113,-0.06880827966565872,534122.0001221001,51.46889480414129,176259.00012210011,Southwark,Pubs,E09000028,11/27/2022
Southwark,,Prince Albert,,E09000028,111 Bellenden Road,Peckham,London,Rye Lane,E05011113,-0.07069913254267912,533995.0001221001,51.46742399203102,176092.00012210011,Southwark,Pubs,E09000028,11/27/2022
Southwark,,John the Unicorn,,E09000028,157-159 Rye Lane,Peckham,Peckham Rye,Rye Lane,E05011113,-0.0657331240355008,534338.0001221001,51.46806165163935,176172.00012210011,Southwark,Pubs,E09000028,11/27/2022
Southwark,,Four Quarters,,E09000028,187 Rye Lane,Peckham,Peckham Rye,Rye Lane,E05011113,-0.06470106222989806,534413.0001221001,51.46692939861115,176048.00012210011,Southwark,Pubs,E09000028,11/27/2022
Southwark,,Nags Head,,E09000028,231 Rye Lane,Peckham,Peckham Rye,Rye Lane,E05011113,-0.06470106222989806,534413.0001221001,51.46692939861115,176048.00012210011,Southwark,Pubs,E09000028,11/27/2022
Southwark,,Copper Tap,,E09000028,190 Peckham High Street,Peckham,London,Rye Lane,E05011113,-0.06370195922157952,534464.0001221001,51.47318150833887,176745.00012210011,Southwark,Pubs,E09000028,11/27/2022
Southwark,,Prince of Peckham,,E09000028,1 Clayton Road,Peckham,London,Rye Lane,E05011113,-0.06377474874003844,534460.0001221001,51.472822962769754,176705.00012210011,Southwark,Pubs,E09000028,11/27/2022
Southwark,,Kentish Drovers,,E09000028,71-79 Peckham High Street,Peckham,London,Peckham,E05011110,-0.06777280026383749,534181.0001221001,51.47329364441829,176750.00012210011,Southwark,Pubs,E09000028,11/27/2022
Southwark,,Greyhound,,E09000028,109 Peckham High Street,Peckham,London,Peckham,E05011110,-0.06679489955094238,534248.0001221001,51.473601295160314,176786.00012210011,Southwark,Pubs,E09000028,11/27/2022
Southwark,,Apple Tree,,E09000028,107 Sumner Road,Peckham,London,Peckham,E05011110,-0.07225063728669961,533853.0001221001,51.479123319705444,177390.00012210011,Southwark,Pubs,E09000028,11/27/2022
Southwark,,Lord Nelson,,E09000028,386 Old Kent Road,London,Old Kent Road,Old Kent Road,E05011109,-0.0730781552356689,533774.0001221001,51.48648475313541,178207.00012210011,Southwark,Pubs,E09000028,11/27/2022
Southwark,,Partizan Brewing Tap Room,,E09000028,34 Raymouth Road,Bermondsey (East),London,North Bermondsey,E05011106,-0.05544082489664859,534986.0001221001,51.49066341232791,178704.00012210011,Southwark,Pubs,E09000028,11/27/2022
Southwark,,Stanley Arms,,E09000028,418 Southwark Park Road,Bermondsey (East),London,North Bermondsey,E05011106,-0.05585749702217531,534948.0001221001,51.4937371666289,179045.00012210011,Southwark,Pubs,E09000028,11/27/2022
Southwark,,Ancient Foresters,,E09000028,282 Southwark Park Road,Bermondsey (East),London,North Bermondsey,E05011106,-0.05784204472538348,534816.0001221001,51.491791447500255,178825.00012210011,Southwark,Pubs,E09000028,11/27/2022
Southwark,,Surrey Docks,,E09000028,185 Lower Road,Rotherhithe,Surrey Quays,Rotherhithe,E05011112,-0.04402856352869061,535774.0001221001,51.49205647148603,178880.00012210011,Southwark,Pubs,E09000028,11/27/2022
Southwark,,Whelan's,,E09000028,11 Rotherhithe Old Road,Rotherhithe,Surrey Quays,Rotherhithe,E05011112,-0.04586100953699379,535646.0001221001,51.4923298564989,178907.00012210011,Southwark,Pubs,E09000028,11/27/2022
Southwark,,Yellow House,,E09000028,126 Lower Road,Rotherhithe,London,Rotherhithe,E05011112,-0.04564830071367528,535660.0001221001,51.4925871281622,178936.00012210011,Southwark,Pubs,E09000028,11/27/2022
Southwark,,Fourpure Brewery Tap Room,,E09000028,"22 Bermondsey Trading Estate, Rotherhithe New Road",Bermondsey (East),London,South Bermondsey,E05011116,-0.053479193017881996,535128.0001221001,51.488688225816325,178488.00012210011,Southwark,Pubs,E09000028,11/27/2022
Southwark,,Spartan Brewery Taproom,,E09000028,8 Almond Road,Bermondsey (East),London,South Bermondsey,E05011116,-0.057953257743075394,534810.0001221001,51.49120870062989,178760.00012210011,Southwark,Pubs,E09000028,11/27/2022
Southwark,,eEbria Taproom,,E09000028,15 Almond Road,Bermondsey (East),London,South Bermondsey,E05011116,-0.057953257743075394,534810.0001221001,51.49120870062989,178760.00012210011,Southwark,Pubs,E09000028,11/27/2022
Southwark,,Affinity Brew Co. Tasting Room,,E09000028,7 Almond Road,Bermondsey (East),London,South Bermondsey,E05011116,-0.057953257743075394,534810.0001221001,51.49120870062989,178760.00012210011,Southwark,Pubs,E09000028,11/27/2022
Southwark,,Moor Beer Co. Vaults & Tap Room,,E09000028,71 Enid Street,Bermondsey (East),,South Bermondsey,E05011116,-0.07064341852798628,533912.0001221001,51.49706622680754,179388.00012210011,Southwark,Pubs,E09000028,11/27/2022
Southwark,,Brew By Numbers Brewery Tap Room,,E09000028,79 Enid Street,Bermondsey (East),London,South Bermondsey,E05011116,-0.07064341852798628,533912.0001221001,51.49706622680754,179388.00012210011,Southwark,Pubs,E09000028,11/27/2022
Southwark,,Cloudwater Tap Room,,E09000028,73 Enid Street,Bermondsey (East),London,South Bermondsey,E05011116,-0.07064341852798628,533912.0001221001,51.49706622680754,179388.00012210011,Southwark,Pubs,E09000028,11/27/2022
Southwark,,Old Bank,,E09000028,239 Southwark Park Road,Bermondsey (East),,South Bermondsey,E05011116,-0.061548111592339694,534558.0001221001,51.49205063911916,178847.00012210011,Southwark,Pubs,E09000028,11/27/2022
Southwark,,Blue Anchor,,E09000028,251 Southwark Park Road,Bermondsey (East),London,South Bermondsey,E05011116,-0.061548111592339694,534558.0001221001,51.49205063911916,178847.00012210011,Southwark,Pubs,E09000028,11/27/2022
Southwark,,Ubrew Brewery Tap Room,,E09000028,"Arches 29-30, 24 Old Jamaica Road",Bermondsey (East),London,North Bermondsey,E05011106,-0.06901976778913416,534025.0001221001,51.49695855610407,179379.00012210011,Southwark,Pubs,E09000028,11/27/2022
Southwark,,Ship,,E09000028,39-47 St Marychurch Street,Rotherhithe,London,Rotherhithe,E05011112,-0.05345513985444904,535096.0001221001,51.50007382360273,179754.00012210011,Southwark,Pubs,E09000028,11/27/2022
Southwark,,Brunel,,E09000028,47 Swan Road,Rotherhithe,London,Rotherhithe,E05011112,-0.049403483530626964,535375.0001221001,51.50080692945865,179843.00012210011,Southwark,Pubs,E09000028,11/27/2022
Southwark,,Angel,,E09000028,101 Bermondsey Wall East,Bermondsey (East),London,North Bermondsey,E05011106,-0.05745978214994193,534818.0001221001,51.500104261177256,179750.00012210011,Southwark,Pubs,E09000028,11/27/2022
Southwark,,Mayflower,,E09000028,117 Rotherhithe Street,Rotherhithe,London,Rotherhithe,E05011112,-0.051594993746068636,535221.0001221001,51.50145493525286,179911.00012210011,Southwark,Pubs,E09000028,11/27/2022
Southwark,,St James of Bermondsey,,E09000028,72 St James Road,Bermondsey (East),London,North Bermondsey,E05011106,-0.06445159441412951,534348.0001221001,51.49493161117542,179162.00012210011,Southwark,Pubs,E09000028,11/27/2022
Southwark,,Gregorian,,E09000028,96 Jamaica Road,Bermondsey (East),London,North Bermondsey,E05011106,-0.06454624522751651,534335.0001221001,51.49711863375183,179405.00012210011,Southwark,Pubs,E09000028,11/27/2022
Southwark,,Blacksmiths Arms,,E09000028,257 Rotherhithe Street,Rotherhithe,London,Surrey Docks,E05011117,-0.03227572066549118,536552.0001221001,51.50468483005289,180306.00012210011,Southwark,Pubs,E09000028,11/27/2022
Southwark,,Salt Quay,,E09000028,163 Rotherhithe Street,Rotherhithe,London,Surrey Docks,E05011117,-0.046005321443492446,535601.0001221001,51.50411398547268,180217.00012210011,Southwark,Pubs,E09000028,11/27/2022
Southwark,,Leadbelly's,,E09000028,"Unit C, Montreal House, Surrey Docks Road",Rotherhithe,Canada Water,Rotherhithe,E05011112,-0.04708711025013168,535544.0001221001,51.498025300558936,179538.00012210011,Southwark,Pubs,E09000028,11/27/2022
Southwark,,Ship & Whale,,E09000028,2 Gulliver Street,Rotherhithe,London,Surrey Docks,E05011117,-0.03345530656664738,536495.0001221001,51.496367464156805,179379.00012210011,Southwark,Pubs,E09000028,11/27/2022
Southwark,,Hollywood Bowl Bar,,E09000028,3a Teredo Street,Rotherhithe,London,Surrey Docks,E05011117,-0.04214325314057086,535895.0001221001,51.49537065854504,179252.00012210011,Southwark,Pubs,E09000028,11/27/2022
Southwark,,Moby Dick,,E09000028,"6 Russia Court, Russell Place",Rotherhithe,London,Surrey Docks,E05011117,-0.03758293178756953,536212.0001221001,51.495204484117934,179242.00012210011,Southwark,Pubs,E09000028,11/27/2022
Southwark,,Rising Sun,,E09000028,98 Harper Road,London,Newington,Chaucer,E05011098,-0.0915638541844712,532469.0001221001,51.493991016214245,179008.00012210011,Southwark,Pubs,E09000028,11/27/2022
Southwark,,Elephant & Castle,,E09000028,119 Newington Causeway,London,Newington,Chaucer,E05011098,-0.09747092771995763,532052.0001221001,51.496416362516136,179267.00012210011,Southwark,Pubs,E09000028,11/27/2022
Southwark,,Rockingham Arms,,E09000028,"Metro Central Heights, 119 Newington Causeway",London,Newington,Chaucer,E05011098,-0.09747092771995763,532052.0001221001,51.496416362516136,179267.00012210011,Southwark,Pubs,E09000028,11/27/2022
Southwark,,Italian Job @ Mercato Metropolitano,,E09000028,40-42 Newington Causeway,London,Newington,Borough & Bankside,E05011095,-0.09650404748867791,532114.0001221001,51.49818140768159,179465.00012210011,Southwark,Pubs,E09000028,11/27/2022
Southwark,,Prince of Wales,,E09000028,51 St Georges Road,London,Newington,St. George's,E05011114,-0.10307742552817106,531666.0001221001,51.495338027528696,179137.00012210011,Southwark,Pubs,E09000028,11/27/2022
Southwark,,Albert Arms,,E09000028,1 Gladstone Street,London,Newington,St. George's,E05011114,-0.1031690126455747,531655.0001221001,51.496949366719136,179316.00012210011,Southwark,Pubs,E09000028,11/27/2022
Southwark,,Long Wave,,E09000028,"Unit 1 The Artworks, Elephant Road",London,Elephant & Castle,North Walworth,E05011107,-0.0969461545054449,532097.0001221001,51.4934489434254,178938.00012210011,Southwark,Pubs,E09000028,11/27/2022
Southwark,,Six Yard Box,,E09000028,"Unit 6, The Artworks, Elephant Road",London,Elephant & Castle,North Walworth,E05011107,-0.0969461545054449,532097.0001221001,51.4934489434254,178938.00012210011,Southwark,Pubs,E09000028,11/27/2022
Southwark,,Gladstone,,E09000028,24 King & Queen Street,Walworth,London,North Walworth,E05011107,-0.09150039880751919,532489.0001221001,51.488611787996824,178410.00012210011,Southwark,Pubs,E09000028,11/27/2022
Southwark,,Manor of Walworth,,E09000028,140-142 Walworth Road,Walworth,London,North Walworth,E05011107,-0.09680768335695158,532112.0001221001,51.49158501449105,178731.00012210011,Southwark,Pubs,E09000028,11/27/2022
Southwark,,Tankard,,E09000028,178 Walworth Road,Walworth,London,North Walworth,E05011107,-0.09680768335695158,532112.0001221001,51.49158501449105,178731.00012210011,Southwark,Pubs,E09000028,11/27/2022
Southwark,,Lost Rivers Elephant,,E09000028,Elephant Road,London,Elephant & Castle,North Walworth,E05011107,-0.09693025909586134,532098.0001221001,51.493484659946,178942.00012210011,Southwark,Pubs,E09000028,11/27/2022
Southwark,,Huntsman & Hounds,,E09000028,70 Elsted Street,Walworth,London,North Walworth,E05011107,-0.08466962611468143,532960.0001221001,51.489696554683526,178543.00012210011,Southwark,Pubs,E09000028,11/27/2022
Southwark,,Red Lion,,E09000028,407 Walworth Road,Walworth,London,Faraday,E05011102,-0.0917753148988428,532482.0001221001,51.48444321189281,177946.00012210011,Southwark,Pubs,E09000028,11/27/2022
Southwark,,Hour Glass,,E09000028,131 Beaconsfield Road,Walworth,London,Faraday,E05011102,-0.08275488891250511,533104.0001221001,51.4858879259237,178123.00012210011,Southwark,Pubs,E09000028,11/27/2022
Southwark,,Good Intent,,E09000028,24 East Street,Walworth,London,North Walworth,E05011107,-0.09232657977085347,532435.0001221001,51.487456060067245,178280.00012210011,Southwark,Pubs,E09000028,11/27/2022
Southwark,,Queen Elizabeth,,E09000028,42 Merrow Street,Walworth,London,Faraday,E05011102,-0.09070019720178613,532554.0001221001,51.485352054105846,178049.00012210011,Southwark,Pubs,E09000028,11/27/2022
Southwark,,Beehive,,E09000028,60-62 Carter Street,Walworth,London,Newington,E05011105,-0.09811214397845669,532040.0001221001,51.485166739332165,178015.00012210011,Southwark,Pubs,E09000028,11/27/2022
Southwark,,Orbit Beers London Tap Room,,E09000028,"Railway Arches 225 & 228, Fielding Street",Walworth,London,Faraday,E05011102,-0.09335479536020751,532371.0001221001,51.48490959734064,177995.00012210011,Southwark,Pubs,E09000028,11/27/2022
Southwark,,Canterbury Arms,,E09000028,2-4 Maddock Way,Walworth,London,Newington,E05011105,-0.1014496260927879,531817.0001221001,51.48215400150852,177674.00012210011,Southwark,Pubs,E09000028,11/27/2022
Southwark,,Flowers of the Forest,,E09000028,14 Westminster Bridge Road,London,Lambeth North,St. George's,E05011114,-0.10491744832630696,531530.0001221001,51.4982187568148,179454.00012210011,Southwark,Pubs,E09000028,11/27/2022
Southwark,,Jacks,,E09000028,96 Isabella Street,London,Waterloo,Borough & Bankside,E05011095,-0.10443111860162124,531548.0001221001,51.50368800391636,180063.00012210011,Southwark,Pubs,E09000028,11/27/2022
Southwark,,Rose & Crown,,E09000028,47 Colombo Street,London,Waterloo,Borough & Bankside,E05011095,-0.1034899433852039,531609.0001221001,51.50518371146434,180231.00012210011,Southwark,Pubs,E09000028,11/27/2022
Southwark,,Laughing Gravy,,E09000028,"Blackfriars Foundry, 154-156 Blackfriars Road",London,Waterloo,Borough & Bankside,E05011095,-0.10261464939589403,531683.0001221001,51.500582811347634,179721.00012210011,Southwark,Pubs,E09000028,11/27/2022
Southwark,,Baltic,,E09000028,74 Blackfriars Road,London,Waterloo,Borough & Bankside,E05011095,-0.10350878222566764,531615.0001221001,51.502647819130296,179949.00012210011,Southwark,Pubs,E09000028,11/27/2022
Southwark,,Ring,,E09000028,72 Blackfriars Road,London,Waterloo,Borough & Bankside,E05011095,-0.10350878222566764,531615.0001221001,51.502647819130296,179949.00012210011,Southwark,Pubs,E09000028,11/27/2022
Southwark,,Crown,,E09000028,108 Blackfriars Road,London,Waterloo,Borough & Bankside,E05011095,-0.10358528337033966,531615.0001221001,51.5008053664703,179744.00012210011,Southwark,Pubs,E09000028,11/27/2022
Southwark,,Prince William Henry,,E09000028,217 Blackfriars Bridge Road,London,Waterloo,Borough & Bankside,E05011095,-0.10245131710518107,531682.0001221001,51.50486112634185,180197.00012210011,Southwark,Pubs,E09000028,11/27/2022
Southwark,,Colby Arms,,E09000028,132 Gipsy Hill,Gipsy Hill,London,Dulwich Wood,E05011101,-0.0818594527612211,533345.0001221001,51.424482294472334,171297.00012210011,Southwark,Pubs,E09000028,11/27/2022
Southwark,,Market Porter,,E09000028,9 Stoney Street,London,Borough Market,Borough & Bankside,E05011095,-0.08946342356905741,532584.0001221001,51.5045962731828,180191.00012210011,Southwark,Pubs,E09000028,11/27/2022
Southwark,,Wheatsheaf,,E09000028,6 Stoney Street,London,Borough Market,Borough & Bankside,E05011095,-0.08946342356905741,532584.0001221001,51.5045962731828,180191.00012210011,Southwark,Pubs,E09000028,11/27/2022
Southwark,,Cherry Tree,,E09000028,31-33 Grove Vale,East Dulwich,London,Goose Green,E05011103,-0.07692436904042058,533581.0001221001,51.46114975480148,175383.00012210011,Southwark,Pubs,E09000028,11/27/2022
Southwark,,Wright Brothers Oyster & Porter House,,E09000028,11 Stoney Street,London,Borough Market,Borough & Bankside,E05011095,-0.09004610572691989,532542.0001221001,51.50513638899677,180250.00012210011,Southwark,Pubs,E09000028,11/27/2022
Southwark,,Rake,,E09000028,14 Winchester Walk,London,Borough Market,Borough & Bankside,E05011095,-0.08969381663811027,532565.0001221001,51.5056342931598,180306.00012210011,Southwark,Pubs,E09000028,11/27/2022
Southwark,,Globe,,E09000028,8 Bedale Street,London,Borough Market,Borough & Bankside,E05011095,-0.08835274159234932,532660.0001221001,51.50496489738752,180234.00012210011,Southwark,Pubs,E09000028,11/27/2022
Southwark,,Camino,,E09000028,5 Canvey Street,London,Bankside,Borough & Bankside,E05011095,-0.09800046957955073,531989.0001221001,51.50549951299542,180276.00012210011,Southwark,Pubs,E09000028,11/27/2022
Southwark,,Mudlark,,E09000028,4 Montigue Close,London,Bankside,Borough & Bankside,E05011095,-0.0875889093068671,532711.0001221001,51.50565394519991,180312.00012210011,Southwark,Pubs,E09000028,11/27/2022
Southwark,,Old Thameside Inn,,E09000028,Pickfords Wharf,London,Bankside,Borough & Bankside,E05011095,-0.0903073174002823,532520.0001221001,51.50647169896481,180398.00012210011,Southwark,Pubs,E09000028,11/27/2022
Southwark,,Anchor,,E09000028,34 Park Street,London,Bankside,Borough & Bankside,E05011095,-0.09133098608985575,532449.0001221001,51.50646138462703,180395.00012210011,Southwark,Pubs,E09000028,11/27/2022
Southwark,,Biagio @ Bankside,,E09000028,32 Southwark Bridge Road,London,Bankside,Borough & Bankside,E05011095,-0.09399003932254062,532267.0001221001,51.50559628023068,180294.00012210011,Southwark,Pubs,E09000028,11/27/2022
Southwark,,Founders Arms,,E09000028,52 Hopton Street,London,South Bank,Borough & Bankside,E05011095,-0.1004432146454506,531813.0001221001,51.50775153600945,180522.00012210011,Southwark,Pubs,E09000028,11/27/2022
Southwark,,Beer Hawk,,E09000028,"Unit 6, The Gallery, Stamford Street",London,Southbank,Borough & Bankside,E05011095,-0.10559959155756128,531457.0001221001,51.50713344921966,180444.00012210011,Southwark,Pubs,E09000028,11/27/2022
Southwark,,Fountain & Ink,,E09000028,52-54 Stamford Street,London,South Bank,Borough & Bankside,E05011095,-0.10616365306400007,531419.0001221001,51.50673784827512,180399.00012210011,Southwark,Pubs,E09000028,11/27/2022
Southwark,,Thirsty Bear,,E09000028,62 Stamford Street,London,South Bank,Borough & Bankside,E05011095,-0.10616365306400007,531419.0001221001,51.50673784827512,180399.00012210011,Southwark,Pubs,E09000028,11/27/2022
Southwark,,Mad Hatter,,E09000028,3-7 Stamford Street,London,South Bank,Borough & Bankside,E05011095,-0.10336381194716272,531614.0001221001,51.506485744025895,180376.00012210011,Southwark,Pubs,E09000028,11/27/2022
Southwark,,Barrowboy & Banker,,E09000028,6-8 Borough High Street,London,London Bridge,Borough & Bankside,E05011095,-0.08718603797622104,532739.0001221001,51.505638380520764,180311.00012210011,Southwark,Pubs,E09000028,11/27/2022
Southwark,,Bunch of Grapes,,E09000028,2 St Thomas Street,London,London Bridge,London Bridge & West Bermondsey,E05011104,-0.08703250708815546,532754.0001221001,51.50414293432601,180145.00012210011,Southwark,Pubs,E09000028,11/27/2022
Southwark,,Telephone Exchange,,E09000028,"London Bridge Hotel, 10-18 London Bridge Street",London,London Bridge,London Bridge & West Bermondsey,E05011104,-0.08603966451150889,532822.0001221001,51.5044505036466,180181.00012210011,Southwark,Pubs,E09000028,11/27/2022
Southwark,,Doggett's Coat & Badge,,E09000028,1 Blackfriars Bridge,London,South Bank,Borough & Bankside,E05011095,-0.10324572846830508,531618.0001221001,51.507940797634824,180538.00012210011,Southwark,Pubs,E09000028,11/27/2022
Southwark,,Crown & Greyhound,,E09000028,73 Dulwich Village,Dulwich,Dulwich Village,Dulwich Village,E05011100,-0.08323799017251415,533180.0001221001,51.44825727195326,173938.00012210011,Southwark,Pubs,E09000028,11/27/2022
Southwark,,Herne Tavern,,E09000028,2 Forest Hill Road,East Dulwich,Peckham Rye,Dulwich Hill,E05011099,-0.06072805470109923,534730.0001221001,51.45297744051538,174504.00012210011,Southwark,Pubs,E09000028,11/27/2022
Southwark,,Watson's General Telegraph,,E09000028,108 Forest Hill Road,East Dulwich,Peckham Rye,Dulwich Hill,E05011099,-0.05859008977692125,534883.0001221001,51.45145808255865,174339.00012210011,Southwark,Pubs,E09000028,11/27/2022
Southwark,,Palmerston,,E09000028,91 Lordship Lane,East Dulwich,London,Goose Green,E05011103,-0.0731673080946564,533851.0001221001,51.458057179151965,175046.00012210011,Southwark,Pubs,E09000028,11/27/2022
Southwark,,East Dulwich Tavern,,E09000028,1 Lordship Lane,East Dulwich,London,Goose Green,E05011103,-0.07334412117688535,533835.0001221001,51.45932819773027,175187.00012210011,Southwark,Pubs,E09000028,11/27/2022
Southwark,,Bishop,,E09000028,27 Lordship Lane,East Dulwich,London,Goose Green,E05011103,-0.07334412117688535,533835.0001221001,51.45932819773027,175187.00012210011,Southwark,Pubs,E09000028,11/27/2022
Southwark,,Lordship,,E09000028,211 Lordship Lane,East Dulwich,London,Goose Green,E05011103,-0.07512068375593474,533726.0001221001,51.454401854032135,174636.00012210011,Southwark,Pubs,E09000028,11/27/2022
Southwark,,House of Tippler,,E09000028,123 Lordship Lane,East Dulwich,London,Goose Green,E05011103,-0.07368785378215062,533819.0001221001,51.45663573577821,174887.00012210011,Southwark,Pubs,E09000028,11/27/2022
Southwark,,Franklins,,E09000028,157 Lordship Lane,East Dulwich,,Goose Green,E05011103,-0.07427954813648195,533781.0001221001,51.45557520719407,174768.00012210011,Southwark,Pubs,E09000028,11/27/2022
Southwark,,Plough,,E09000028,381 Lordship Lane,East Dulwich,London,Dulwich Hill,E05011099,-0.07321456859783748,533873.0001221001,51.449415000226395,174085.00012210011,Southwark,Pubs,E09000028,11/27/2022
Southwark,,Dulwich Beer Dispensary,,E09000028,481 Lordship Lane,East Dulwich,London,Dulwich Wood,E05011101,-0.06789273679255486,534259.0001221001,51.44386820148448,173478.00012210011,Southwark,Pubs,E09000028,11/27/2022
Southwark,,Great Exhibition,,E09000028,193 Crystal Palace Road,East Dulwich,London,Goose Green,E05011103,-0.07047718291592851,534047.0001221001,51.45493707836991,174704.00012210011,Southwark,Pubs,E09000028,11/27/2022
Southwark,,Actress,,E09000028,90 Crystal Palace Road,East Dulwich,London,Goose Green,E05011103,-0.06978914009158041,534087.0001221001,51.457596882207746,175001.00012210011,Southwark,Pubs,E09000028,11/27/2022
Southwark,,Castle,,E09000028,280 Crystal Palace Road,East Dulwich,London,Goose Green,E05011103,-0.07265435050175331,533908.0001221001,51.45075484686113,174235.00012210011,Southwark,Pubs,E09000028,11/27/2022
Southwark,,Clock House,,E09000028,196a Peckham Rye,East Dulwich,Peckham Rye,Goose Green,E05011103,-0.06489936342371488,534422.0001221001,51.45918009630388,175186.00012210011,Southwark,Pubs,E09000028,11/27/2022
Southwark,,Canopy Beer Company Tap Room,,E09000028,"Arch 1127 Bath Factory Estate, 41 Norwood Road",Herne Hill,London,Dulwich Village,E05011100,-0.09849278133785543,532115.0001221001,51.45004366965796,174109.00012210011,Southwark,Pubs,E09000028,11/27/2022
Southwark,,Half Moon,,E09000028,10 Half Moon Lane,Herne Hill,London,Dulwich Village,E05011100,-0.09781821418866618,532156.0001221001,51.452074290712204,174336.00012210011,Southwark,Pubs,E09000028,11/27/2022
Southwark,,Cafe Provencal,,E09000028,2-6 Half Moon Lane,Herne Hill,,Dulwich Village,E05011100,-0.09781821418866618,532156.0001221001,51.452074290712204,174336.00012210011,Southwark,Pubs,E09000028,11/27/2022
Southwark,,Wood House,,E09000028,39 Sydenham Hill,Sydenham,Upper Sydenham,Dulwich Wood,E05011101,-0.07116121613845366,534066.0001221001,51.43222118916489,172177.00012210011,Southwark,Pubs,E09000028,11/27/2022
Southwark,,Nag's Head,,E09000028,242 Camberwell Road,Camberwell,London,Camberwell Green,E05011096,-0.09260831555509443,532448.0001221001,51.476218582080236,177030.00012210011,Southwark,Pubs,E09000028,11/27/2022
Southwark,,Old Dispensary,,E09000028,325 Camberwell New Road,Camberwell,London,Camberwell Green,E05011096,-0.0943904854930076,532328.0001221001,51.47492549685477,176883.00012210011,Southwark,Pubs,E09000028,11/27/2022
Southwark,,Clarendon Arms,,E09000028,225 Camberwell New Road,Camberwell,London,Camberwell Green,E05011096,-0.09892084304091865,532008.0001221001,51.476806773267604,177084.00012210011,Southwark,Pubs,E09000028,11/27/2022
Southwark,,Tiger,,E09000028,18 Camberwell Green,Camberwell,London,Camberwell Green,E05011096,-0.09080208345944935,532582.0001221001,51.47325724736339,176704.00012210011,Southwark,Pubs,E09000028,11/27/2022
Southwark,,St. Georges Tavern,,E09000028,14 Coleman Road,Camberwell,London,St. Giles,E05011115,-0.08184140786791241,533188.0001221001,51.478821953976265,177339.00012210011,Southwark,Pubs,E09000028,11/27/2022
Southwark,,Phoenix,,E09000028,Windsor Walk,Camberwell,Denmark Hill,St. Giles,E05011115,-0.08713268478699927,532851.0001221001,51.468367829807534,176167.00012210011,Southwark,Pubs,E09000028,11/27/2022
Southwark,,George Canning,,E09000028,123 Grove Lane,Camberwell,Denmark Hill,Champion Hill,E05011097,-0.08445364491186329,533040.0001221001,51.46735276618367,176059.00012210011,Southwark,Pubs,E09000028,11/27/2022
Southwark,,Fox on the Hill,,E09000028,149 Denmark Hill,Camberwell,Denmark Hill,Champion Hill,E05011097,-0.08829579270656855,532782.0001221001,51.46431266822667,175714.00012210011,Southwark,Pubs,E09000028,11/27/2022
Southwark,,Hermits Cave,,E09000028,28 Camberwell Church Street,Camberwell,London,Camberwell Green,E05011096,-0.08973523301664064,532656.0001221001,51.47328483639878,176709.00012210011,Southwark,Pubs,E09000028,11/27/2022
Southwark,,Grove House,,E09000028,26 Camberwell Grove,Camberwell,London,St. Giles,E05011115,-0.08660989981557127,532878.0001221001,51.47157003912389,176524.00012210011,Southwark,Pubs,E09000028,11/27/2022
Southwark,,Joiners Arms,,E09000028,35 Denmark Hill,Camberwell,London,St. Giles,E05011115,-0.09111902690741741,532566.0001221001,51.47118487214221,176473.00012210011,Southwark,Pubs,E09000028,11/27/2022
Southwark,,Crooked Well,,E09000028,16 Grove Lane,Camberwell,London,Camberwell Green,E05011096,-0.08881593850442071,532721.0001221001,51.47288312541979,176666.00012210011,Southwark,Pubs,E09000028,11/27/2022
Southwark,,Camberwell Arms,,E09000028,65 Camberwell Church Street,Camberwell,London,St. Giles,E05011115,-0.08798258334012521,532777.0001221001,51.47352607415717,176739.00012210011,Southwark,Pubs,E09000028,11/27/2022
Southwark,,Stormbird,,E09000028,25 Camberwell Church Street,Camberwell,London,St. Giles,E05011115,-0.08798258334012521,532777.0001221001,51.47352607415717,176739.00012210011,Southwark,Pubs,E09000028,11/27/2022
Southwark,,Farriers Arms,,E09000028,214 Lower Road,Deptford,London,Rotherhithe,E05011112,-0.042044503107918844,535917.0001221001,51.49027857852272,178686.00012210011,Southwark,Pubs,E09000028,11/27/2022
Southwark,http://fluxmetal.co.uk/,Flux Metal,10013524422,E09000028,25 Hatcham Road,,,Old Kent Road,E05011109,-0.053366686198361726,535156.0001221001,51.481860146348815,177729.00012210011,Southwark,Set and exhibition building,E09000028,11/27/2022
Southwark,https://www.jamesglancydesign.com/,James Glancy Design,200000000000,E09000028,16-28 Penarth Street,,,Old Kent Road,E05011109,-0.053354899403082856,535154.0001221001,51.4828132823205,177835.00012210011,Southwark,Set and exhibition building,E09000028,11/27/2022
Southwark,http://www.souvenir.co.uk,Scenic Souvenir Studios ,200000000000,E09000028,Unit 8,12 Verney Road,,Old Kent Road,E05011109,-0.06183767057915181,534559.620117195,51.48467413531149,178026.28009029478,Southwark,Set and exhibition building,E09000028,11/27/2022
Southwark,https://www.setwo.co.uk/,Setwo Ltd,10000813689,E09000028,Unit 48  T Marchant Trading Estate, Verney Road,,Old Kent Road,E05011109,-0.05687334538155602,534905.0001221001,51.48441856463549,178007.00012210011,Southwark,Set and exhibition building,E09000028,11/27/2022
Southwark,http://www.souvenir.co.uk,Souvenir Scenic Studios,200000000000,E09000028,Unit 8 ,12 Verney Road,,Old Kent Road,E05011109,-0.06183767057915181,534559.620117195,51.48467413531149,178026.28009029478,Southwark,Set and exhibition building,E09000028,11/27/2022
Southwark,http://absolutemotioncontrol.com,Absolute Motion Control Ltd,200000000000,E09000028,78-82 Brandon Street,,,North Walworth,E05011107,-0.09176170536379158,532466.0001221001,51.490288858214164,178596.00012210011,Southwark,Set and exhibition building,E09000028,11/27/2022
Southwark,http://footprintscenery.co.uk,Footprint Scenery,,E09000028,Railway Arch Astbury Business Park ,"22, 28, 31 Station Passage",,Nunhead & Queen's Road,E05011108,-0.05497382849056862,535066.0001221001,51.474556956020244,176914.00012210011,Southwark,Set and exhibition building,E09000028,11/27/2022
Southwark,,Peckham-Rye,0,E09000028,,,,Peckham Rye,E05011111,-0.05584755270841703,535055.8013305962,51.457462747565934,175011.70471189916,Southwark,Skate Parks,E09000028,11/27/2022
Southwark,,White-Grounds,0,E09000028,,,,London Bridge & West Bermondsey,E05011104,-0.07865634060908148,533343.3139037937,51.50137419235182,179852.3715209961,Southwark,Skate Parks,E09000028,11/27/2022
Southwark,http://www.designmetextiles.co.uk/,Design ME Textiles,200003379135,E09000028,180 Ilderton Road,,,Livesey,E05000543,-0.052654560749092715,535203.0001221001,51.48268473369219,177822.00012210011,Southwark,Textile design,E09000028,11/27/2022
Southwark,http://www.printallstudios.com/,PrintALL Studios,10090747410,E09000028,42 Raymouth Road,,,Rotherhithe,E05000549,-0.05544082489664859,534986.0001221001,51.49066341232791,178704.00012210011,Southwark,Textile design,E09000028,11/27/2022
Southwark,www.jerwoodspace.co.uk,Jerwood Space,200003355048,E09000028,171 Union Street,,,Borough & Bankside,E05011095,-0.09972781715459933,531763.1920822603,51.50360423933295,180116.21740019688,Southwark,Theatre rehearsal studio,E09000028,11/27/2022
Southwark,www.glasshillstudios.com,Glasshill Studios,10091667618,E09000028,Kings Bench Street,,,Borough & Bankside,E05011095,-0.10113235992536132,531672.2086768375,51.50136080460077,179864.26237412158,Southwark,Theatre rehearsal studio,E09000028,11/27/2022
Southwark,www.menierchocolatefactory.com,Menier Chocolate Factory,200003500280,E09000028,53 Southwark Street,,,Borough & Bankside,E05011095,-0.09446755392874248,532125.1134595063,51.504660977562715,180243.19766681956,Southwark,Theatre rehearsal studio,E09000028,11/27/2022
Southwark,www.exchangetheatre.com,Exchange Theatre,200003360804,E09000028,46 Oxford Drive,Magdelen Street,,London Bridge & West Bermondsey,E05011104,-0.08295218838508644,532925.9352288144,51.504023660643924,180193.2121379333,Southwark,Theatre rehearsal studio,E09000028,11/27/2022
Southwark,http://uglyduck.org.uk/,Ugly Duck,10009803475,E09000028,49 Tanner Street,,,London Bridge & West Bermondsey,E05011104,-0.07769153742340856,533302.8476844083,51.499944714199216,179749.29159677093,Southwark,Theatre rehearsal studio,E09000028,11/27/2022
Southwark,www.londonbubble.org.uk,London Bubble,200003410746,E09000028,5 Elephant Lane,,,Rotherhithe,E05011112,-0.055805962648944774,534819.5229913226,51.50060894853053,179863.24309638573,Southwark,Theatre rehearsal studio,E09000028,11/27/2022
Southwark,www.abacus-arts.org.uk,Abacus Arts,200003418897,E09000028,2A Browning Street,Southwark,,North Walworth,E05011107,-0.09546987814396428,532098.1054409725,51.489956096518384,178606.5081733956,Southwark,Theatre rehearsal studio,E09000028,11/27/2022
Southwark,http://www.rehearsalstudioslondon.net/London/pembroke-house-hall/,Pembroke House Hall,10000813388,E09000028,80 Tatum Street,,,North Walworth,E05011107,-0.08577118216959373,532768.9564504438,51.49074242781871,178711.49501665717,Southwark,Theatre rehearsal studio,E09000028,11/27/2022
Southwark,NA,Bacon's College Theatre,200003000000,E09000028,Timber Pond Road, Rotherhithe,NA,Rotherhithe,E05011112,-0.04386252398093959,535641.52779856,51.502875561798646,180137.32080730412,Southwark,Theatres,E09000028,11/27/2022
Southwark,https://www.theatrepeckham.co.uk/,Theatre Peckham,10000811503,E09000028,221 Havil St, Camberwell,NA,St. Giles,E05011115,-0.08530628636911021,532839.6912853421,51.477518429714635,177242.1131106756,Southwark,Theatres,E09000028,11/27/2022
Southwark,https://www.unicorntheatre.com/,Unicorn Theatre,10009804074,E09000028,147 Tooley St,NA,NA,London Bridge & West Bermondsey,E05011104,-0.0828895130426624,532928.6381671017,51.50458885766454,180256.1640541334,Southwark,Theatres,E09000028,11/27/2022
Southwark,http://www.blueelephanttheatre.co.uk/,Blue Elephant Theatre,10090283293,E09000028,59A Bethwin Rd, Camberwell,NA,Camberwell Green,E05011096,-0.09989194158475824,531818.0321473242,51.48065992012816,177564.99632609345,Southwark,Theatres,E09000028,11/27/2022
Southwark,http://canadawaterculturespace.org.uk/,Canada Water Theatre,10090284129,E09000028,21 Surrey Quays Road,NA,NA,Rotherhithe,E05011112,-0.05076847859334276,535175.8335256497,51.49832275299785,179618.36589738453,Southwark,Theatres,E09000028,11/27/2022
Southwark,https://bridgetheatre.co.uk/,The Bridge Theatre,10090749570,E09000028,3 Potters Fields Park,NA,NA,London Bridge & West Bermondsey,E05011104,-0.0788308848323306,533211.5332338166,51.5041449176166,180214.1894026053,Southwark,Theatres,E09000028,11/27/2022
Southwark,https://www.clfartcafe.org/theatre,The CLF Art CafÃ©,10090750261,E09000028,Block A, Bussey Building, 133 Rye Lane,Rye Lane,E05011113,-0.0698247345843988,533935.2729498034,51.47042120636875,176481.2687667316,Southwark,Theatres,E09000028,11/27/2022
Southwark,http://www.shakespearesglobe.com/theatre/whats-on/sam-wanamaker-playhouse,Sam Wanamaker Playhouse,10090750983,E09000028,21 New Globe Walk,NA,NA,Borough & Bankside,E05011095,-0.0981810966698339,531856.0121425901,51.50862324904411,180677.01912720065,Southwark,Theatres,E09000028,11/27/2022
Southwark,https://www.katzpace.co.uk/,Katzpace,10093339191,E09000028,Katzenjammers, 24 Southwark Street,NA,Borough & Bankside,E05011095,-0.09262457607560132,532250.832650773,51.50540364069288,180329.09839839512,Southwark,Theatres,E09000028,11/27/2022
Southwark,https://www.bunkertheatre.com/,Bunker Theatre,10093341165,E09000028,53A Southwark St,NA,NA,Borough & Bankside,E05011095,-0.09607722888139904,532011.9503969132,51.50517260421037,180297.1728063487,Southwark,Theatres,E09000028,11/27/2022
Lewisham,http://www.brockleyjack.co.uk/,The Brockley Jack Theatre,100023000000,E09000023,410 Brockley Rd,NA,NA,Crofton Park,E05000441,-0.04013948528394887,536045.46583096,51.45394088416412,174703.7482714944,Southwark,Theatres,E09000028,11/27/2022
Southwark,https://www.lsmt.co.uk/,LSMT,200003000000,E09000028,London School of Musical Theatre, 83 Borough Rd,NA,St. George's,E05011114,-0.10028968462705586,531736.011227761,51.49951305784285,179660.34808189672,Southwark,Theatres,E09000028,11/27/2022
Southwark,http://southwarkplayhouse.co.uk/,Southwark Playhouse,200003000000,E09000028,77-85 Newington Causeway, London,NA,St. George's,E05011114,-0.09978170345679611,531775.0205560003,51.498210191210504,179516.41153435636,Southwark,Theatres,E09000028,11/27/2022
Southwark,http://www.shakespearesglobe.com/,Shakespeares Globe,200003000000,E09000028,21 New Globe Walk,NA,NA,Borough & Bankside,E05011095,-0.0981810966698339,531856.0121425901,51.50862324904411,180677.01912720065,Southwark,Theatres,E09000028,11/27/2022
Southwark,http://www.roseplayhouse.org.uk/,The Rose Playhouse,200003000000,E09000028,56 Park St,NA,NA,Borough & Bankside,E05011095,-0.09786911044328343,531879.9823717175,51.50781832827308,180588.09059789247,Southwark,Theatres,E09000028,11/27/2022
Southwark,https://mct.alleyns.org.uk/,The MCT,200003000000,E09000028,Alleyn's School, Townley Road,NA,Goose Green,E05011103,-0.08357669201920563,533024.4403074962,51.45529877946817,174774.89962957008,Southwark,Theatres,E09000028,11/27/2022
Southwark,https://www.theatredeli.co.uk/about-the-old-library,"The Old Library, Theatre Deli",200003000000,E09000028,39 Wells Way,NA,NA,Faraday,E05011102,-0.08717436067960137,532693.7119535195,51.48312387788948,177861.9293000287,Southwark,Theatres,E09000028,11/27/2022
Southwark,https://www.kcl.ac.uk/greenwood/index.aspx,Greenwood Theatre,200003000000,E09000028,55 Weston St,NA,NA,London Bridge & West Bermondsey,E05011104,-0.08750403497236084,532612.7428040747,51.50311794932499,180084.25083071907,Southwark,Theatres,E09000028,11/27/2022
Southwark,https://www.menierchocolatefactory.com/,Menier Chocolate Factory,200004000000,E09000028,53 Southwark St,NA,NA,Borough & Bankside,E05011095,-0.09607722888139904,532011.9503969132,51.50517260421037,180297.1728063487,Southwark,Theatres,E09000028,11/27/2022
