borough_name,website,site_name,os_addressbase_uprn,borough_code,address1,address2,address3,ward_2018_name,ward_2018_code,longitude,easting,latitude,northing,BOROUGH,Cultural Venue Type,gss_code,runtime
Sutton,https://arena.yourlondonlibrary.net/web/sutton/sutton-archives,London Borough of Sutton: Archives & Local Studies,5870113864,E09000029,Level 2A Central Library ,St Nicholas Way,,Sutton Central,E05000564,-0.19515461550298518,525529.8323365801,51.36207338892009,164213.2842052832,Sutton,Archives,E09000029,11/27/2022
Sutton,https://www.lqgroup.org.uk/services-for-residents/have-your-say/resident-involvement/landq-community-centres/community-cen,Wandle Valley Community Centre,5870115697,E09000029,2 Budge Lane,Sutton,NA,Wandle Valley,E05000571,-0.16294615706659898,527818.0001221001,51.38518403929647,166783.00012210011,Sutton,Community centres,E09000029,11/27/2022
Sutton,http://www.elmcroftcc.org.uk/,Elmcroft Community Centre,5870012360,E09000029,London Road,Sutton,NA,Nonsuch,E05000561,-0.22363182481048383,523630.0001221001,51.37253952005722,165273.00012210011,Sutton,Community centres,E09000029,11/27/2022
Sutton,,Shanklin Community & Children's Centre,5870029716,E09000029,Rookley Close,Sutton,NA,Belmont,E05000557,-0.19451485351383987,525726.0001221001,51.347082874498454,162492.00012210011,Sutton,Community centres,E09000029,11/27/2022
Sutton,http://thethomaswallcentre.co.uk/index4.html/index-4.html,Thomas Wall Centre,5870047224,E09000029,52 Benhill Avenue,Sutton,NA,Sutton Central,E05000564,-0.18919470798135365,526044.0001221001,51.36618432667909,164625.00012210011,Sutton,Community centres,E09000029,11/27/2022
Sutton,http://www.spanglefish.com/clockhousecommunityassociation/,Hillcrest Halls,5870074245,E09000029,Fryston Avenue,Sutton,NA,Carshalton South and Clockhouse,E05000559,-0.15258901073293854,528706.0001221001,51.32541056334565,160155.00012210011,Sutton,Community centres,E09000029,11/27/2022
Sutton,http://riversidecentre.org/,RIverside Community Centre,5870121708,E09000029,113 Culvers Avenue,Sutton,NA,The Wrythe,E05000568,-0.16306491526914654,527828.0001221001,51.37862948956756,166054.00012210011,Sutton,Community centres,E09000029,11/27/2022
Sutton,https://www.suttoncvs.org.uk/,Granfers Community Centre,5870040510,E09000029,73-79 Oakhill Road,Sutton,NA,Sutton North,E05000565,-0.18975949923592955,525994.0001221001,51.37007833320943,165057.00012210011,Sutton,Community centres,E09000029,11/27/2022
Sutton,,Rosehill Community Centre,5870117675,E09000029,Rosehill Community Centre, Rosehill Recreation Ground, Rose Hill,Sutton North,E05000565,-0.1927894335649897,525762.0001221001,51.37778773756496,165909.00012210011,Sutton,Community centres,E09000029,11/27/2022
Sutton,https://www.suttonhousingpartnership.org.uk/news-events/cuppa-with-a-copper-at-seven-acres-community-hub--763,Seven Acres Community Hub,5870066625,E09000029,Seven Acres Community Hub, 41-43 Seven Acres, Carshalton,The Wrythe,E05000568,-0.17219759646482982,527203.0001221001,51.37485108689604,165618.00012210011,Sutton,Community centres,E09000029,11/27/2022
Sutton,,Hill House,5870054793,E09000029,Hill House Community Centre,Hill House,Bishopsford Road,St. Helier,E05000562,-0.1817501167613713,526506.0001221001,51.386547642524874,166902.00012210011,Sutton,Community centres,E09000029,11/27/2022
Sutton,http://www.chatsworthstudio.com,The Chatsworth Studio,5870018940,E09000029,60 Upper Mulgrave Road,,,Cheam,E05000560,-0.21217208303627383,524364.2227592415,51.355140005379475,163413.44398764608,Sutton,Dance rehearsal studios,E09000029,11/27/2022
Sutton,https://www.better.org.uk,Sutton Dance Academy,5870040509,E09000029,Rose Hill Park,,,Sutton North,E05000565,-0.19562162951491355,525453.8137273047,51.37797068114996,165979.89379094553,Sutton,Dance rehearsal studios,E09000029,11/27/2022
Sutton,http://www.wallingtongirls.sutton.sch.uk,Wallington High School for Girls in Wallington,5870087159,E09000029,129 Woodcote Rd,,,Wallington South,E05000570,-0.14883639339492902,528793.0516734559,51.34799637457084,162728.63434707286,Sutton,Dance rehearsal studios,E09000029,11/27/2022
Croydon,http://thewarehousedancestudios.co.uk,The Warehouse Dance and Fitness Studio,10090384254,E09000008,4 Queensway,,,Waddon,E05011487,-0.11940139554576056,530804.5514729111,51.361242255956554,164253.4790665579,Sutton,Dance rehearsal studios,E09000029,11/27/2022
Sutton,http://www.mix-fits.org,Mix-Fits Ltd,5870002893,E09000029,Suite 10,Fitzroy House,,Nonsuch,E05000561,-0.24231921821654828,522313.0001221001,51.37873022238906,165930.00012210011,Sutton,Jewellery design,E09000029,11/27/2022
Sutton,,Library @ the Phoenix Centre,5870113095,E09000029,Mollison Drive,Wallington,,Beddington South,E05000556,-0.1316846713578861,530085.0001221001,51.35268985475445,163225.00012210011,Sutton,Libraries,E09000029,11/27/2022
Sutton,,Wallington Library,5870076858,E09000029,Shotfield,Wallington,,Wallington South,E05000570,-0.14922239237916213,528851.0001221001,51.3573212854283,163709.00012210011,Sutton,Libraries,E09000029,11/27/2022
Sutton,,Cheam Library,5870018019,E09000029,Church Road,Cheam,,Cheam,E05000560,-0.21512635482852016,524257.0001221001,51.35957626282733,163846.00012210011,Sutton,Libraries,E09000029,11/27/2022
Sutton,,Sutton Central Library,5870113864,E09000029,St Nicholas Way,Sutton,,Sutton Central,E05000564,-0.19358683253041048,525751.0001221001,51.36154843906423,164102.00012210011,Sutton,Libraries,E09000029,11/27/2022
Sutton,,Library @ Westcroft Centre,5870122731,E09000029,Westcroft Road,Carshalton,,Wallington North,E05000569,-0.15654479095951912,528313.0001221001,51.36742880904304,164820.00012210011,Sutton,Libraries,E09000029,11/27/2022
Sutton,,Worcester Park Library,5870109125,E09000029,Windsor Road,Worcester Park,,Nonsuch,E05000561,-0.2398070770394287,522491.0001221001,51.377532325566335,165801.00012210011,Sutton,Libraries,E09000029,11/27/2022
Sutton,,Library @ The Life Centre,5870120544,E09000029,Alcorn Close,Sutton,,Stonecot,E05000563,-0.20025358448474556,525241.0001221001,51.37837931393949,165962.00012210011,Sutton,Libraries,E09000029,11/27/2022
Sutton,,The Circle Library,5870120398,E09000029,Green Wrythe Lane,Carshalton,,Wandle Valley,E05000571,-0.17289752276515144,527126.0001221001,51.38506085967539,166752.00012210011,Sutton,Libraries,E09000029,11/27/2022
Sutton,https://whitehallmuseum.wordpress.com/,Whitehall Historic House,5870019263,E09000029,1 Malden Road,Cheam,Surrey,Cheam,E05000560,-0.21564278593406136,524223.0001221001,51.35885564319895,163765.00012210011,Sutton,Museums and public galleries,E09000029,11/27/2022
Sutton,http://www.sutton.gov.uk/,Little Holland House,5870060822,E09000029,40 Beeches Ave,Carshalton,NA,Carshalton South and Clockhouse,E05000559,-0.16900451727604776,527481.0001221001,51.35475421120119,163389.00012210011,Sutton,Museums and public galleries,E09000029,11/27/2022
Sutton,http://www.friendsofhoneywood.co.uk/,Honeywood Museum,5870115967,E09000029,Honeywood Walk,Carshalton,Surrey,Carshalton Central,E05000558,-0.16349688154737613,527837.0001221001,51.364606059078156,164494.00012210011,Sutton,Museums and public galleries,E09000029,11/27/2022
Sutton,,Pierreplay Records Ltd,5870028472,E09000029,199 Autumn Drive,Sutton,,Belmont,E05000557,-0.1952059741846559,525673.000122197,51.34886528928435,162689.00012159348,Sutton,Music (office based businesses),E09000029,11/27/2022
Sutton,,Blue Flowers Publishing Ltd,5870111201,E09000029,19 Jubilee Road,Sutton,,Cheam,E05000560,-0.21992234304915573,523932.000122197,51.356294606365765,163473.00012159348,Sutton,Music (office based businesses),E09000029,11/27/2022
Sutton,,More Time Records Ltd,5870019429,E09000029,74 Tabor Gardens,Sutton,,Cheam,E05000560,-0.21115617303603457,524541.000122197,51.356763627854875,163540.00012159348,Sutton,Music (office based businesses),E09000029,11/27/2022
Sutton,,Lontano Records Ltd,5870090187,E09000029,20 Onslow Gardens,Sutton,,Wallington South,E05000570,-0.1457237407972882,529098.000122197,51.356096759272226,163579.00012159348,Sutton,Music (office based businesses),E09000029,11/27/2022
Sutton,,Heads Up Music Ltd,5870018046,E09000029,58 High Street,Sutton,,Cheam,E05000560,-0.2129906165612713,524411.000122197,51.35761005586761,163631.00012159348,Sutton,Music (office based businesses),E09000029,11/27/2022
Sutton,,Rhirhi Records Ltd,5870049420,E09000029,12 Osborne Place,Sutton,,Sutton Central,E05000564,-0.18102374713973254,526624.000122197,51.36209149833193,164184.00012159348,Sutton,Music (office based businesses),E09000029,11/27/2022
Sutton,,Ncs Entertainment Ltd,5870015496,E09000029,22 Charminster Road,Sutton,,Worcester Park,E05000572,-0.22299155196299728,523651.000122197,51.38128062845207,166246.00012159348,Sutton,Music (office based businesses),E09000029,11/27/2022
Sutton,www.starcitystudios.co.uk,Starcity Studios,0,E09000029,2 Sutton Ct Rd Sutton,,,Sutton Central,E05000564,-0.18940992006410456,526046.000122197,51.35999998556114,163937.00012159348,Sutton,Music recording studios,E09000029,11/27/2022
Sutton,,Soundbox Studios,0,E09000029,Pandora House 41-45 Lind Rd,Sutton,,Sutton Central,E05000564,-0.18441719101022305,526382.000122197,51.36419471322597,164412.00012159348,Sutton,Music recording studios,E09000029,11/27/2022
Sutton,http://www.crunchstudios.co.uk/,Crunch Studios,5870119991,E09000029,Crunch Studio 39b,High Street,Sutton,Carshalton Central,E05000558,-0.15803348380081053,528215.000122197,51.365419644848224,164594.00012159348,Sutton,Music rehearsal studios,E09000029,11/27/2022
Sutton,www.musicstudioslondon.com,Music Studios London,5870054132,E09000029,43192 Rosehill Court Parade,St. Helier Avenue,Sutton,St. Helier,E05000562,-0.18782946505822418,526087.000122197,51.38511291319991,166732.00012159348,Sutton,Music rehearsal studios,E09000029,11/27/2022
,www.thesoundlounge.org.uk,The Sound Lounge,,,216-220 High Street,,,,,-0.1926506700931572,525803.8969182,51.36602486975543,164601.3355139941,Sutton,Music venues (all),E09000029,11/27/2022
Sutton,,Claret Wine Bar,5870019859,E09000029,33 The Broadway,Sutton,,Cheam,E05000560,-0.21533634160787932,524246.000122197,51.35823940402489,163697.00012159348,Sutton,Music venues (all),E09000029,11/27/2022
Sutton,,Revolution,5870030304,E09000029,42795 High Street,Sutton,,Sutton West,E05000567,-0.19003930106079725,526005.000122197,51.3589754365327,163822.00012159348,Sutton,Music venues (all),E09000029,11/27/2022
Sutton,www.wallingtonarms.com,Wallington Arms,5870077343,E09000029,6 Woodcote Road,Sutton,,Wallington South,E05000570,-0.14858626595637497,528889.000122197,51.35955967045487,163959.00012159348,Sutton,Music venues (all),E09000029,11/27/2022
Sutton,,Bounce,5870122285,E09000029,57 High Street,Sutton,,Sutton Central,E05000564,-0.19087736192209873,525941.000122197,51.36103894895378,164050.00012159348,Sutton,Music venues (all),E09000029,11/27/2022
Sutton,,New Inn,5870048302,E09000029,16-18 Myrtle Road,Sutton,,Sutton Central,E05000564,-0.18549689050153836,526307.000122197,51.36413949421267,164404.00012159348,Sutton,Music venues (all),E09000029,11/27/2022
Sutton,,The Coach & Horses,5870077971,E09000029,10 High Street,Sutton,,Carshalton Central,E05000558,-0.1608033340102286,528025.000122197,51.36441989640947,164478.00012159348,Sutton,Music venues (all),E09000029,11/27/2022
Sutton,www.theracehorsepub.co.uk,Race Horse,5870063158,E09000029,17 West Street,Sutton,,Carshalton Central,E05000558,-0.16582070727709625,527672.000122197,51.36577568061749,164620.00012159348,Sutton,Music venues (all),E09000029,11/27/2022
Sutton,www.feenstra.co.uk/boomboom,The Boom Boom Club,0,E09000029,Sutton United Football Club The Borough Sports Ground,Gander Green Ln,Sutton,Sutton West,E05000567,-0.20279414144266522,525095.000122197,51.36708628644587,164702.00012159348,Sutton,Music venues (all),E09000029,11/27/2022
Sutton,www.railwaytaverncarshalton.co.uk,The Railway Tavern,5870062829,E09000029,47 North Street,Sutton,,The Wrythe,E05000568,-0.16427951461237883,527771.000122197,51.36874644754404,164953.00012159348,Sutton,Music venues (all),E09000029,11/27/2022
Sutton,,The Red Lion,5870110898,E09000029,Hackbridge Road Sutton,,,Wandle Valley,E05000571,-0.15604080022404015,528319.000122197,51.377826618247745,165977.00012159348,Sutton,Music venues (all),E09000029,11/27/2022
,www.thesoundlounge.org.uk,The Sound Lounge,,,216-220 High Street,,,,,-0.1926506700931572,525803.8969182,51.36602486975543,164601.3355139941,Sutton,Music venues (grassroots),E09000029,11/27/2022
Sutton,,Plough,,E09000029,Croydon Road,Croydon,Beddington,Beddington North,E05000555,-0.1302962692819899,530142.0001221001,51.36667999766016,164783.00012210011,Sutton,Pubs,E09000029,11/27/2022
Sutton,,Harvest Home,,E09000029,27 Beddington Lane,Croydon,,Beddington North,E05000555,-0.13012834325333733,530140.0001221001,51.37150696661924,165320.00012210011,Sutton,Pubs,E09000029,11/27/2022
Sutton,,Centrals Bar & Lounge,,E09000029,169 Central Road,Worcester Park,,Nonsuch,E05000561,-0.24247435871204043,522301.0001221001,51.379182231205476,165980.00012210011,Sutton,Pubs,E09000029,11/27/2022
Sutton,,Brook,,E09000029,181 Central Road,Worcester Park,,Nonsuch,E05000561,-0.24247435871204043,522301.0001221001,51.379182231205476,165980.00012210011,Sutton,Pubs,E09000029,11/27/2022
Sutton,,Rumours,,E09000029,25-27 Central Road,Worcester Park,,Nonsuch,E05000561,-0.2375169231483747,522653.0001221001,51.37654456752291,165695.00012210011,Sutton,Pubs,E09000029,11/27/2022
Sutton,,North End Tavern,,E09000029,245 Cheam Common Road,Worcester Park,,Nonsuch,E05000561,-0.23516216009264299,522819.0001221001,51.37574465702861,165610.00012210011,Sutton,Pubs,E09000029,11/27/2022
Sutton,,H G Wells,,E09000029,101 Cheam Common Road,Worcester Park,,Worcester Park,E05000572,-0.23104143465830382,523114.0001221001,51.37266963386976,165275.00012210011,Sutton,Pubs,E09000029,11/27/2022
Sutton,,Slug & Lettuce,,E09000029,33 High Street,Sutton,,Sutton Central,E05000564,-0.19068307226660625,525957.0001221001,51.36013657735916,163950.00012210011,Sutton,Pubs,E09000029,11/27/2022
Sutton,,O'Neill's,,E09000029,37 High Street,Sutton,,Sutton Central,E05000564,-0.19068307226660625,525957.0001221001,51.36013657735916,163950.00012210011,Sutton,Pubs,E09000029,11/27/2022
Sutton,,EBB & Flow Cafe Bar,,E09000029,59-61 High Street,Sutton,,Sutton Central,E05000564,-0.19092043337925366,525938.0001221001,51.36103961420864,164050.00012210011,Sutton,Pubs,E09000029,11/27/2022
Sutton,,Shinner & Sudtone,,E09000029,67 High Street,Sutton,,Sutton Central,E05000564,-0.19092043337925366,525938.0001221001,51.36103961420864,164050.00012210011,Sutton,Pubs,E09000029,11/27/2022
Sutton,,Moon on the Hill,,E09000029,5-9 Hill Road,Sutton,,Sutton Central,E05000564,-0.19159026272067933,525891.0001221001,51.361175869716064,164064.00012210011,Sutton,Pubs,E09000029,11/27/2022
Sutton,,All Bar One,,E09000029,2 Hill Road,Sutton,,Sutton Central,E05000564,-0.19159026272067933,525891.0001221001,51.361175869716064,164064.00012210011,Sutton,Pubs,E09000029,11/27/2022
Sutton,,Sutton Arms,,E09000029,60-62 High Street,Sutton,,Sutton Central,E05000564,-0.1904489585288464,525970.0001221001,51.36133811725519,164084.00012210011,Sutton,Pubs,E09000029,11/27/2022
Sutton,,Cock & Bull,,E09000029,26-30 High Street,Sutton,,Sutton Central,E05000564,-0.19014265531523342,525994.0001221001,51.360362064538236,163976.00012210011,Sutton,Pubs,E09000029,11/27/2022
Sutton,,Old Bank,,E09000029,2 High Street,Sutton,,Sutton Central,E05000564,-0.18975572122058879,526023.0001221001,51.35960960735827,163893.00012210011,Sutton,Pubs,E09000029,11/27/2022
Sutton,,Crown,,E09000029,285 High Street,Sutton,,Sutton Central,E05000564,-0.19370257786703637,525727.0001221001,51.367369145892866,164749.00012210011,Sutton,Pubs,E09000029,11/27/2022
Sutton,,Winning Post,,E09000029,265 High Street,Sutton,,Sutton Central,E05000564,-0.19370257786703637,525727.0001221001,51.367369145892866,164749.00012210011,Sutton,Pubs,E09000029,11/27/2022
Sutton,,Robin Hood,,E09000029,52 West Street,Sutton,,Sutton Central,E05000564,-0.19466649090552737,525671.0001221001,51.36331885605662,164297.00012210011,Sutton,Pubs,E09000029,11/27/2022
Sutton,,Holiday Inn,,E09000029,Gibson Road,Sutton,,Sutton West,E05000567,-0.19505035327067324,525650.0001221001,51.361229240102816,164064.00012210011,Sutton,Pubs,E09000029,11/27/2022
Sutton,,Gander,,E09000029,2 St. Dunstan's Hill,West Sutton,,Cheam,E05000560,-0.20803322016649645,524721.0001221001,51.370530186391115,165076.00012210011,Sutton,Pubs,E09000029,11/27/2022
Sutton,,Butterchurn,,E09000029,Erskine Road,Sutton,,The Wrythe,E05000568,-0.17995611391279967,526679.0001221001,51.369090007657476,164964.00012210011,Sutton,Pubs,E09000029,11/27/2022
Sutton,,Little Windsor,,E09000029,13 Greyhound Road,Sutton,,Sutton Central,E05000564,-0.18496215949042333,526346.0001221001,51.36349265624396,164333.00012210011,Sutton,Pubs,E09000029,11/27/2022
Sutton,,Nightingale,,E09000029,53 Carshalton Road,Sutton,,Sutton Central,E05000564,-0.18366160029640888,526440.0001221001,51.36223136398291,164195.00012210011,Sutton,Pubs,E09000029,11/27/2022
Sutton,,Lord Nelson,,E09000029,32 Lower Road,Sutton,,Sutton Central,E05000564,-0.18219548917393177,526535.0001221001,51.36478981485255,164482.00012210011,Sutton,Pubs,E09000029,11/27/2022
Sutton,,California,,E09000029,267 Brighton Road,Belmont,,Belmont,E05000557,-0.1961274545949707,525624.0001221001,51.34332136692422,162071.00012210011,Sutton,Pubs,E09000029,11/27/2022
Sutton,,Inn on the Park,,E09000029,Ewell Road,Cheam,,Cheam,E05000560,-0.22065315013165243,523885.0001221001,51.354857728331716,163312.00012210011,Sutton,Pubs,E09000029,11/27/2022
Sutton,,Claret Wine Bar,,E09000029,33 The Broadway,Cheam,,Cheam,E05000560,-0.2153167442361066,524247.0001221001,51.35837401065548,163712.00012210011,Sutton,Pubs,E09000029,11/27/2022
Sutton,,Olde Red Lion,,E09000029,17 Park Road,Cheam,,Cheam,E05000560,-0.2147320251777855,524286.0001221001,51.35900365126382,163783.00012210011,Sutton,Pubs,E09000029,11/27/2022
Sutton,,Prince of Wales,,E09000029,28 Malden Road,Cheam,,Cheam,E05000560,-0.2162038964649159,524180.0001221001,51.360312172252186,163926.00012210011,Sutton,Pubs,E09000029,11/27/2022
Sutton,,Harrow Inn,,E09000029,6 High Street,Cheam,,Cheam,E05000560,-0.21420630876085237,524328.0001221001,51.357008033086736,163562.00012210011,Sutton,Pubs,E09000029,11/27/2022
Sutton,,Railway,,E09000029,32 Station Way,Cheam,,Cheam,E05000560,-0.21487606759182204,524284.0001221001,51.35603793108773,163453.00012210011,Sutton,Pubs,E09000029,11/27/2022
Sutton,,Nonsuch Inn,,E09000029,552 London Road,North Cheam,,Nonsuch,E05000561,-0.22412998774359527,523598.0001221001,51.37154877772646,165162.00012210011,Sutton,Pubs,E09000029,11/27/2022
Sutton,,Lord Nelson,,E09000029,837 London Road,North Cheam,,Worcester Park,E05000572,-0.21687560326363778,524081.0001221001,51.37963179666231,166073.00012210011,Sutton,Pubs,E09000029,11/27/2022
Sutton,,Plough,,E09000029,224 Sutton Common Road,Sutton,,Stonecot,E05000563,-0.20005953103964835,525251.0001221001,51.379662427261835,166105.00012210011,Sutton,Pubs,E09000029,11/27/2022
Sutton,,Porterhouse Steak Bar,,E09000029,13 Green Wrythe Lane,Carshalton,,The Wrythe,E05000568,-0.16717545061967032,527559.0001221001,51.37250620128338,165366.00012210011,Sutton,Pubs,E09000029,11/27/2022
Sutton,,Railway Tavern,,E09000029,47 North Street,Carshalton,,The Wrythe,E05000568,-0.1649019487840347,527725.0001221001,51.369709535020334,165059.00012210011,Sutton,Pubs,E09000029,11/27/2022
Sutton,,Sun,,E09000029,4 North Street,Carshalton,,Carshalton Central,E05000558,-0.1626538402236012,527889.0001221001,51.36700315743749,164762.00012210011,Sutton,Pubs,E09000029,11/27/2022
Sutton,,Palmerston,,E09000029,31 Mill Lane,Carshalton,,Carshalton Central,E05000558,-0.16080249327072998,528015.0001221001,51.3680263691417,164879.00012210011,Sutton,Pubs,E09000029,11/27/2022
Sutton,,Hope,,E09000029,48 West Street,Carshalton,,Carshalton Central,E05000558,-0.16555253459635516,527688.0001221001,51.366733809613976,164727.00012210011,Sutton,Pubs,E09000029,11/27/2022
Sutton,,Racehorse,,E09000029,17 West Street,Carshalton,,Carshalton Central,E05000558,-0.1657715258061397,527675.0001221001,51.36592780381622,164637.00012210011,Sutton,Pubs,E09000029,11/27/2022
Sutton,,Woodman Wine Bar,,E09000029,6 High Street,Carshalton,,Carshalton Central,E05000558,-0.15960369497806032,528108.0001221001,51.36459891572921,164500.00012210011,Sutton,Pubs,E09000029,11/27/2022
Sutton,,Coach & Horses,,E09000029,12 High Street,Carshalton,,Carshalton Central,E05000558,-0.15960369497806032,528108.0001221001,51.36459891572921,164500.00012210011,Sutton,Pubs,E09000029,11/27/2022
Sutton,,Greyhound Hotel,,E09000029,2 High Street,Carshalton,,Carshalton Central,E05000558,-0.1629753462670942,527874.0001221001,51.3643550500781,164467.00012210011,Sutton,Pubs,E09000029,11/27/2022
Sutton,,Windsor Castle,,E09000029,378 Carshalton Road,Carshalton,,Carshalton Central,E05000558,-0.167593198418658,527559.0001221001,51.36204404497688,164202.00012210011,Sutton,Pubs,E09000029,11/27/2022
Sutton,,Dukes Head Hotel,,E09000029,The Green 6 Manor Road,Wallington,,Wallington North,E05000569,-0.15148432728186947,528671.0001221001,51.36536144153341,164599.00012210011,Sutton,Pubs,E09000029,11/27/2022
Sutton,,Star,,E09000029,89 Manor Road,Wallington,,Wallington North,E05000569,-0.1487692929956952,528871.0001221001,51.36143326378323,164167.00012210011,Sutton,Pubs,E09000029,11/27/2022
Sutton,,Wallington Arms,,E09000029,6-16 Woodcote Road,Wallington,,Wallington South,E05000570,-0.1486254900460635,528887.0001221001,51.359299471617646,163930.00012210011,Sutton,Pubs,E09000029,11/27/2022
Sutton,,Red Lion,,E09000029,Hackbridge Road,Wallington,,Wandle Valley,E05000571,-0.15604080022524838,528319.0001221001,51.377826618252314,165977.00012210011,Sutton,Pubs,E09000029,11/27/2022
Sutton,,Grange,,E09000029,"Beddington Park, London Road",Wallington,,Wallington North,E05000569,-0.15006967008191396,528753.0001221001,51.37123000705459,165254.00012210011,Sutton,Pubs,E09000029,11/27/2022
Sutton,,Rose & Crown,,E09000029,"London Road, Wallington Corner",Wallington,,Wallington North,E05000569,-0.15345029872305146,528527.0001221001,51.36791969131519,164880.00012210011,Sutton,Pubs,E09000029,11/27/2022
Sutton,,Whispering Moon,,E09000029,25 Ross Parade,Wallington,,Wallington South,E05000570,-0.1476443998736081,528954.0001221001,51.359760628736865,163983.00012210011,Sutton,Pubs,E09000029,11/27/2022
Sutton,,West-Sutton,0,E09000029,,,,Sutton West,E05000567,-0.2013777407579144,525191.977111794,51.36767468126478,164769.84051509947,Sutton,Skate Parks,E09000029,11/27/2022
