borough_name,website,site_name,os_addressbase_uprn,borough_code,address1,address2,address3,ward_2018_name,ward_2018_code,longitude,easting,latitude,northing,BOROUGH,Cultural Venue Type,gss_code,runtime
Tower Hamlets,https://reuters.screenocean.com/,Reuters Archive,6155377,E09000030,Thomson Reuters ,30 South Colonnade ,Canary Wharf,Canary Wharf,E05009323,-0.02042941634000876,537262.9940289147,51.50435142387477,180345.1172220353,Tower Hamlets,Archives,E09000030,11/27/2022
Tower Hamlets,https://www.whitechapelgallery.org/,Whitechapel Art Gallery,6000113,E09000030,Whitechapel High Street,,,Spitalfields & Banglatown,E05009333,-0.07046539427452132,533756.7859300042,51.51614773634685,181563.90270945407,Tower Hamlets,Archives,E09000030,11/27/2022
Tower Hamlets,http://www.lasa.org.uk/,Lasa,6002410,E09000030,Watson House,54 Baker Street,,Spitalfields & Banglatown,E05009333,-0.07095881088810949,533719.795680392,51.51709110088313,181667.88266224286,Tower Hamlets,Archives,E09000030,11/27/2022
Tower Hamlets,https://www.wiltons.org.uk/,Wilton's Music Hall,6006845,E09000030,Graces Alley,,,Whitechapel,E05009336,-0.06693794829680935,534017.7196860514,51.51061305202626,180955.02048521588,Tower Hamlets,Archives,E09000030,11/27/2022
Tower Hamlets,http://www.thamespolicemuseum.org.uk/museum.html,Wapping Police Station Museum,6009795,E09000030,98 Wapping High Street,,,St. Katharine's & Wapping,E05009330,-0.05859646461708383,534618.5730745904,51.50309221162473,180134.1865228099,Tower Hamlets,Archives,E09000030,11/27/2022
Tower Hamlets,https://www.eastlondonmosque.org.uk/content/east-london-mosque-london-muslim-centre-archive-collections,East London Mosque & London Muslim Centre Archive,6012773,E09000030,4th Floor ,46-92 Whitechapel Road,,Whitechapel,E05009336,-0.06555204716384937,534093.7182060155,51.517469606759,181719.85801736254,Tower Hamlets,Archives,E09000030,11/27/2022
Tower Hamlets,https://www.towerhamlets.gov.uk/lgnl/leisure_and_culture/local_history/local_history__archives/local_history__archives.aspx,Tower Hamlets Local History Library and Archives,6033654,E09000030,277 Bancroft Road,,,Bethnal Green,E05009317,-0.04234719927184271,535684.3965121747,51.52381997417608,182468.6746994864,Tower Hamlets,Archives,E09000030,11/27/2022
Tower Hamlets,https://www.vam.ac.uk/moc/,V & A Museum of Childhood,6039165,E09000030,Cambridge Heath Road,,,Bethnal Green,E05009317,-0.054881955224156294,534799.5986232918,51.5290553112319,183027.53264830814,Tower Hamlets,Archives,E09000030,11/27/2022
Tower Hamlets,http://www.unfinishedhistories.com/,Unfinished Histories,6040154,E09000030,St Margaret's House Settlement ,21 Old Ford Rd,,St. Peter's,E05009331,-0.054495932258682246,534823.5959477813,51.52999311599149,183132.50537940045,Tower Hamlets,Archives,E09000030,11/27/2022
Tower Hamlets,https://www.mattsgallery.org/,Matt's Gallery,6048178,E09000030,42-44 Copperfield Road,,,Mile End,E05009327,-0.03580471959488261,536152.281754385,51.51907944206983,181953.80795744434,Tower Hamlets,Archives,E09000030,11/27/2022
Tower Hamlets,https://www.fusiliermuseumlondon.org/home,Royal Fusiliers Museum,6086845,E09000030,HM Tower of London,,,St. Katharine's & Wapping,E05009330,-0.07518856296198446,533451.8331759879,51.508392763597215,180693.09502167662,Tower Hamlets,Archives,E09000030,11/27/2022
Tower Hamlets,https://www.onebodyonefaith.org.uk/about-us/new-era-new-name/,Lesbian and Gay Christian Movement,6089004,E09000030,Oxford House ,Derbyshire Street,,St. Peter's,E05009331,-0.06148404706213619,534349.6853817301,51.526368052162184,182716.6300953008,Tower Hamlets,Archives,E09000030,11/27/2022
Tower Hamlets,https://www.hsbc.com/about-hsbc/company-history/hsbc-archives,HSBC Group Archives,6151241,E09000030,HSBC Holdings plc 8 Canada Square,,,Canary Wharf,E05009323,-0.01739533577265108,537469.9512627431,51.505532188734534,180482.09217156842,Tower Hamlets,Archives,E09000030,11/27/2022
Tower Hamlets,https://www.crisis.org.uk/,Crisis,6155270,E09000030,66 Commercial Street,,,Spitalfields & Banglatown,E05009333,-0.07388500500326711,533513.840722318,51.51811044589613,181775.86881015962,Tower Hamlets,Archives,E09000030,11/27/2022
Tower Hamlets,https://www.qmul.ac.uk/,"London University: Queen Mary, University of London",6164839,E09000030,Archives Mile End Library Queen Mary University of London ,328 Mile End Road,,Bethnal Green,E05009317,-0.03966442127220717,535869.3574430695,51.524188849827524,182514.67044489423,Tower Hamlets,Archives,E09000030,11/27/2022
Tower Hamlets,https://www.livingstreets.org.uk/,Living Streets,6198476,E09000030,4th Floor Universal House ,88-94 Wentworth Street,,Spitalfields & Banglatown,E05009333,-0.07097359445088947,533718.7958698478,51.5170823515439,181666.88291094854,Tower Hamlets,Archives,E09000030,11/27/2022
Tower Hamlets,https://www.museumoflondon.org.uk/collections/access-and-enquiries/port-london-authority-archive,Museum of London Docklands - Port and River Archive,6650052,E09000030,No 1 Warehouse ,West India Quay ,Hertsmere Road,Canary Wharf,E05009323,-0.02315200152543262,537064.0490154091,51.50769778692042,180712.0591709768,Tower Hamlets,Archives,E09000030,11/27/2022
Tower Hamlets,https://www.museumoflondon.org.uk/collections/access-and-enquiries/sainsbury-archive,Sainsbury Archive,6650052,E09000030,Museum in Docklands ,No 1 Warehouse ,West India Quay,Canary Wharf,E05009323,-0.02315200152543262,537064.0490154091,51.50769778692042,180712.0591709768,Tower Hamlets,Archives,E09000030,11/27/2022
Tower Hamlets,https://minorityrights.org/,Minority Rights Group,6715453,E09000030,Minority Rights Group International ,54 Commercial Street London,,Spitalfields & Banglatown,E05009333,-0.07333654302913849,533553.8310058673,51.51744496280338,181702.88227576506,Tower Hamlets,Archives,E09000030,11/27/2022
Tower Hamlets,www.chisenhale.co.uk,Chisenhale Studios,6146768,E09000030,64-84 Chisenhale Road,,,Bow West,E05009320,-0.03970815386188454,535839.8205948127,51.533088028168955,183503.96750822215,Tower Hamlets,Artists workspaces,E09000030,11/27/2022
Tower Hamlets,www.craftcentral.org.uk,The Forge,6653025,E09000030,397-411 Westferry Road,,,Island Gardens,E05009324,-0.0191593632066607,537397.913122348,51.48879019201069,178617.41950162873,Tower Hamlets,Artists workspaces,E09000030,11/27/2022
Tower Hamlets,www.bowarts.org    www.artiststudiofinder.org   www.londonsartistquarter.org,The Rum Factory ,6195060,E09000030,Unit 4 Pennington Street Warehouse,"Pennington Street,",,St. Katharine's & Wapping,E05009330,-0.06294469553126522,534300.6551775029,51.508604717013355,180739.06081179797,Tower Hamlets,Artists workspaces,E09000030,11/27/2022
Tower Hamlets,Trinitybuoywharf.com,,6179235,E09000030,Studio 1,8 TRINITY BUOY WHARF,,Blackwall & Cubitt Town,E05009318,0.008489119907584922,539257.5279673383,51.50824807054846,180833.00217470975,Tower Hamlets,Artists workspaces,E09000030,11/27/2022
Tower Hamlets,www.trinitybuoywharf.com,,10091954134,E09000030,Trinity Buoy Wharf,64 Orchard Place,,Blackwall & Cubitt Town,E05009318,0.008742623629576297,539274.52465186,51.50844157138614,180854.99837124057,Tower Hamlets,Artists workspaces,E09000030,11/27/2022
Tower Hamlets,,Cable Street Studios,6717530,E09000030,566,Cable Street,,Shadwell,E05009332,-0.04299673556440008,535676.3645261751,51.51136697502305,181082.9825607377,Tower Hamlets,Artists workspaces,E09000030,11/27/2022
Tower Hamlets,www.bowarts.org    www.artiststudiofinder.org   www.londonsartistquarter.org,Art Space at St Katharines,6169658,E09000030,2 Butcher Row,,,Shadwell,E05009332,-0.041463615114152974,535782.3417192642,51.51149426096573,181099.98027523927,Tower Hamlets,Artists workspaces,E09000030,11/27/2022
Tower Hamlets,www.bowarts.org    www.artiststudiofinder.org   www.londonsartistquarter.org,Fitzgerald House,6129546,E09000030,East India Dock Road,,,Lansbury,E05009325,-0.014953290981292153,537620.9373138777,51.51165108681829,181166.98673787573,Tower Hamlets,Artists workspaces,E09000030,11/27/2022
Tower Hamlets,www.limehousetownhall.co.uk/,Limehouse Town Hall,10091898716,E09000030,646 Commercial Rd,,,Limehouse,E05009326,-0.03140643702998091,536478.1912014592,51.512108267096586,181186.9717269907,Tower Hamlets,Artists workspaces,E09000030,11/27/2022
Tower Hamlets,www.themillcoproject.co.uk,Ratcliffe Cross Street ,6171933,E09000030,1-9 Ratcliffe Cross Street,,,Shadwell,E05009332,-0.04287361530524132,535680.3676722826,51.512893686602325,181252.94739906373,Tower Hamlets,Artists workspaces,E09000030,11/27/2022
Tower Hamlets,www.bowarts.org    www.artiststudiofinder.org   www.londonsartistquarter.org,Aberfieldy Street studios,6210893,E09000030,Aberfieldy Street ,,,Lansbury,E05009325,-0.006218175849817047,538219.8066457357,51.51399396461373,181443.94431041298,Tower Hamlets,Artists workspaces,E09000030,11/27/2022
Tower Hamlets,www.artsadmin.co.uk,,6090198,E09000030,Toynbee Studios,28 Commercial Street,,Spitalfields & Banglatown,E05009333,-0.07218770244876027,533635.812261,51.51666168903832,181617.89649091294,Tower Hamlets,Artists workspaces,E09000030,11/27/2022
Tower Hamlets,www.acme.org.uk,Leven Road,6652767,E09000030,40 Leven Road,Poplar,,Lansbury,E05009325,-0.007586859925156172,538115.8414484923,51.51697596143873,181772.89780816477,Tower Hamlets,Artists workspaces,E09000030,11/27/2022
Tower Hamlets,www.acme.org.uk,Copperfield Road,6048178,E09000030,42/44 Copperfield Road,Bow,,Mile End,E05009327,-0.03580471959488261,536152.281754385,51.51907944206983,181953.80795744434,Tower Hamlets,Artists workspaces,E09000030,11/27/2022
Tower Hamlets,www.acme.org.uk,The Fire Station,6083286,E09000030,30 Gillender Street,Poplar,,Lansbury,E05009325,-0.009820500836410973,537952.8831625431,51.51963080006976,182063.84092154808,Tower Hamlets,Artists workspaces,E09000030,11/27/2022
Tower Hamlets,www.spacestudios.org.uk,Brickfield,6155760,E09000030,30 Brickfield Road,Tower Hamlets,,Bromley South,E05009322,-0.013888751009615105,537666.9522050018,51.52087780517319,182194.81085111608,Tower Hamlets,Artists workspaces,E09000030,11/27/2022
Tower Hamlets,www.acava.org,Limehouse Studios,6086500,E09000030,Towcester Rd,,,Bromley South,E05009322,-0.011952243359687807,537799.9217695023,51.521321622712044,182247.80267773086,Tower Hamlets,Artists workspaces,E09000030,11/27/2022
Tower Hamlets,www.ascstudios.co.uk,Empson Street,6177430,E09000030,Unit 3 Empson Street Bow,,,Bromley South,E05009322,-0.012671207919782062,537748.934455568,51.52169351592424,182287.79388390598,Tower Hamlets,Artists workspaces,E09000030,11/27/2022
Tower Hamlets,http://www.no-w-here.org.uk/,No.w.here,6180436,E09000030,316-318 Bethnal Green Rd,,,St. Peter's,E05009331,-0.06399345510316913,534175.721469535,51.526346593684316,182709.6395107911,Tower Hamlets,Artists workspaces,E09000030,11/27/2022
Tower Hamlets,,"The Crypt, St John on Bethnal Green",6135046,E09000030,The Crypt,200 Cambridge Heath Road,,Bethnal Green,E05009317,-0.054901582348904236,534802.5943114476,51.5275808654592,182863.5734409088,Tower Hamlets,Artists workspaces,E09000030,11/27/2022
Tower Hamlets,www.bowarts.org    www.artiststudiofinder.org   www.londonsartistquarter.org,Warren House,6071681,E09000030,Bromley High street ,,,Bromley North,E05009321,-0.017110528676130863,537424.0185869581,51.52734413313183,182907.65653885074,Tower Hamlets,Artists workspaces,E09000030,11/27/2022
Tower Hamlets,www.bowarts.org    www.artiststudiofinder.org   www.londonsartistquarter.org,Bow Road,6070835,E09000030,181-183 Bow Rd,,,Bow East,E05009319,-0.017675298372616072,537380.0298005289,51.52894538518968,183084.61670623167,Tower Hamlets,Artists workspaces,E09000030,11/27/2022
Tower Hamlets,www.bowarts.org    www.artiststudiofinder.org   www.londonsartistquarter.org,P1,6197813,E09000030,"Taylor Place, ","Payne Road, ",,Bow East,E05009319,-0.015481408523081604,537528.9952509535,51.52999642114803,183205.59742666112,Tower Hamlets,Artists workspaces,E09000030,11/27/2022
Tower Hamlets,http://autoitaliasoutheast.org/,,6169839,E09000030,44 Bonner Road ,,,St. Peter's,E05009331,-0.052419253418840676,534960.5730835706,51.53236861046325,183400.432376722,Tower Hamlets,Artists workspaces,E09000030,11/27/2022
Tower Hamlets,www.acme.org.uk,Robinson Road,6169839,E09000030,15 Robinson Road,Bethnal Green,,St. Peter's,E05009331,-0.05241812796397462,534960.6330857956,51.532374706662516,183401.11220424855,Tower Hamlets,Artists workspaces,E09000030,11/27/2022
Tower Hamlets,www.artcoreint.net,Unit 8,6717569,E09000030,Unit 8 Riverbank Business Park,Dye House Lane,,Bow East,E05009319,-0.02036318392808569,537176.0790517933,51.53478204485671,183728.46799663902,Tower Hamlets,Artists workspaces,E09000030,11/27/2022
Tower Hamlets,cellprojects.org,Cell Projects,6021858,E09000030,258 cambridge heath road,,,St. Peter's,E05009331,-0.05843607465593638,534538.663729875,51.53396121455628,183566.41015051678,Tower Hamlets,Artists workspaces,E09000030,11/27/2022
Tower Hamlets,http://www.v22collection.com,Crown Close,6075330,E09000030,5 Crown Close,,,Bow East,E05009319,-0.024779335638749154,536864.1496942188,51.536690930633895,183932.40605699003,Tower Hamlets,Artists workspaces,E09000030,11/27/2022
Tower Hamlets,www.spacestudios.org.uk,Britannia Works,6129407,E09000030,43-45 Dace Road,Tower Hamlets,,Bow East,E05009319,-0.022743328732548217,537002.1180679238,51.537753776135894,184054.38939641125,Tower Hamlets,Artists workspaces,E09000030,11/27/2022
Tower Hamlets,http://swanwharfproject.co.uk/contact/,Swan Wharf,6151658,E09000030,60 Dace Road,,,Bow East,E05009319,-0.02161937612407858,537080.1003093732,51.53773484509726,184054.39434234618,Tower Hamlets,Artists workspaces,E09000030,11/27/2022
Tower Hamlets,www.londonbookarts.org,Britannia Works,6135864,E09000030,56 Dace Road,,,Bow East,E05009319,-0.022771369019040758,537000.1185197483,51.53777223372489,184056.3888538977,Tower Hamlets,Artists workspaces,E09000030,11/27/2022
Tower Hamlets,www.spacestudios.org.uk,Bridget Riley,6180071,E09000030,Dace Road,Tower Hamlets,,Bow East,E05009319,-0.02275421365596882,537001.2782536562,51.53778210662961,184057.51869262132,Tower Hamlets,Artists workspaces,E09000030,11/27/2022
Tower Hamlets,www.stourspace.co.uk,Stour Space,6172062,E09000030,Stour Space,7 Roach Road,,Bow East,E05009319,-0.021095068063278585,537109.0932130355,51.540181023320464,184327.33954973926,Tower Hamlets,Artists workspaces,E09000030,11/27/2022
Tower Hamlets,https://www.richmix.org.uk/,Rich Mix ,6150258,E09000030,35-47 Bethnal Green Rd,,,Weavers,E05009335,-0.07327520292405387,533537.8487533755,51.52435933520294,182471.72356113477,Tower Hamlets,Arts centres,E09000030,11/27/2022
Tower Hamlets,https://poplarunion.com/ ,Poplar Union ,6194894,E09000030,2 Cotall St,Poplar,,Lansbury,E05009325,-0.022982609701648768,537052.0760375387,51.515599733128866,181590.9115676905,Tower Hamlets,Arts centres,E09000030,11/27/2022
Tower Hamlets,,Everyman Canary Wharf,000006198197,E09000030,,Crossrail Place Level -2,Canary Wharf,Canary Wharf,E05009323,-0.01622409646552968,537663.0001221001,51.5056195242626,180440.00012210011,Tower Hamlets,Cinemas,E09000030,11/27/2022
Tower Hamlets,www.cineworld.co.uk,Cineworld West India Quay,000006136934,E09000030,,Hertsmere Road,West India Quay,Canary Wharf,E05009323,-0.02126328402389602,537308.0001221001,51.507395484190525,180628.00012210011,Tower Hamlets,Cinemas,E09000030,11/27/2022
Tower Hamlets,,Genesis Cinema,000006033507,E09000030,,93-95 Mile End Road,Stepney,Bethnal Green,E05009317,-0.049623706867297786,535300.0001221001,51.52095639289526,182083.00012210011,Tower Hamlets,Cinemas,E09000030,11/27/2022
Tower Hamlets,,Close-Up Film Centre,000006002778,E09000030,,97 Sclater Street,,Weavers,E05009335,-0.07044816052984748,533849.0401000977,51.523161198863335,182289.8500976935,Tower Hamlets,Cinemas,E09000030,11/27/2022
Tower Hamlets,,Electric Cinema (Shoreditch),000006002678,E09000030,,64-66 Redchurch Street,Shoreditch,Weavers,E05009335,-0.07232270501758443,533717.0001221001,51.52384990856467,182363.00012210011,Tower Hamlets,Cinemas,E09000030,11/27/2022
Tower Hamlets,,Rich Mix,000006150258,E09000030,,35-47 Bethnal Green Road,,Weavers,E05009335,-0.07168840340883953,533761.0001221001,51.52384847465537,182364.00012210011,Tower Hamlets,Cinemas,E09000030,11/27/2022
Tower Hamlets,,Curzon Aldgate,000006701865,E09000030,2 Canter Way,2 Canter Way,Goodman's Fields,Whitechapel,E05009336,-0.06721853299972853,534102.0001221001,51.51330631088864,181200.00012210011,Tower Hamlets,Cinemas,E09000030,11/27/2022
Tower Hamlets,http://www.cubefuture.com/#,CubeFuture,6001683,E09000030,33 Fournier Street,NA,NA,Spitalfields & Banglatown,E05009333,-0.07107838351229062,533818.0001221001,51.51883798985443,181808.00012210011,Tower Hamlets,Commercial galleries,E09000030,11/27/2022
Tower Hamlets,http://www.elevenspitalfields.com/#,Eleven Spitalfields,6001684,E09000030,11 Princelet Street,NA,NA,Spitalfields & Banglatown,E05009333,-0.07127320297648504,533803.0001221001,51.51934483700476,181864.00012210011,Tower Hamlets,Commercial galleries,E09000030,11/27/2022
Tower Hamlets,http://www.leydengallery.com/#,Leyden Gallery,6001837,E09000030,9/9a Leyden Street,NA,NA,Spitalfields & Banglatown,E05009333,-0.07464152940295812,533578.0001221001,51.516387321729994,181529.00012210011,Tower Hamlets,Commercial galleries,E09000030,11/27/2022
Tower Hamlets,http://www.thebricklanegallery.com/#,Brick Lane Gallery,6002804,E09000030,216 Brick Lane,NA,NA,Weavers,E05009335,-0.06980899237465095,533891.0001221001,51.52397044966269,182381.00012210011,Tower Hamlets,Commercial galleries,E09000030,11/27/2022
Tower Hamlets,http://www.espaciogallery.com/#,Espacio Gallery,6005162,E09000030,159 Bethnal Green Road,NA,NA,Weavers,E05009335,-0.06893947782928478,533948.0001221001,51.525098325496224,182508.00012210011,Tower Hamlets,Commercial galleries,E09000030,11/27/2022
Tower Hamlets,http://www.whitechapel.org/#,Whitechapel Gallery,6011122,E09000030,77-82 Whitechapel High Street,NA,NA,Spitalfields & Banglatown,E05009333,-0.06877652199914525,533987.0001221001,51.51566132969674,181459.00012210011,Tower Hamlets,Commercial galleries,E09000030,11/27/2022
Tower Hamlets,http://the-mews-about.blogspot.co.uk/#,The Mews Project Space,6015759,E09000030,15c Osborn Street,NA,NA,Spitalfields & Banglatown,E05009333,-0.06849180502799462,534006.0001221001,51.51591745593464,181488.00012210011,Tower Hamlets,Commercial galleries,E09000030,11/27/2022
Tower Hamlets,https://www.stolenspace.com/#,Stolenspace Gallery,6015771,E09000030,"17 Osborn St,",NA,NA,Spitalfields & Banglatown,E05009333,-0.06854752289717148,534002.0001221001,51.515963341775205,181493.00012210011,Tower Hamlets,Commercial galleries,E09000030,11/27/2022
Tower Hamlets,http://www.maureenpaley.com/#,Maureen Paley,6015931,E09000030,21 Herald Street,NA,NA,St. Peter's,E05009331,-0.054393816886146154,534957.9201049954,51.524744153072696,182495.3500976935,Tower Hamlets,Commercial galleries,E09000030,11/27/2022
Tower Hamlets,http://www.fourcornersfilm.co.uk/gallery#,Four Corners Gallery,6039056,E09000030,121 Roman Road,NA,NA,Bethnal Green,E05009317,-0.04740216859274455,535432.0501098931,51.52838558983192,182913.16009519994,Tower Hamlets,Commercial galleries,E09000030,11/27/2022
Tower Hamlets,http://www.arebyte.com/#,Arebyte,6077533,E09000030,Unit 4,49 White Post Lane,NA,Bow East,E05009319,-0.02190952089508721,537158.0001221001,51.542373797270294,184516.00012210011,Tower Hamlets,Commercial galleries,E09000030,11/27/2022
Tower Hamlets,http://prooflondon.com/#,Proof London,6089640,E09000030,26 Cheshire Street,NA,NA,Weavers,E05009335,-0.06880071044923837,533963.9600829929,51.52293990964904,182268.26007079333,Tower Hamlets,Commercial galleries,E09000030,11/27/2022
Tower Hamlets,http://vilmagold.com/#,Vilma Gold,6143359,E09000030,6 Minerva Street,NA,NA,St. Peter's,E05009331,-0.05811633989295439,534681.0001221001,51.531089246881265,183194.00012210011,Tower Hamlets,Commercial galleries,E09000030,11/27/2022
Tower Hamlets,http://www.modernart.net/#,Modern Art 2,6146632,E09000030,50-58 Vyner Street,NA,NA,St. Peter's,E05009331,-0.053171277632224,535015.0001221001,51.53411006887645,183539.00012210011,Tower Hamlets,Commercial galleries,E09000030,11/27/2022
Tower Hamlets,http://www.chisenhale.org.uk/#,Chisenhale Gallery,6146768,E09000030,64 Chisenhale Road,NA,NA,Bow West,E05009320,-0.03820519400578466,536057.4301147982,51.53256597028292,183395.04010009766,Tower Hamlets,Commercial galleries,E09000030,11/27/2022
Tower Hamlets,http://smokehousegallery.org/#,Forman's Smokehouse Gallery,6151026,E09000030,Stour Road,Fish Island,NA,Bow East,E05009319,-0.01961174556490397,537327.120117195,51.53911538471839,184158.01007079333,Tower Hamlets,Commercial galleries,E09000030,11/27/2022
Tower Hamlets,http://www.thealexandermilesgallery.com/,The Alexander Miles Gallery,6155400,E09000030,"Unit K, The Ivory House",St.Katharine Docks,NA,St. Katharine's & Wapping,E05009330,-0.06962201284443975,533954.0001221001,51.506915448464056,180485.00012210011,Tower Hamlets,Commercial galleries,E09000030,11/27/2022
Tower Hamlets,http://calvert22.org/#,Calvert 22,6159644,E09000030,22 Calvert Avenue,NA,NA,Weavers,E05009335,-0.07464558405501236,533550.8400878981,51.52557319898339,182550.37011719495,Tower Hamlets,Commercial galleries,E09000030,11/27/2022
Tower Hamlets,http://www.breeselittle.com/#,Breese Little,6161973,E09000030,Unit 1,249-253 Cambridge Heath Road,NA,St. Peter's,E05009331,-0.05396442457929886,534986.2901000977,51.52522169606039,182549.24011229724,Tower Hamlets,Commercial galleries,E09000030,11/27/2022
Tower Hamlets,http://publicexhibitions.biz/#,Public Exhibitions,6178041,E09000030,"Black Gates,",Hassard Street,NA,Weavers,E05009335,-0.07070540600129996,533810.7200927958,51.53014438548626,183065.84008789808,Tower Hamlets,Commercial galleries,E09000030,11/27/2022
Tower Hamlets,http://www.union-gallery.com/#,Union Gallery,6178788,E09000030,94 Teesdale Street,NA,NA,St. Peter's,E05009331,-0.05973298351893742,534574.1500854939,51.52930432704981,182992.5601195991,Tower Hamlets,Commercial galleries,E09000030,11/27/2022
Tower Hamlets,http://www.cellprojects.org/#,Cell Project Space,6180728,E09000030,258 Cambridge Heath Road,NA,NA,St. Peter's,E05009331,-0.05501570144038167,534891.0601195991,51.532769950912936,183386.59008789808,Tower Hamlets,Commercial galleries,E09000030,11/27/2022
Tower Hamlets,http://www.unit9.london/#,Unit 9,6210892,E09000030,The Huntingdon Estate,Ebor St / Bethnal Green Rd,NA,Weavers,E05009335,-0.07325729518658558,533653.0001221001,51.52356847709463,182330.00012210011,Tower Hamlets,Commercial galleries,E09000030,11/27/2022
Tower Hamlets,http://www.ravenrow.org/#,Raven Row,6653355,E09000030,56 Artillery Lane,NA,NA,Spitalfields & Banglatown,E05009333,-0.07526589104195985,533531.0001221001,51.51764768419692,181668.00012210011,Tower Hamlets,Commercial galleries,E09000030,11/27/2022
Tower Hamlets,,The Sundial Centre,6150974,E09000030,Sundial Centre,11 Shipton Street,London,Weavers,E05009335,-0.06860330927453444,533958.0001221001,51.52963456576429,183013.00012210011,Tower Hamlets,Community centres,E09000030,11/27/2022
Tower Hamlets,https://www.clarionhg.com/,Butley Court Senior Citizens Centre,6646862,E09000030,1 Butley Court, Ford Street,NA,Bow West,E05009320,-0.033075017650865714,536412.2401122972,51.53288521136985,183440.09008789808,Tower Hamlets,Community centres,E09000030,11/27/2022
Tower Hamlets,https://www.clarionhg.com/,Tredegar Community Centre,6075400,E09000030,333 Morville Street,NA,NA,Bow East,E05009319,-0.022573040578636776,537150.0001221001,51.52973090635503,183109.00012210011,Tower Hamlets,Community centres,E09000030,11/27/2022
Tower Hamlets,https://www.newlon.org.uk/residents/community-services/community-facilities/,Lascar Wharf Community Centre,6163883,E09000030,21 Parnham Street,Tower Hamlets,NA,St. Dunstan's,E05009329,-0.03360481509896949,536430.8900756985,51.51435159074501,181378.36010739952,Tower Hamlets,Community centres,E09000030,11/27/2022
Tower Hamlets,https://www.onehousing.co.uk/for-you/volunteering-and-community-involvement/community-centres/phoenix-heights-community-centre,Phoenix Heights Community Centre,6165218,E09000030,140 Byng Street,Tower Hamlets,NA,Canary Wharf,E05009323,-0.020173266543772824,537406.5300902948,51.499783429225225,179783.67010499537,Tower Hamlets,Community centres,E09000030,11/27/2022
Tower Hamlets,https://www.onehousing.co.uk/for-you/volunteering-and-community-involvement/community-centres/flower-and-dean-community-centre,Flower and Dean Community Centre,6001472,E09000030,41 Flower And Dean Walk,Tower Hamlets,NA,Spitalfields & Banglatown,E05009333,-0.07059782588650522,533856.0001221001,51.517247206504365,181632.00012210011,Tower Hamlets,Community centres,E09000030,11/27/2022
Tower Hamlets,http://www.eastendhomes.net/bede-cc,Bede Community Centre,6180742,E09000030,9 Bede Square,Tower Hamlets,NA,Mile End,E05009327,-0.028329818225129047,536779.6101073995,51.52010297341789,182027.70007319748,Tower Hamlets,Community centres,E09000030,11/27/2022
Tower Hamlets,http://www.eastendhomes.net/southern-grove,Southern Grove Community Centre,6176614,E09000030,14 Southern Grove,Tower Hamlets,NA,Mile End,E05009327,-0.029541950137562965,536685.2901000977,51.523521964404225,182405.59008789808,Tower Hamlets,Community centres,E09000030,11/27/2022
Tower Hamlets,http://www.eastendhomes.net/the-centre,The Centre,6159903,E09000030,30 Merchant Street,Tower Hamlets,NA,Bromley North,E05009321,-0.025351325883297433,536972.0001221001,51.52484019272359,182560.00012210011,Tower Hamlets,Community centres,E09000030,11/27/2022
Tower Hamlets,http://www.sthildas.org.uk/,St Hilda's East Community Centre,6005236,E09000030,18 Club Row,Tower Hamlets,NA,Weavers,E05009335,-0.07256645789759547,533698.0001221001,51.52456441039879,182442.00012210011,Tower Hamlets,Community centres,E09000030,11/27/2022
Tower Hamlets,http://www.towerhamletsarts.org.uk/?cat=6&cid=17672&guide=Venues,Brady Arts and Community Centre,6011121,E09000030,192-196 Hanbury Street,Tower Hamlets,NA,Spitalfields & Banglatown,E05009333,-0.06378110478349021,534324.0001221001,51.518906603473354,181829.00012210011,Tower Hamlets,Community centres,E09000030,11/27/2022
Tower Hamlets,,Francis Lee Community Centre,6056939,E09000030,10 Hawthorn Avenue,Tower Hamlets,NA,Bow East,E05009319,-0.02911975082141714,536677.0001221001,51.53606471326277,183801.00012210011,Tower Hamlets,Community centres,E09000030,11/27/2022
Tower Hamlets,http://www.cedarcentre.co.uk/,Cedar Centre,6063814,E09000030,17 Arden Crescent,Tower Hamlets,NA,Island Gardens,E05009324,-0.02101328212168325,537369.2901000977,51.49278062317068,179003.4600829929,Tower Hamlets,Community centres,E09000030,11/27/2022
Tower Hamlets,http://kingsley-hall.co.uk/,Kingsley Hall Community Centre,6071710,E09000030,1 Powis Road,Tower Hamlets,NA,Bromley North,E05009321,-0.01281016862409059,537838.0001221001,51.52611231962272,182725.00012210011,Tower Hamlets,Community centres,E09000030,11/27/2022
Tower Hamlets,,Saint John's Community Centre,6081722,E09000030,37-43 Glengall Grove,Tower Hamlets,NA,Blackwall & Cubitt Town,E05009318,-0.010485878235282358,538094.0001221001,51.494756818813684,179243.00012210011,Tower Hamlets,Community centres,E09000030,11/27/2022
Tower Hamlets,http://www.island-house.org/,Island House Community Centre,6081799,E09000030,Roserton Street,Tower Hamlets,NA,Blackwall & Cubitt Town,E05009318,-0.00842955879804655,538227.0001221001,51.49796864501855,179604.00012210011,Tower Hamlets,Community centres,E09000030,11/27/2022
Tower Hamlets,http://www.towerhamletsarts.org.uk/?cat=6&cid=17689&guide=Venues,Devons Estate TRA,6150927,E09000030,Powis Road,Tower Hamlets,NA,Bromley North,E05009321,-0.012604306780806276,537854.0001221001,51.52554222908986,182662.00012210011,Tower Hamlets,Community centres,E09000030,11/27/2022
Tower Hamlets,http://www.towerhamletsarts.org.uk/?cat=6&cid=17729&guide=Venues,Hind Grove Community Hall,6210828,E09000030,18 Stainsby Road,Tower Hamlets,NA,Mile End,E05009327,-0.023240411302642344,537156.0701293945,51.512304582270716,181170.13012699783,Tower Hamlets,Community centres,E09000030,11/27/2022
Tower Hamlets,http://www.thetabcentre.co.uk/,Tab Centre,6210895,E09000030,3 Godfrey Place,Tower Hamlets,NA,Weavers,E05009335,-0.07434515448291465,533567.7901000977,51.526901389242916,182698.6000976935,Tower Hamlets,Community centres,E09000030,11/27/2022
Tower Hamlets,http://www.towerhamletsarts.org.uk/?cat=6&cid=17672&guide=Venues,Brady Arts and Community Centre,6710343,E09000030,192-196 Hanbury Street,Tower Hamlets,NA,Spitalfields & Banglatown,E05009333,-0.06378110478349021,534324.0001221001,51.518906603473354,181829.00012210011,Tower Hamlets,Community centres,E09000030,11/27/2022
Tower Hamlets,https://www.poplarharca.co.uk/node/368/,Spotlight Centre,6352446,E09000030,35 Byron Street,Tower Hamlets,NA,Lansbury,E05009325,-0.009996009371491907,538067.0001221001,51.51493040659827,181487.00012210011,Tower Hamlets,Community centres,E09000030,11/27/2022
Tower Hamlets,https://www.poplarharca.co.uk/community/community-centres/st-pauls-way-centre,St Paul's Way Community Centre,6177479,E09000030,83 St Pauls Way,Tower Hamlets,NA,Mile End,E05009327,-0.0254199648177323,536989.0100707933,51.517585610213644,181753.24011229724,Tower Hamlets,Community centres,E09000030,11/27/2022
Tower Hamlets,,Teviot Centre,6152989,E09000030,Wyvis Street,Tower Hamlets,NA,Lansbury,E05009325,-0.01200833477301255,537917.7600707933,51.51812024709862,181837.88012699783,Tower Hamlets,Community centres,E09000030,11/27/2022
Tower Hamlets,https://www.poplarharca.co.uk/community/community-centres/linc-centre,Linc Centre,6116434,E09000030,70 Fern Street,Tower Hamlets,NA,Bromley South,E05009322,-0.018949404989945042,537428.0001221001,51.520864943164334,182130.00012210011,Tower Hamlets,Community centres,E09000030,11/27/2022
Tower Hamlets,https://www.bbbc.org.uk/,Bromley by Bow Centre,6070381,E09000030,1 Bruce Road,Tower Hamlets,NA,Bromley North,E05009321,-0.011603689875427805,537920.0001221001,51.52666746648847,182789.00012210011,Tower Hamlets,Community centres,E09000030,11/27/2022
Tower Hamlets,https://www.poplarharca.co.uk/community/community-centres/trussler-hall,Trussler Community Hall,6066080,E09000030,78 Grundy Street,Tower Hamlets,NA,Lansbury,E05009325,-0.014443580022599547,537769.0001221001,51.51143529743276,181090.00012210011,Tower Hamlets,Community centres,E09000030,11/27/2022
Tower Hamlets,http://www.thch.org.uk/join-in/supporting-the-comm/,St Peter’s North Community Centre,6137526,E09000030,1 Marian Place,Tower Hamlets,NA,St. Peter's,E05009331,-0.06052398727959221,534508.0001221001,51.53313466235229,183417.00012210011,Tower Hamlets,Community centres,E09000030,11/27/2022
Tower Hamlets,http://www.thch.org.uk/join-in/supporting-the-comm/,Hanbury Street Community Room,6015184,E09000030,Hanbury Street,Tower Hamlets,NA,Spitalfields & Banglatown,E05009333,-0.06523181942648092,534222.0001221001,51.51937123403546,181878.00012210011,Tower Hamlets,Community centres,E09000030,11/27/2022
Tower Hamlets,,Portsoken Health & Community Centre,6011151,E09000030,44-56 Hessel St, Whitechapel,NA,Whitechapel,E05009336,-0.061123871322688414,534526.0001221001,51.512908911996504,181167.00012210011,Tower Hamlets,Community centres,E09000030,11/27/2022
Tower Hamlets,,St John's TRA Office ,6127353,E09000030,Flat 4 Thorne House Launch Street London        ,NA,NA,Blackwall & Cubitt Town,E05009318,-0.011092399341692465,538048.8601073995,51.49576442308766,179353.8900756985,Tower Hamlets,Community centres,E09000030,11/27/2022
Tower Hamlets,https://www.onehousing.co.uk/for-you/volunteering-and-community-involvement/community-centres/virginia-quays-community-centre,Virginia Quays Community Centre,6008049,E09000030,Virginia Quays Community Centre,27-35 Sexton Court,9 Newport Avenue,Blackwall & Cubitt Town,E05009318,0.0007368035000631076,538831.0001221001,51.508542113930645,180797.00012210011,Tower Hamlets,Community centres,E09000030,11/27/2022
Tower Hamlets,http://www.societylinks.org.uk/page2.php,SocietyLinks,6137028,E09000030,Whitechapel Threshold Centre,80 John Fisher Street,London,Whitechapel,E05009336,-0.06786453964948545,534067.0001221001,51.50996232941898,180827.00012210011,Tower Hamlets,Community centres,E09000030,11/27/2022
Tower Hamlets,https://www.poplarharca.co.uk/community/community-centres/aberfeldy-centre,Aberfeldy Community Centre,6210893,E09000030,Aberfeldy Community Centre,Aberfeldy Street,London,Lansbury,E05009325,-0.004625042515458282,538444.0001221001,51.513481088987064,181336.00012210011,Tower Hamlets,Community centres,E09000030,11/27/2022
Tower Hamlets,https://poplarunion.com/,Poplar Union,6194894,E09000030,Poplar Union,2 Cotall Street,Poplar,Lansbury,E05009325,-0.021391170325462658,537276.0001221001,51.515087250934535,181483.00012210011,Tower Hamlets,Community centres,E09000030,11/27/2022
Tower Hamlets,https://www.poplarharca.co.uk/community/community-centres/cabin,The Cabin Community Centre,6084685,E09000030,The Brownfield Cabin,82 St. Leonards Road,London,Lansbury,E05009325,-0.007739048354420401,538229.0001221001,51.51313831178105,181292.00012210011,Tower Hamlets,Community centres,E09000030,11/27/2022
Tower Hamlets,https://www.shgroup.org.uk/media/233109/selby-street.pdf,Selby Street Community Centre,6017503,E09000030,Selby Street Community Centre,Selby Street,London,Spitalfields & Banglatown,E05009333,-0.06097204623054291,534512.0001221001,51.521234511154276,182093.00012210011,Tower Hamlets,Community centres,E09000030,11/27/2022
Tower Hamlets,https://www.shgroup.org.uk/media/233103/fieldgate-mansions.pdf,Fieldgate Mansion Community Centre,6012454,E09000030,Fieldgate Mansion Community Centre,15 Romford Street,London,Whitechapel,E05009336,-0.06147774561994901,534492.0001221001,51.51611649874028,181523.00012210011,Tower Hamlets,Community centres,E09000030,11/27/2022
Tower Hamlets,http://www.thch.org.uk/join-in/supporting-the-comm/,Tarling East Community Centre Main Hall,6168883,E09000030,Tarling East Community Centre;,63 Martha Street,London,Shadwell,E05009332,-0.053210508017409064,535078.4201049954,51.511756037881426,181053.3900756985,Tower Hamlets,Community centres,E09000030,11/27/2022
Tower Hamlets,http://www.thch.org.uk/join-in/supporting-the-comm/,Wodeham Gardens Community Room,6140257,E09000030,Wodeham Gardens Community Room,1 Wodeham Gardens,London,Spitalfields & Banglatown,E05009333,-0.06152733149455579,534480.0001221001,51.51902226328211,181846.00012210011,Tower Hamlets,Community centres,E09000030,11/27/2022
Tower Hamlets,http://www.thch.org.uk/join-in/supporting-the-comm/,Cable Street Pensioner’s Club Room,6025381,E09000030,Cable Street Pensioner’s Club Room,395 Cable Street,London,Shadwell,E05009332,-0.0478506215546338,535452.0001221001,51.51117776872905,180999.00012210011,Tower Hamlets,Community centres,E09000030,11/27/2022
Tower Hamlets,http://www.thch.org.uk/join-in/supporting-the-comm/,Zander Court Club Room,6020905,E09000030,Zander Court Club Room,50 Zander Court,London,St. Peter's,E05009331,-0.062225434848778904,534401.0001221001,51.52940345300747,182999.00012210011,Tower Hamlets,Community centres,E09000030,11/27/2022
Tower Hamlets,http://www.thch.org.uk/join-in/supporting-the-comm/,Minerva Community Centre Main Hall,10091975249,E09000030,Minerva Community Centre Main Hall,10 Minerva Street,London,St. Peter's,E05009331,-0.05808420451734274,534684.0001221001,51.53082789973774,183165.00012210011,Tower Hamlets,Community centres,E09000030,11/27/2022
Tower Hamlets,http://secondhome.io/,Second Home,6000144,E09000030,Second Home Spitafields,68-80 Hanbury Street,,Spitalfields & Banglatown,E05009333,-0.06884389058197943,533971.0001221001,51.519520705797355,181888.00012210011,Tower Hamlets,Creative co-working desk space,E09000030,11/27/2022
Tower Hamlets,http://www.ovalspace.co.uk/about/the-venues/11---12-the-oval/,Oval Space,6023236,E09000030,Oval Office,1-12 The Oval,,St. Peter's,E05009331,-0.0572140011020354,534739.0001221001,51.53263919388633,183368.00012210011,Tower Hamlets,Creative co-working desk space,E09000030,11/27/2022
Tower Hamlets,www.thetrampery.com,The Trampery,6083018,E09000030,The Trampery (Republic),Anchorage House,2 Clove Crescent,Poplar,E05009328,-0.003233376562354992,538552.0001221001,51.50970702070547,180919.00012210011,Tower Hamlets,Creative co-working desk space,E09000030,11/27/2022
Tower Hamlets,http://thecubelondon.com/,The Cube,6108348,E09000030,The Cube,155 Commercial Street,,Spitalfields & Banglatown,E05009333,-0.07444055687539515,533579.2700805962,51.520717687943936,182010.86010739952,Tower Hamlets,Creative co-working desk space,E09000030,11/27/2022
Tower Hamlets,https://www.klusterrooms.com,Kluster Rooms,6025305,E09000030,Kluster Rooms,566 Cable Street,,,,-0.04159607983532596,535887.0001221001,51.51082165819457,180971.00012210011,Tower Hamlets,Creative workspaces,E09000030,11/27/2022
Tower Hamlets,http://www.fourcornersfilm.co.uk/home,Four Corners,6039056,E09000030,Four Corners,121 Roman Road,,,,-0.04740216859274455,535432.0501098931,51.52838558983192,182913.16009519994,Tower Hamlets,Creative workspaces,E09000030,11/27/2022
Tower Hamlets,www.limehousetownhall.co.uk/,Limehouse Town Hall Consortium Trust,6044870,E09000030,Limehouse Town Hall,646 Commercial Rd,,,,-0.029804024844119283,536702.8001098931,51.511602732389484,181079.8101195991,Tower Hamlets,Creative workspaces,E09000030,11/27/2022
Tower Hamlets,www.arbeit.org.uk / www.arebyte.com,Arbeit / Arebyte,6077533,E09000030,White Post Lane,49 White Post Lane Unit 4,Hackney Wick,,,-0.02190952089508721,537158.0001221001,51.542373797270294,184516.00012210011,Tower Hamlets,Creative workspaces,E09000030,11/27/2022
Tower Hamlets,www.arbeit.org.uk / www.arebyte.com,Arbeit / Arebyte,6128963,E09000030,Poplar E14,Baring House,Canton Street,,,-0.02375567938710467,537123.0001221001,51.5114127287677,181070.00012210011,Tower Hamlets,Creative workspaces,E09000030,11/27/2022
Tower Hamlets,www.trinitybuoywharf.com,Urban Space Management (Tbw) Ltd,6130647,E09000030,Urban Space Management (Tbw) Ltd,Trinity Buoy Wharf,64 Orchard Place,,,0.010337417151431117,539499.0001221001,51.50792822535463,180747.00012210011,Tower Hamlets,Creative workspaces,E09000030,11/27/2022
Tower Hamlets,http://www.mowlemstudios.com/artist-studios,Mowlem Studios,6146334,E09000030,Mowlem Studios,3-7 Mowlem Street,,,,-0.053865819810295174,534971.2700805962,51.53261147541341,183371.09008789808,Tower Hamlets,Creative workspaces,E09000030,11/27/2022
Tower Hamlets,http://swanwharfproject.co.uk/contact/,The Hive,6151658,E09000030,Swan Wharf,60 Dace Road,,,,-0.020022508122071823,537304.3300780952,51.537224567789565,183947.00012210011,Tower Hamlets,Creative workspaces,E09000030,11/27/2022
Tower Hamlets,https://www.thenest.space/,The Nest,6160107,E09000030,The Nest,The Nest,2-4 Sampson St - Wapping,,,-0.06203088406397279,534490.3900756985,51.503632655218325,180133.91009519994,Tower Hamlets,Creative workspaces,E09000030,11/27/2022
Tower Hamlets,www.stourspace.co.uk,Stour Space,6172062,E09000030,Stour Space,Stour Space,7 Roach Road,,,-0.01950149323213986,537333.0701293945,51.53967823530686,184220.80010989308,Tower Hamlets,Creative workspaces,E09000030,11/27/2022
Hackney,http://www.crownworkshop.co.uk/about/,Crown Workshop,6187732,E09000030,Crown Workshop,1-2 Crown Works,Temple Street,,,-0.05895023747167082,534626.4301147982,51.529984063735505,183069.5800780952,Tower Hamlets,Creative workspaces,E09000030,11/27/2022
Tower Hamlets,http://www.containercity.com/projects/clipper-house,Container City,6355966,E09000030,Urban Space Management,64 Orchard Place,,,,0.010337417151431117,539499.0001221001,51.50792822535463,180747.00012210011,Tower Hamlets,Creative workspaces,E09000030,11/27/2022
Tower Hamlets,www.themillcoproject.co.uk,The Mill Co. Project,6356200,E09000030,Ratcliffe Cross Street,1-9 Ratcliffe Cross Street,,,,-0.04110576779152192,535917.0001221001,51.51217151283754,181122.00012210011,Tower Hamlets,Creative workspaces,E09000030,11/27/2022
Tower Hamlets,www.arbeit.org.uk / www.arebyte.com,Arbeit / Arebyte,6704073,E09000030,Albeit London City Island,18 Botanic Square,Leamouth Peninsula,,,0.0075192110455284894,539295.0001221001,51.51070160857371,181050.00012210011,Tower Hamlets,Creative workspaces,E09000030,11/27/2022
Tower Hamlets,http://www.towerhamletsarts.org.uk/?s=3&v=15&guide=AllAges,Brady Arts & Community Centre,6011121,E09000030,192-196 Hanbury Street,,,Spitalfields & Banglatown,E05009333,-0.06536854289329683,534100.7210158528,51.51941798875198,181936.81199790363,Tower Hamlets,Dance performance venues,E09000030,11/27/2022
Tower Hamlets,https://www.richmix.org.uk,Rich Mix,6150258,E09000030,35-47 Bethnal Green Road,,,Weavers,E05009335,-0.07327520292405387,533537.8487533755,51.52435933520294,182471.72356113477,Tower Hamlets,Dance performance venues,E09000030,11/27/2022
Tower Hamlets,https://poplarunion.com,Poplar Union,6194894,E09000030,2 Cotall St,,,Lansbury,E05009325,-0.022982609701648768,537052.0760375387,51.515599733128866,181590.9115676905,Tower Hamlets,Dance performance venues,E09000030,11/27/2022
Tower Hamlets,http://www.wiltons.org.uk,Wilton's Music Hall,6006845,E09000030,1 Graces Alley,,,Whitechapel,E05009336,-0.06693794829680935,534017.7196860514,51.51061305202626,180955.02048521588,Tower Hamlets,Dance performance venues,E09000030,11/27/2022
Tower Hamlets,http://www.space.org.uk,The Space,6060149,E09000030,269 West Ferry Road,,,Island Gardens,E05009324,-0.024198972590448294,537038.0064163918,51.49216667255609,178983.36308824475,Tower Hamlets,Dance performance venues,E09000030,11/27/2022
Tower Hamlets,http://www.chisenhaledancespace.co.uk,Chisenhale Dance Space,6719953,E09000030,64-84 Chisenhale Road,,London,Bow West,E05009320,-0.03970815386188454,535839.8205948127,51.533088028168955,183503.96750822215,Tower Hamlets,Dance performance venues,E09000030,11/27/2022
Tower Hamlets,http://www.oxfordhouse.org.uk,Oxford House Theatre,6089004,E09000030,87 Derbyshire Street,,,St. Peter's,E05009331,-0.06148404706213619,534349.6853817301,51.526368052162184,182716.6300953008,Tower Hamlets,Dance performance venues,E09000030,11/27/2022
Tower Hamlets,http://www.toynbeehall.org.uk,Toynbee Studios,6722403,E09000030,28 Commercial Street,,,Spitalfields & Banglatown,E05009333,-0.07223015380506652,533632.8129262736,51.51668037281242,181619.89620034263,Tower Hamlets,Dance performance venues,E09000030,11/27/2022
Tower Hamlets,http://www.halfmoon.org.uk,Half Moon Young People's Theatre,6044554,E09000030,43 White Horse Road,,,St. Dunstan's,E05009329,-0.04121519746678603,535794.3437658597,51.513252692179016,181295.9402879554,Tower Hamlets,Dance performance venues,E09000030,11/27/2022
Tower Hamlets,http://www.towerhamletsarts.org.uk/?cat=29&cid=29241&guide=Organisations,Hatstand Circus Rehearsal Space,6042557,E09000030,98 Milligan Street,,,Limehouse,E05009326,-0.027293525894389263,536773.1170326784,51.50890064499954,180838.03794065095,Tower Hamlets,Dance rehearsal studios,E09000030,11/27/2022
Tower Hamlets,https://ovalspace.co.uk,Oval Space,6155537,E09000030,29-32 The Oval,,,St. Peter's,E05009331,-0.059389597841457455,534474.6767420365,51.53323962408982,183484.43318032753,Tower Hamlets,Dance rehearsal studios,E09000030,11/27/2022
Tower Hamlets,http://cablestdance.com,Cable Street Dance Studios,6717530,E09000030,566 Cable Street,,,Shadwell,E05009332,-0.04299673556440008,535676.3645261751,51.51136697502305,181082.9825607377,Tower Hamlets,Dance rehearsal studios,E09000030,11/27/2022
Newham,http://www.3mills.com,3 Mills Studios,10009018097,E09000025,3 Mill Lane,,,Stratford and New Town,E05000492,-0.006276453217477573,538176.8364805358,51.52684581115217,182872.68596962286,Tower Hamlets,Dance rehearsal studios,E09000030,11/27/2022
Tower Hamlets,https://hirespace.com/Spaces/London/139397/Club-Baltimore/Yoga-Studio/Other,Club Baltimore,,E09000030,35 Harbour Exchange Square,,,Blackwall & Cubitt Town,E05009318,-0.015913615981072538,537598.8918254717,51.49685588035953,179520.2476712105,Tower Hamlets,Dance rehearsal studios,E09000030,11/27/2022
Tower Hamlets,https://www.cardboardcitizens.org.uk/hire-our-space,Cardboard Citizens,6011593,E09000030,77A Greenfield Road,,,Whitechapel,E05009336,-0.06565537540851131,534089.7166582434,51.51639218890011,181599.88326609944,Tower Hamlets,Dance rehearsal studios,E09000030,11/27/2022
Tower Hamlets,https://www.tagvenue.com/rooms/london/5518/haileybury-centre/dance-studio,Haileybury Centre,6702177,E09000030,Ben Jonson Road ,,,St. Dunstan's,E05009329,-0.04249879862060709,535692.3775390509,51.517599621628456,181776.83658485173,Tower Hamlets,Dance rehearsal studios,E09000030,11/27/2022
Tower Hamlets,,English National Ballet ,,,City Island,,,,,0.0050914866501612,539010.6060239244,51.51193047568182,181235.9561236601,Tower Hamlets,Dance rehearsal studios,E09000030,11/27/2022
Tower Hamlets,https://www.richmix.org.uk,Rich Mix,6150258,E09000030,35-47 Bethnal Green Road,,,Weavers,E05009335,-0.07327520292405387,533537.8487533755,51.52435933520294,182471.72356113477,Tower Hamlets,Dance rehearsal studios,E09000030,11/27/2022
Tower Hamlets,https://poplarunion.com,Poplar Union,6194894,E09000030,2 Cotall St,,,Lansbury,E05009325,-0.022982609701648768,537052.0760375387,51.515599733128866,181590.9115676905,Tower Hamlets,Dance rehearsal studios,E09000030,11/27/2022
Tower Hamlets,http://www.wiltons.org.uk,Wilton's Music Hall,6006845,E09000030,1 Graces Alley,,,Whitechapel,E05009336,-0.06693794829680935,534017.7196860514,51.51061305202626,180955.02048521588,Tower Hamlets,Dance rehearsal studios,E09000030,11/27/2022
Tower Hamlets,http://www.space.org.uk,The Space,6060149,E09000030,269 West Ferry Road,,,Island Gardens,E05009324,-0.024198972590448294,537038.0064163918,51.49216667255609,178983.36308824475,Tower Hamlets,Dance rehearsal studios,E09000030,11/27/2022
Tower Hamlets,http://www.chisenhaledancespace.co.uk,Chisenhale Dance Space,6719953,E09000030,64-84 Chisenhale Road,,London,Bow West,E05009320,-0.03970815386188454,535839.8205948127,51.533088028168955,183503.96750822215,Tower Hamlets,Dance rehearsal studios,E09000030,11/27/2022
Tower Hamlets,http://www.oxfordhouse.org.uk,Oxford House Theatre,6089004,E09000030,87 Derbyshire Street,,,St. Peter's,E05009331,-0.06148404706213619,534349.6853817301,51.526368052162184,182716.6300953008,Tower Hamlets,Dance rehearsal studios,E09000030,11/27/2022
Tower Hamlets,http://www.toynbeehall.org.uk,Toynbee Studios,6722403,E09000030,28 Commercial Street,,,Spitalfields & Banglatown,E05009333,-0.07223015380506652,533632.8129262736,51.51668037281242,181619.89620034263,Tower Hamlets,Dance rehearsal studios,E09000030,11/27/2022
Tower Hamlets,http://www.halfmoon.org.uk,Half Moon Young People's Theatre,6044554,E09000030,43 White Horse Road,,,St. Dunstan's,E05009329,-0.04121519746678603,535794.3437658597,51.513252692179016,181295.9402879554,Tower Hamlets,Dance rehearsal studios,E09000030,11/27/2022
,,ONYX Dance Studio,,,2 Hague Street London,London,E2 6HN,,,-0.06331195705280454,534222.968466519,51.52635162593339,182711.44897597795,Tower Hamlets,Dance rehearsal studios,E09000030,11/27/2022
Tower Hamlets,http://www.denimstudio.com/,The Denim Studio,6049885,E09000030,37 Potia Way,,,Mile End,E05009327,-0.0324560374346667,536378.2384521873,51.52119057489337,182194.76103421836,Tower Hamlets,Fashion and design,E09000030,11/27/2022
Tower Hamlets,http://www.maeslondon.com/,MAES London,6713918,E09000030,202 Riverbank Business Park,1 Dye House Lane,455 Wick Lane,Bow East,E05009319,-0.02036240403994123,537176.0790481172,51.53480001716644,183730.4675820428,Tower Hamlets,Fashion and design,E09000030,11/27/2022
Tower Hamlets,http://www.fashionsampleproduction.co.uk/,Apollo Star,6011340,E09000030,Unit 24 Whitechapel Technology Centre,65 Whitechapel Road,,Spitalfields & Banglatown,E05009333,-0.06782789276717634,533936.7505727642,51.51716541899996,181681.87105449208,Tower Hamlets,Fashion and design,E09000030,11/27/2022
Tower Hamlets,http://www.dorelpatterncuttingsampling.co.uk/,Dorel Pattern Cutting & Sampling,6360818,E09000030,The Truman Brewery,91 Brick Lane,,Spitalfields & Banglatown,E05009333,-0.07232214458164565,533612.1974108324,51.52154162906652,182160.19499453576,Tower Hamlets,Fashion and design,E09000030,11/27/2022
Tower Hamlets,https://www.istitutomarangoni.com/landing_pages/en/schools/?int_cmp=SRC_ALL_F_000000_Google_UK_EN_Brand-Fashion_SRC&gclid=EAIaIQobChMIprjjt-Dj3wIVRrDtCh25fghuEAAYASAAEgJL8vD_BwE&gclsrc=aw.ds&utm_expid=.9urys7PHSgC48VdVmjhyRg.0&utm_referrer=https%3A%2F%2Fwww.google.co.uk%2F,Istituto Marangoni ,6362125,E09000030,30 Fashion St,,,Spitalfields & Banglatown,E05009333,-0.07264614642365198,533599.2433108289,51.518290703660725,181798.1706319297,Tower Hamlets,Fashion and design,E09000030,11/27/2022
Tower Hamlets,http://www.thesamplingstudio.com/,The Sampling Studio,6360818,E09000030,Studio 58A The Truman Brewery,91 Brick Lane,,Spitalfields & Banglatown,E05009333,-0.07232214458164565,533612.1974108324,51.52154162906652,182160.19499453576,Tower Hamlets,Fashion and design,E09000030,11/27/2022
Tower Hamlets,http://www.alma1938.com/,Alma 1938,6146829,E09000030,12-14 Greatorex Street,,,Spitalfields & Banglatown,E05009333,-0.06707535507970508,533986.7416660875,51.51791739144057,181766.85168068565,Tower Hamlets,Fashion and design,E09000030,11/27/2022
Tower Hamlets,http://www.thewhitechapelworkhouse.com/,The Whitechapel Workhouse,6011677,E09000030,2nd Floor,132 Whitechapel Road ,,Whitechapel,E05009336,-0.06329359145302592,534248.6567986577,51.51805271879461,181788.82969214232,Tower Hamlets,Fashion and design,E09000030,11/27/2022
Tower Hamlets,http://www.studio6works.com/,Studio 6 Works Ltd,6068860,E09000030,10 Colmans Wharf ,45 Morris Road,,Lansbury,E05009325,-0.016220275263482166,537512.7024063256,51.51840287569097,181915.26370587572,Tower Hamlets,Fashion and design,E09000030,11/27/2022
Tower Hamlets,http://www.richmondwear.co.uk/,Richmond Wear,6027696,E09000030,10-12 Ratcliffe Cross Street,,,Shadwell,E05009332,-0.04315650227804216,535661.3712602609,51.51268258057192,181228.95209406712,Tower Hamlets,Fashion and design,E09000030,11/27/2022
Tower Hamlets,http://www.cutmaketrimlondon.co.uk/,CMT London,6010968,E09000030,Unit 10,100 The Highway,,St. Katharine's & Wapping,E05009330,-0.06163935685710424,534389.6372037276,51.50914068959998,180801.0467601224,Tower Hamlets,Fashion and design,E09000030,11/27/2022
Tower Hamlets,http://www.echo3world.com/,Echo3,6182371,E09000030,455 Robeson Street,,,Mile End,E05009327,-0.027938775885807673,536694.1668790738,51.52031441019605,182105.79366306838,Tower Hamlets,Fashion and design,E09000030,11/27/2022
Tower Hamlets,http://wear-well.co.uk/,Wearwell London,6187558,E09000030,Unit 8,1-11 Assembly Passage,,Stepney Green,E05009334,-0.051154210362932544,535083.7766799515,51.520382397052465,182070.18538815103,Tower Hamlets,Fashion and design,E09000030,11/27/2022
Tower Hamlets,http://theretailplace.co.uk/shopping/23910/classic-cuts,Classic Cuts,6356102,E09000030,Unit 2B,17 Plumbers Row,,Whitechapel,E05009336,-0.06613581791419045,534056.6833945485,51.516292563044516,181587.92680363817,Tower Hamlets,Fashion and design,E09000030,11/27/2022
Tower Hamlets,http://www.heba.org.uk,Heba Womens Project,6002791,E09000030,164 Brick Lane,,,Spitalfields & Banglatown,E05009333,-0.07147425347921751,533668.8172013974,51.522288370178984,182244.76503860747,Tower Hamlets,Fashion and design,E09000030,11/27/2022
Tower Hamlets,http://www.crossspotstudio.london/,Cross Spot Studio,6012752,E09000030,Unit 302 E1 Studios,7 Whitechapel Road,,Spitalfields & Banglatown,E05009333,-0.06949010445701471,533823.7724524788,51.51637447619332,181590.8943536179,Tower Hamlets,Fashion and design,E09000030,11/27/2022
Tower Hamlets,http://appareltasker.com/,ApparelTasker,6196449,E09000030,Studio 12,5 Empson Street,,Bromley South,E05009322,-0.011427689584131472,537833.7952079502,51.522151671114436,182341.075045324,Tower Hamlets,Fashion and design,E09000030,11/27/2022
Tower Hamlets,https://www.ideastore.co.uk/learning-fashion-course-outlines,Fashion and Textiles Programmes Ideas Store Bow ,6053810,E09000030,1 Gladstone Place,Roman Road,,Bow East,E05009319,-0.02990377657266138,536521.2275192841,51.532559449139534,183463.48379474593,Tower Hamlets,Fashion and design,E09000030,11/27/2022
Tower Hamlets,https://www.fashionrider.com/supplier/needle-n-thread-studio-ltd/,Needle N Thread Studio,6135042,E09000030,138 Cambridge Heath Road,,,Bethnal Green,E05009317,-0.0546453620532018,534830.5796742595,51.524123477353335,182479.6665882882,Tower Hamlets,Fashion and design,E09000030,11/27/2022
Tower Hamlets,https://londonundercover.co.uk,London undercover,6000283,E09000030,20 Hanbury Street,,,Spitalfields & Banglatown,E05009333,-0.07307524463192863,533563.8347091851,51.52021940944014,182011.81781126774,Tower Hamlets,Fashion and design,E09000030,11/27/2022
Tower Hamlets,,David Issacharoff Ltd,6180202,E09000030,Floor 6,Quadrant House,,St. Katharine's & Wapping,E05009330,-0.06561294701933287,534232.0001221001,51.50697529366456,180499.00012210011,Tower Hamlets,Jewellery design,E09000030,11/27/2022
Tower Hamlets,,Gary Holder Limited,10091774808,E09000030,336 Hackney Road,,,Weavers,E05009335,-0.06459735138949604,534233.0001221001,51.53059380095088,183127.00012210011,Tower Hamlets,Jewellery design,E09000030,11/27/2022
Tower Hamlets,,Lavask Limited,6187566,E09000030,Unit E,23 Heneage Street,,Spitalfields & Banglatown,E05009333,-0.06881706695979056,533975.0001221001,51.51879178034046,181807.00012210011,Tower Hamlets,Jewellery design,E09000030,11/27/2022
Tower Hamlets,,Philippe Pfeiffer Jewellery Limited,6196254,E09000030,52 Artillery Lane,,,Spitalfields & Banglatown,E05009333,-0.0754554346014185,533518.0001221001,51.51759683318279,181662.00012210011,Tower Hamlets,Jewellery design,E09000030,11/27/2022
Tower Hamlets,,Ro Copenhagen Ltd,6180202,E09000030,"Quadrant House, Floor 6",4 Thomas More Square,,St. Katharine's & Wapping,E05009330,-0.06561294701933287,534232.0001221001,51.50697529366456,180499.00012210011,Tower Hamlets,Jewellery design,E09000030,11/27/2022
Tower Hamlets,,Tomasz Donocik Limited,6005014,E09000030,22 Sunbury Workshops,Swanfield Street,,Weavers,E05009335,-0.07246134206133546,533700.0001221001,51.52637039916201,182643.00012210011,Tower Hamlets,Jewellery design,E09000030,11/27/2022
Tower Hamlets,,With Love Darling Ltd,6178145,E09000030,Suite 201 1 Alie Street,,,Whitechapel,E05009336,-0.07112203569798034,533832.0001221001,51.513028824020104,181162.00012210011,Tower Hamlets,Jewellery design,E09000030,11/27/2022
Tower Hamlets,,Mile End Skate Park ,,E09000030,,,,Mile End,E05009327,-0.03266232953710073,536374.0243515365,51.51781264828193,181818.82912543393,Tower Hamlets,Legal street art walls,E09000030,11/27/2022
Tower Hamlets,,The White Swan,,E09000030,556 Commercial Road,,,Stepney Green,E05009334,-0.04179298884004737,535754.6662582463,51.51311703719505,181279.78528626554,Tower Hamlets,LGBT+ night time venues,E09000030,11/27/2022
Tower Hamlets,http://www.thebackstreet.com/,The Backstreet,,E09000030,Wentworth Mews,Burdett Road,,Bow West,E05009320,-0.03579233135275791,536135.4255474856,51.52501715255094,182613.96588396403,Tower Hamlets,LGBT+ night time venues,E09000030,11/27/2022
Tower Hamlets,,Rich Mix (Regular LGBTQ+ Programming),,,35-47 Bethnal Green Road,,,,,-0.07316521989719735,533545.3799577348,51.5243922862973,182475.5877355915,Tower Hamlets,LGBT+ night time venues,E09000030,11/27/2022
Hackney,,Star of Bethnal Green (Regular LGBTQ+ Programming),,,359 Bethnal Green Rd,,,,,-0.062061417006912985,534308.2425741451,51.52684440901974,182768.5295903639,Tower Hamlets,LGBT+ night time venues,E09000030,11/27/2022
Tower Hamlets,,The Old Ship (Regular LGBTQ+ Programming),,,17 Barnes Street,,,,,-0.039875405699499586,535886.3559358027,51.51356447420017,181333.09328906809,Tower Hamlets,LGBT+ night time venues,E09000030,11/27/2022
,www.workersplaytime.net,Bethnal Green Working Men’s Club (Regular LGBTQ+ Programming),,,42-44 Pollard Row,,,,,-0.06394085643572017,534174.1916096297,51.52810709446898,182905.46180121653,Tower Hamlets,LGBT+ night time venues,E09000030,11/27/2022
Tower Hamlets,,Cubitt Town library,6081796,E09000030,Strattondale Street,,,Blackwall & Cubitt Town,E05009318,-0.010181399406308892,538113.0001221001,51.49546215657028,179322.00012210011,Tower Hamlets,Libraries,E09000030,11/27/2022
Tower Hamlets,,Idea Store Canary Wharf,6145802,E09000030,Churchill Place,,,Canary Wharf,E05009323,-0.013173490727742574,537879.8500976935,51.503905656493366,180255.18011479825,Tower Hamlets,Libraries,E09000030,11/27/2022
Tower Hamlets,,Idea Store Chrisp Street,6173963,E09000030,Vesey Path,,,Lansbury,E05009325,-0.012858141987066543,537880.1600952,51.511050042114036,181050.15008549392,Tower Hamlets,Libraries,E09000030,11/27/2022
Tower Hamlets,,Idea Store Watney Market,6196250,E09000030,Commercial Road,,,Shadwell,E05009332,-0.05565079483755291,534903.0001221001,51.5138255826647,181279.00012210011,Tower Hamlets,Libraries,E09000030,11/27/2022
Tower Hamlets,,Idea Store Whitechapel,6000711,E09000030,Whitechapel Road,,,Spitalfields & Banglatown,E05009333,-0.05642797094463528,534833.0001221001,51.519270627421115,181883.00012210011,Tower Hamlets,Libraries,E09000030,11/27/2022
Tower Hamlets,,Local History Library,6033654,E09000030,Bancroft Road,,,Bethnal Green,E05009317,-0.0407575146459102,535908.0001221001,51.52330884228447,182361.00012210011,Tower Hamlets,Libraries,E09000030,11/27/2022
Tower Hamlets,,Bethnal Green library,6036905,E09000030,Cambridge Heath Road,,,Bethnal Green,E05009317,-0.052150698123345135,535110.0001221001,51.52592690651321,182631.00012210011,Tower Hamlets,Libraries,E09000030,11/27/2022
Tower Hamlets,,Idea Store Bow,6053810,E09000030,Gladstone Place,,,Bow East,E05009319,-0.028312672679151996,536745.0001221001,51.53204897207915,183356.00012210011,Tower Hamlets,Libraries,E09000030,11/27/2022
Tower Hamlets,www.bowarts.org,Bow Arts,6070835,E09000030,Bow Road Studios,181-183 Bow Road, ,Bow East,E05009319,-0.01767529656588414,537380.029922601,51.528945386257185,183084.61682831257,Tower Hamlets,Live in artists' workspace,E09000030,11/27/2022
Tower Hamlets,www.acme.org.uk,ACME,6169874,E09000030,Fire Station,The Fire Station,30 Gillender Street,Lansbury,E05009325,-0.009800423289793036,537954.2329676568,51.51964493884304,182065.45073645626,Tower Hamlets,Live in artists' workspace,E09000030,11/27/2022
Tower Hamlets,www.craftcentral.org.uk,Craft Central,6653025,E09000030,The Forge,397-411 Westferry Road,,Island Gardens,E05009324,-0.019150990920745826,537398.4830065026,51.48879391741245,178617.84940136643,Tower Hamlets,Makerspaces,E09000030,11/27/2022
Tower Hamlets,https://fab.pub/about/,Fabpub,6716682,E09000030,Fabpub,1-2 Gossamer Gardens,,St. Peter's,E05009331,-0.05838647972585123,534545.6612330416,51.53275539724444,183432.4429245536,Tower Hamlets,Makerspaces,E09000030,11/27/2022
Tower Hamlets,http://londonbookarts.tumblr.com/,London Centre For Book Arts,6180045,E09000030,London Centre For Book Arts,"Unit 18, Ground Floor Britannia Works",Dace Road,Bow East,E05009319,-0.02275421365596882,537001.2782536562,51.53778210662961,184057.51869262132,Tower Hamlets,Makerspaces,E09000030,11/27/2022
Tower Hamlets,http://www.no-w-here.org.uk/,No.w.here,6018579,E09000030,No.w.here,316-318 Bethnal Green Rd,,St. Peter's,E05009331,-0.06397987687603852,534176.6412987466,51.52635401296022,182710.48925855744,Tower Hamlets,Makerspaces,E09000030,11/27/2022
Tower Hamlets,www.swanwharf.org/,Swan Wharf Workshop,6151658,E09000030,Swan Wharf Workshop,60 Dace Road,Hackney,Bow East,E05009319,-0.02161462094256665,537080.4302342408,51.53773476498154,184054.39436327125,Tower Hamlets,Makerspaces,E09000030,11/27/2022
Tower Hamlets,https://www.oxfordhouse.org.uk/the-carpentry-club-at-oxford-house/,The Carpentry Club,6089004,E09000030,The Carpentry Club,Oxford House,Derbyshire Street,St. Peter's,E05009331,-0.06148404706213619,534349.6853817301,51.526368052162184,182716.6300953008,Tower Hamlets,Makerspaces,E09000030,11/27/2022
Tower Hamlets,https://www.abfineart.com,AB Fine Art Foundry,6068859,E09000030,1 Fawe Street,,,Lansbury,E05009325,-0.013976255370666348,537784.2401122972,51.51712857938136,181723.91009519994,Tower Hamlets,Making and manufacturing,E09000030,11/27/2022
Tower Hamlets,http://www.museumofchildhood.org.uk/,V&A Museum of Childhood,6039165,E09000030,Cambridge Heath Road,NA,NA,Bethnal Green,E05009317,-0.05329337508357474,535023.0001221001,51.52854503938148,182920.00012210011,Tower Hamlets,Museums and public galleries,E09000030,11/27/2022
Tower Hamlets,http://www.raggedschoolmuseum.org.uk/,Ragged School Museum,6048400,E09000030,46-50 Copperfield Road,NA,NA,Mile End,E05009327,-0.0340738198414025,536387.0001221001,51.51815154635616,181800.00012210011,Tower Hamlets,Museums and public galleries,E09000030,11/27/2022
Tower Hamlets,www.​hrp.​org.​uk/​TowerOfLondon/​,The Tower of London,6086565,E09000030,St Katharine's & Wapping,London,NA,St. Katharine's & Wapping,E05009330,-0.07465930400869981,533602.0001221001,51.50776272309512,180570.00012210011,Tower Hamlets,Museums and public galleries,E09000030,11/27/2022
Tower Hamlets,https://royalarmouries.org/visit-us/tower-of-london,"Royal Armouries, Tower of London",6086565,E09000030,HM Tower Of London,St Katharine's & Wapping,NA,St. Katharine's & Wapping,E05009330,-0.07465930400869981,533602.0001221001,51.50776272309512,180570.00012210011,Tower Hamlets,Museums and public galleries,E09000030,11/27/2022
Tower Hamlets,www.​fusiliermuseumlondon.​org,The Fusilier Museum London,6086845,E09000030,HM Tower of London,35 Tower Hill,St Katharine's & Wapping,St. Katharine's & Wapping,E05009330,-0.07360225196610123,533675.0001221001,51.50788026723918,180585.00012210011,Tower Hamlets,Museums and public galleries,E09000030,11/27/2022
Tower Hamlets,NA,Royal London Hospital Archives and Museum,6118397,E09000030,Church of St Augustine with St Philip,Newark Street,NA,Whitechapel,E05009336,-0.05887062968323298,534671.0001221001,51.51674789657725,181598.00012210011,Tower Hamlets,Museums and public galleries,E09000030,11/27/2022
Tower Hamlets,www.​rpsgb.​org/​museum,Museum of the Royal Pharmaceutical Society,6136082,E09000030,1 Lambeth High Street,NA,NA,Whitechapel,E05009336,-0.06668411283682348,534153.0001221001,51.50856684674658,180674.00012210011,Tower Hamlets,Museums and public galleries,E09000030,11/27/2022
Tower Hamlets,http://www.museumoflondon.org.uk/docklands,Museum of London Docklands,6151122,E09000030,No. 1 Warehouse,West India Quay,NA,Canary Wharf,E05009323,-0.02224143220070886,537241.0001221001,51.50710620026317,180594.00012210011,Tower Hamlets,Museums and public galleries,E09000030,11/27/2022
Tower Hamlets,http://www.londonmet.ac.uk/tuc,Trades Union Congress (TUC) Library Collections,6151239,E09000030,Special Collections  London Metropolitan University,Wash Houses,Old Castle Street,Spitalfields & Banglatown,E05009333,-0.07241146334830463,533736.0001221001,51.515262458673654,181408.00012210011,Tower Hamlets,Museums and public galleries,E09000030,11/27/2022
Tower Hamlets,,Hak Attack Records Ltd,6062351,E09000030,135 Mellish Street,Tower Hamlets,,Canary Wharf,E05009323,-0.018774166993715053,537514.000122197,51.496336159514826,179403.00012149662,Tower Hamlets,Music (office based businesses),E09000030,11/27/2022
Tower Hamlets,,Burr Production Management Ltd,6007898,E09000030,18 Burr Close,Tower Hamlets,,St. Katharine's & Wapping,E05009330,-0.06851551623849647,534035.000122197,51.5054762322393,180327.00012159348,Tower Hamlets,Music (office based businesses),E09000030,11/27/2022
Tower Hamlets,,Forwind Publishing Ltd,6187755,E09000030,11 West India Dock Road,Tower Hamlets,,Poplar,E05009328,-0.02580981755129931,536982.000122197,51.51090770744801,181010.00012149662,Tower Hamlets,Music (office based businesses),E09000030,11/27/2022
Tower Hamlets,,Flow 2 The Floor Records Ltd,6085264,E09000030,4 Adderley Street,Tower Hamlets,,Lansbury,E05009325,-0.008573281431619248,538175.000122197,51.511857387813805,181148.00012149662,Tower Hamlets,Music (office based businesses),E09000030,11/27/2022
Tower Hamlets,www.therecordlabel.co.uk,The Record Label Ltd,6362101,E09000030,86 Copenhagen Place,Tower Hamlets,,Mile End,E05009327,-0.02829684981913709,536800.000122197,51.51406136594571,181356.00012149662,Tower Hamlets,Music (office based businesses),E09000030,11/27/2022
Tower Hamlets,www.operaupclose.com,Operaupclose,0,E09000030,221 The Pill Box London,,,St. Peter's,E05009331,-0.05577871730401134,534861.8992920965,51.52473224965357,182491.4728998989,Tower Hamlets,Music (office based businesses),E09000030,11/27/2022
Tower Hamlets,,Recognition,6000339,E09000030,Unit 405 Coppergate House,16,Brune Street,Spitalfields & Banglatown,E05009333,-0.07342162373758601,533659.000122197,51.517626394456634,181669.00012159348,Tower Hamlets,Music (office based businesses),E09000030,11/27/2022
Tower Hamlets,,Famous Friends Records Ltd,6089919,E09000030,6 Foundry Place,Tower Hamlets,,Stepney Green,E05009334,-0.051032740057518615,535208.000122197,51.51901920273764,181865.00012159348,Tower Hamlets,Music (office based businesses),E09000030,11/27/2022
Tower Hamlets,,Innerground Music Limited,6648314,E09000030,Tower Hamlets ,,,Stepney Green,E05009334,-0.04680225711176604,535499.000122197,51.51984818519687,181965.00012159348,Tower Hamlets,Music (office based businesses),E09000030,11/27/2022
Tower Hamlets,www.roughtrade.com,Rough Trade East,6150236,E09000030,91 Brick Lane,Tower Hamlets,,Spitalfields & Banglatown,E05009333,-0.07074079849150643,533835.000122197,51.52102688083827,182052.00012159348,Tower Hamlets,Music (office based businesses),E09000030,11/27/2022
Tower Hamlets,www.alphamusicpub.com,Alpha Music Publishing Uk Ltd,6019051,E09000030,13 Hague Street,Tower Hamlets,,St. Peter's,E05009331,-0.061244835794526734,534480.000122197,51.52567288056649,182586.00012159348,Tower Hamlets,Music (office based businesses),E09000030,11/27/2022
Tower Hamlets,,We Are Social Records Ltd,6005502,E09000030,186 Hackney Road,Tower Hamlets,,Weavers,E05009335,-0.07070131015923577,533811.000122197,51.53014575739165,183066.00012159348,Tower Hamlets,Music (office based businesses),E09000030,11/27/2022
Tower Hamlets,www.metropolisstripclub.com,Metropolis,6024228,E09000030,234 Cambridge Heath Road,Tower Hamlets,,St. Peter's,E05009331,-0.05518019589285701,534882.000122197,51.531975933706995,183298.00012159348,Tower Hamlets,Music (office based businesses),E09000030,11/27/2022
Tower Hamlets,https://www.facebook.com/pg/studiolockdown/about/,Lockdown Studio (Unit 6),,,Unit 6 & 7 Cable Street,,,,,-0.06671971384100277,534145.948376596,51.51012645088665,180847.34670689702,Tower Hamlets,Music recording studios,E09000030,11/27/2022
Tower Hamlets,www.klusterrooms.com,Kluster Rooms,6025305,E09000030,566 Cable Street,Tower Hamlets,,Shadwell,E05009332,-0.04171592898307748,535879.000122197,51.51071573564266,180959.00012159348,Tower Hamlets,Music rehearsal studios,E09000030,11/27/2022
Tower Hamlets,www.engineroomsstudios.com,Engine Rooms Rehearsal Studios,6074717,E09000030,30 Bow Triangle Business Centre,Eleanor Street,Tower Hamlets,Bromley North,E05009321,-0.02156460429700774,537239.000122197,51.52339134687843,182406.00012149662,Tower Hamlets,Music rehearsal studios,E09000030,11/27/2022
Tower Hamlets,www.thevatican.biz,Vatican Studios,6036377,E09000030,Railway Arch 190 Bancroft Road,Tower Hamlets,,Bethnal Green,E05009317,-0.04627793140699892,535519.000122197,51.52536155180061,182579.00012159348,Tower Hamlets,Music rehearsal studios,E09000030,11/27/2022
Tower Hamlets,www.wearebigchill.com,Big Chill Bar,6151992,E09000030,Tower Hamlets ,,,Spitalfields & Banglatown,E05009333,-0.07060968186122628,533846.000122197,51.52037718301723,181980.00012159348,Tower Hamlets,Music venues (all),E09000030,11/27/2022
,www.bigeasy.co.uk,Big Easy,,,Crossrail Place,,,,,-0.016193363142394508,537670.4106782973,51.5038685224563,180245.36610189825,Tower Hamlets,Music venues (all),E09000030,11/27/2022
,www.jamboreevenue.co.uk,Jamboree,,,27 Three Colt St,,,,,-0.028096618214044227,536822.4991706982,51.51118874348936,181036.97006569803,Tower Hamlets,Music venues (all),E09000030,11/27/2022
,www.ovalspace.co.uk,Pickle Factory,,,13-14 The Oval,,,,,-0.05770479413358204,534706.5636017993,51.53209767090289,183306.8844048977,Tower Hamlets,Music venues (all),E09000030,11/27/2022
Tower Hamlets,,R&v Music Ltd,6078489,E09000030,10 Sextant Avenue,Tower Hamlets,,Blackwall & Cubitt Town,E05009318,-0.0030691078279585847,538620.000122197,51.491051224052676,178845.00012149662,Tower Hamlets,Music venues (all),E09000030,11/27/2022
Tower Hamlets,www.space.org.uk,The Space,6060149,E09000030,269 Westferry Road,Tower Hamlets,,Island Gardens,E05009324,-0.02258962152169922,537264.000122197,51.49140905609677,178848.00012149662,Tower Hamlets,Music venues (all),E09000030,11/27/2022
Tower Hamlets,,28 West Bar,6151005,E09000030,28 Westferry Circus,Tower Hamlets,,Canary Wharf,E05009323,-0.02463441425764161,537098.000122197,51.49942994097773,179736.00012149662,Tower Hamlets,Music venues (all),E09000030,11/27/2022
Tower Hamlets,www.thegundocklands.com,Gun 27 Coldharbour,6081890,E09000030,27 Cold Harbour,Tower Hamlets,,Blackwall & Cubitt Town,E05009318,-0.006107867068722563,538378.000122197,51.501310828963554,179980.00012149662,Tower Hamlets,Music venues (all),E09000030,11/27/2022
Tower Hamlets,www.finelinecanarywharf.co.uk,Fine Line,6136274,E09000030,29-30 Fishermans Walk,Tower Hamlets,,Canary Wharf,E05009323,-0.020096063828031165,537395.000122197,51.505397167348846,180408.00012149662,Tower Hamlets,Music venues (all),E09000030,11/27/2022
Tower Hamlets,www.greeneking-pubs.co.uk/pub/prospect-of-whitby-wapping,Prospect Of Whitby,6027179,E09000030,57 Wapping Wall,Tower Hamlets,,St. Katharine's & Wapping,E05009330,-0.049430282037526835,535356.000122197,51.506590305561666,180486.00012159348,Tower Hamlets,Music venues (all),E09000030,11/27/2022
Tower Hamlets,,Crown River Cruises,6186477,E09000030,Tower Millennium Pier Tower Pier,Tower Hamlets,,St. Katharine's & Wapping,E05009330,-0.07752077010316191,533405.000122197,51.50723407781509,180506.00012159348,Tower Hamlets,Music venues (all),E09000030,11/27/2022
Tower Hamlets,,Rum & Sugar,6151122,E09000030,1 The Warehouse Hertsmere Road,Tower Hamlets,,Canary Wharf,E05009323,-0.022241432199548754,537241.000122197,51.50710620025772,180594.00012149662,Tower Hamlets,Music venues (all),E09000030,11/27/2022
Tower Hamlets,www.tobaccodocklondon.com,Tobacco Dock,6009847,E09000030,50 Porters Walk,Tower Hamlets,,St. Katharine's & Wapping,E05009330,-0.057665790737730496,534781.000122197,51.50779725365735,180605.00012159348,Tower Hamlets,Music venues (all),E09000030,11/27/2022
Tower Hamlets,www.bjswhiteswan.com,Bjs White Swan,6047411,E09000030,556 Commercial Road,Tower Hamlets,,Shadwell,E05009332,-0.039583642640520625,536023.000122197,51.5120381523116,181110.00012159348,Tower Hamlets,Music venues (all),E09000030,11/27/2022
Tower Hamlets,,Thomas Neale,6160450,E09000030,39 Watney Market,Tower Hamlets,,Shadwell,E05009332,-0.05511076871792364,534944.000122197,51.51262946568608,181147.00012159348,Tower Hamlets,Music venues (all),E09000030,11/27/2022
Tower Hamlets,www.troxy.co.uk,Troxy,6027797,E09000030,490 Commercial Road,Tower Hamlets,,Shadwell,E05009332,-0.042388584493420346,535827.000122197,51.51250771318365,181157.00012159348,Tower Hamlets,Music venues (all),E09000030,11/27/2022
Tower Hamlets,www.lemanstreettavern.co.uk,Leman Street Tavern,6702016,E09000030,31 Leman Street,Tower Hamlets,,Whitechapel,E05009336,-0.06870518238344549,533999.000122197,51.5132588548136,181192.00012159348,Tower Hamlets,Music venues (all),E09000030,11/27/2022
Tower Hamlets,www.queensheadlimehouse.co.uk,Queens Head,6045051,E09000030,8 Flamborough Street,Tower Hamlets,,St. Dunstan's,E05009329,-0.03716354496811711,536187.000122197,51.51334671993761,181260.00012159348,Tower Hamlets,Music venues (all),E09000030,11/27/2022
Tower Hamlets,www.thegeorgetavern.co.uk,The George Tavern,6027924,E09000030,373 Commercial Road,Tower Hamlets,,Stepney Green,E05009334,-0.051297722363800126,535205.000122197,51.51382527576585,181287.00012159348,Tower Hamlets,Music venues (all),E09000030,11/27/2022
Tower Hamlets,www.thecastlelondon.com,Castle,6011770,E09000030,44 Commercial Road,Tower Hamlets,,Whitechapel,E05009336,-0.06726158266220646,534096.000122197,51.51433229487266,181314.00012159348,Tower Hamlets,Music venues (all),E09000030,11/27/2022
Tower Hamlets,,The White Hart,6002101,E09000030,89 Whitechapel High Street,Tower Hamlets,,Spitalfields & Banglatown,E05009333,-0.06930649454811774,533951.000122197,51.5154002471755,181429.00012159348,Tower Hamlets,Music venues (all),E09000030,11/27/2022
Tower Hamlets,www.applesandpearsbar.com,Apples & Pears,6015760,E09000030,26 Osborn Street,Tower Hamlets,,Spitalfields & Banglatown,E05009333,-0.0683234180347616,534016.000122197,51.51649027479651,181552.00012159348,Tower Hamlets,Music venues (all),E09000030,11/27/2022
Tower Hamlets,,Som Saa,6000286,E09000030,43 Commercial Street,Tower Hamlets,,Spitalfields & Banglatown,E05009333,-0.0721763643618489,533748.000122197,51.51673354889866,181572.00012159348,Tower Hamlets,Music venues (all),E09000030,11/27/2022
Tower Hamlets,,Indo,6362389,E09000030,Flat 2 133,Whitechapel Road,Tower Hamlets,Spitalfields & Banglatown,E05009333,-0.06414880196695126,534303.000122197,51.51737476232858,181658.00012159348,Tower Hamlets,Music venues (all),E09000030,11/27/2022
Tower Hamlets,www.93feeteast.co.uk,93 Feet East,6717071,E09000030,150 Brick Ln Shoreditch,London,,Spitalfields & Banglatown,E05009333,-0.06989686546196872,533893.000122197,51.521210854330114,182074.00012159348,Tower Hamlets,Music venues (all),E09000030,11/27/2022
Tower Hamlets,,Second Home,6177519,E09000030,68 Hanbury Street,Tower Hamlets,,Spitalfields & Banglatown,E05009333,-0.068815839233119,533973.000122197,51.519502256617294,181886.00012159348,Tower Hamlets,Music venues (all),E09000030,11/27/2022
Tower Hamlets,www.cafe1001.co.uk,Cafe 1001,10091893758,E09000030,91 Brick Lane,Tower Hamlets,,Spitalfields & Banglatown,E05009333,-0.07074079849150643,533835.000122197,51.52102688083827,182052.00012159348,Tower Hamlets,Music venues (all),E09000030,11/27/2022
Tower Hamlets,www.roughtrade.com,Rough Trade East,6150236,E09000030,91 Brick Lane,Tower Hamlets,,Spitalfields & Banglatown,E05009333,-0.07074079849150643,533835.000122197,51.52102688083827,182052.00012159348,Tower Hamlets,Music venues (all),E09000030,11/27/2022
Tower Hamlets,,Beehive,6072864,E09000030,104 Empson Street,Tower Hamlets,,Bromley South,E05009322,-0.012061755590130367,537905.000122197,51.521117132165614,182171.00012149662,Tower Hamlets,Music venues (all),E09000030,11/27/2022
Tower Hamlets,www.beachblanket.co.uk,Beach Blanket Babylon,6002970,E09000030,19-23 Bethnal Green Road,Tower Hamlets,,Weavers,E05009335,-0.07283001180477368,533683.000122197,51.52344453957841,182317.00012159348,Tower Hamlets,Music venues (all),E09000030,11/27/2022
Tower Hamlets,www.richmix.org.uk,Rich Mix,6150258,E09000030,35-47 Bethnal Green Road,Tower Hamlets,,Weavers,E05009335,-0.07224613156025333,533723.000122197,51.52361481590002,182337.00012159348,Tower Hamlets,Music venues (all),E09000030,11/27/2022
Tower Hamlets,www.owlandpussycatshoreditch.com,Owl & Pussycat,6003235,E09000030,34 Redchurch Street,Tower Hamlets,,Weavers,E05009335,-0.07382599849758163,533613.000122197,51.523757691075936,182350.00012159348,Tower Hamlets,Music venues (all),E09000030,11/27/2022
Tower Hamlets,www.starofbethnalgreen.co.uk/,Star Of Bethnal Green,6169765,E09000030,359 Bethnal Green Road,Tower Hamlets,,St. Peter's,E05009331,-0.060564782296155445,534525.000122197,51.52640810770282,182669.00012159348,Tower Hamlets,Music venues (all),E09000030,11/27/2022
Tower Hamlets,,The Misty Moon,6128538,E09000030,456 Bethnal Green Road,Tower Hamlets,,St. Peter's,E05009331,-0.05674321764842064,534790.000122197,51.52642579214202,182678.00012159348,Tower Hamlets,Music venues (all),E09000030,11/27/2022
Tower Hamlets,www.blocorganisation.com/,Bloc,6189130,E09000030,Unit 3 2-40,Autumn Street,Tower Hamlets,Bromley North,E05009321,-0.018689264780749205,537431.000122197,51.52586103528499,182686.00012149662,Tower Hamlets,Music venues (all),E09000030,11/27/2022
Tower Hamlets,,The Bridge,6152668,E09000030,28 Hancock Road,Tower Hamlets,,Bromley North,E05009321,-0.008896617039656808,538108.000122197,51.526585563588576,182785.00012149662,Tower Hamlets,Music venues (all),E09000030,11/27/2022
Tower Hamlets,www.workersplaytime.net,Bethnal Green Working Men's Club,6352752,E09000030,Pollard Row Tower Hamlets,,,St. Peter's,E05009331,-0.06268583433324171,534374.000122197,51.527729251719244,182812.00012159348,Tower Hamlets,Music venues (all),E09000030,11/27/2022
Tower Hamlets,www.thedundeearms.com,Dundee Arms,6021563,E09000030,339 Cambridge Heath Road,Tower Hamlets,,St. Peter's,E05009331,-0.05460785877495392,534931.000122197,51.52882766563736,182949.00012159348,Tower Hamlets,Music venues (all),E09000030,11/27/2022
Tower Hamlets,,The Gallery Cafe,6040154,E09000030,21 Old Ford Road,Tower Hamlets,,St. Peter's,E05009331,-0.05290729952044406,535047.000122197,51.529482961878195,183025.00012159348,Tower Hamlets,Music venues (all),E09000030,11/27/2022
Tower Hamlets,,Folklore,6005502,E09000030,186 Hackney Road,Tower Hamlets,,Weavers,E05009335,-0.07070131015923577,533811.000122197,51.53014575739165,183066.00012159348,Tower Hamlets,Music venues (all),E09000030,11/27/2022
Tower Hamlets,,A Portuguese Love Affair Deli Café,6161297,E09000030,326 Hackney Road,Tower Hamlets,,Weavers,E05009335,-0.06503230097032357,534203.000122197,51.53053802223027,183120.00012159348,Tower Hamlets,Music venues (all),E09000030,11/27/2022
Tower Hamlets,www.sebrightarms.co.uk,Sebright Arms,6021840,E09000030,31-35 Coate Street,Tower Hamlets,,St. Peter's,E05009331,-0.061488063650280624,534446.000122197,51.531486781222256,183232.00012159348,Tower Hamlets,Music venues (all),E09000030,11/27/2022
Tower Hamlets,www.apiarystudios.org,Apiary Studios,6021862,E09000030,458 Hackney Road,Tower Hamlets,,St. Peter's,E05009331,-0.057418813788995146,534728.000122197,51.531554357971785,183247.00012159348,Tower Hamlets,Music venues (all),E09000030,11/27/2022
Tower Hamlets,www.thecrownbow.co.uk,Crown,6041717,E09000030,223 Grove Road,Tower Hamlets,,Bow West,E05009320,-0.040106423860341654,535926.000122197,51.53242651722481,183376.00012159348,Tower Hamlets,Music venues (all),E09000030,11/27/2022
Tower Hamlets,www.ovalspace.co.uk/about/the-venues/oval-space,Oval Space,6155537,E09000030,29-32 The Oval,Tower Hamlets,,St. Peter's,E05009331,-0.05780136646490093,534698.000122197,51.53272986435896,183377.00012159348,Tower Hamlets,Music venues (all),E09000030,11/27/2022
Tower Hamlets,,Hare,6023648,E09000030,505 Cambridge Heath Road,Tower Hamlets,,St. Peter's,E05009331,-0.05594731412769094,534826.000122197,51.53292398831523,183402.00012159348,Tower Hamlets,Music venues (all),E09000030,11/27/2022
Tower Hamlets,www.eleanorarms.co.uk,Eleanor Arms,6055447,E09000030,460 Old Ford Road,Tower Hamlets,,Bow East,E05009319,-0.0314516712637009,536520.000122197,51.53449401155329,183622.00012149662,Tower Hamlets,Music venues (all),E09000030,11/27/2022
Tower Hamlets,www.thelighthouse.pub,The Lighthouse,6075916,E09000030,421 Wick Lane,Tower Hamlets,,Bow East,E05009319,-0.020084280994225392,537307.000122197,51.53491423930787,183690.00012149662,Tower Hamlets,Music venues (all),E09000030,11/27/2022
Tower Hamlets,www.stourspace.co.uk,Stour Space,10091906334,E09000030,7 Roach Road,Tower Hamlets,,Bow East,E05009319,-0.019502424114289495,537333.000122197,51.53968004986102,184221.00012149662,Tower Hamlets,Music venues (all),E09000030,11/27/2022
Tower Hamlets,www.theyardtheatre.co.uk,The Yard Theatre,6077552,E09000030,Unit 2a Queens Yard,White Post Lane,Tower Hamlets,Bow East,E05009319,-0.021790331520282865,537167.000122197,51.54212895855404,184489.00012149662,Tower Hamlets,Music venues (all),E09000030,11/27/2022
Tower Hamlets,www.cratebrewery.com,Mick's Garage,6077550,E09000030,Unit 8a Queens Yard,White Post Lane,Tower Hamlets,Bow East,E05009319,-0.021187309403857726,537207.000122197,51.542730355192305,184557.00012149662,Tower Hamlets,Music venues (all),E09000030,11/27/2022
,www.bigeasy.co.uk,Big Easy,,,Crossrail Place,,,,,-0.016193363142394508,537670.4106782973,51.5038685224563,180245.36610189825,Tower Hamlets,Music venues (grassroots),E09000030,11/27/2022
,www.jamboreevenue.co.uk,Jamboree,,,27 Three Colt St,,,,,-0.028096618214044227,536822.4991706982,51.51118874348936,181036.97006569803,Tower Hamlets,Music venues (grassroots),E09000030,11/27/2022
,www.ovalspace.co.uk,Pickle Factory,,,13-14 The Oval,,,,,-0.05770479413358204,534706.5636017993,51.53209767090289,183306.8844048977,Tower Hamlets,Music venues (grassroots),E09000030,11/27/2022
Tower Hamlets,www.thegeorgetavern.co.uk,The George Tavern,6027924,E09000030,373 Commercial Road,Tower Hamlets,,Stepney Green,E05009334,-0.051297722363800126,535205.000122197,51.51382527576585,181287.00012159348,Tower Hamlets,Music venues (grassroots),E09000030,11/27/2022
Tower Hamlets,www.93feeteast.co.uk,93 Feet East,6717071,E09000030,150 Brick Ln Shoreditch,London,,Spitalfields & Banglatown,E05009333,-0.06989686546196872,533893.000122197,51.521210854330114,182074.00012159348,Tower Hamlets,Music venues (grassroots),E09000030,11/27/2022
Tower Hamlets,www.sebrightarms.co.uk,Sebright Arms,6021840,E09000030,31-35 Coate Street,Tower Hamlets,,St. Peter's,E05009331,-0.061488063650280624,534446.000122197,51.531486781222256,183232.00012159348,Tower Hamlets,Music venues (grassroots),E09000030,11/27/2022
Tower Hamlets,www.theyardtheatre.co.uk,The Yard Theatre,6077552,E09000030,Unit 2a Queens Yard,White Post Lane,Tower Hamlets,Bow East,E05009319,-0.021790331520282865,537167.000122197,51.54212895855404,184489.00012149662,Tower Hamlets,Music venues (grassroots),E09000030,11/27/2022
Tower Hamlets,,Victoria Park ,,E09000030,Grove Rd,Bow,,Bow West,E05009320,-0.037999997873931525,536058.4359130934,51.53700000123327,183888.44012449682,Tower Hamlets,Outdoor spaces for cultural use,E09000030,11/27/2022
Tower Hamlets,http://appliedarts.co.uk/,Applied Arts ,6024289,E09000030,22-27 The Oval,,,St. Peter's,E05009331,-0.05791486145657602,534691.0001221001,51.53243495421187,183344.00012210011,Tower Hamlets,Prop and costume making,E09000030,11/27/2022
Tower Hamlets,https://www.sculpt-double.co.uk/projects/?tag=Arch+Model+Studio,Arch Model Studio,6077534,E09000030,Unit 9 Hamlet Industrial Centre,White Post Lane ,,Bow East,E05009319,-0.02070933068475591,537243.1701049954,51.54172309530341,184445.90008549392,Tower Hamlets,Prop and costume making,E09000030,11/27/2022
Tower Hamlets,http://www.jamesince.co.uk/,Ince Umbrellas,6041714,E09000030,63 Vyner Street,,,St. Peter's,E05009331,-0.05270844337963055,535046.0001221001,51.53448011777634,183581.00012210011,Tower Hamlets,Prop and costume making,E09000030,11/27/2022
Tower Hamlets,https://www.puppetsmagic.co.uk/,Puppets Magic Studio,6193059,E09000030,Unit 318 Pill Box Studios,115 Coventry Road,,St. Peter's,E05009331,-0.05585893791588333,534856.4700927958,51.524686607747,182486.25012210011,Tower Hamlets,Prop and costume making,E09000030,11/27/2022
Tower Hamlets,,George Tavern,,E09000030,373 Commercial Road,London,Stepney,Stepney Green,E05009334,-0.05129733874509579,535205.0001221001,51.5138342630504,181288.00012210011,Tower Hamlets,Pubs,E09000030,11/27/2022
Tower Hamlets,,Peacock,,E09000030,145 Aylward Street,London,Stepney,Stepney Green,E05009334,-0.04471747464950038,535657.0001221001,51.51534359678995,181468.00012210011,Tower Hamlets,Pubs,E09000030,11/27/2022
Tower Hamlets,,Palm Tree,,E09000030,127 Grove Road,Bow,London,Bow West,E05009320,-0.03734207926270291,536129.0001221001,51.528638933320316,182960.00012210011,Tower Hamlets,Pubs,E09000030,11/27/2022
Tower Hamlets,,Urban Bar,,E09000030,176 Whitechapel Road,London,Whitechapel,Whitechapel,E05009336,-0.05571241970930297,534884.0001221001,51.51880908433611,181833.00012210011,Tower Hamlets,Pubs,E09000030,11/27/2022
Tower Hamlets,,Blind Beggar,,E09000030,337 Whitechapel Road,London,Whitechapel,Spitalfields & Banglatown,E05009333,-0.05604308723868275,534859.0001221001,51.51950707645908,181910.00012210011,Tower Hamlets,Pubs,E09000030,11/27/2022
Tower Hamlets,,Indo,,E09000030,133 Whitechapel Road,London,Whitechapel,Spitalfields & Banglatown,E05009333,-0.06451464821212084,534278.0001221001,51.51724589638275,181643.00012210011,Tower Hamlets,Pubs,E09000030,11/27/2022
Tower Hamlets,,Stable,,E09000030,16-18 Whitechapel Rd,Whitechapel,,Whitechapel,E05009336,-0.06605695502399617,534174.0001221001,51.51622807932169,181527.00012210011,Tower Hamlets,Pubs,E09000030,11/27/2022
Tower Hamlets,,Castle,,E09000030,44 Commercial Road,London,Whitechapel,Whitechapel,E05009336,-0.0677384453737298,534063.0001221001,51.514304178613685,181310.00012210011,Tower Hamlets,Pubs,E09000030,11/27/2022
Tower Hamlets,,Dog & Truck,,E09000030,72 Back Church Lane,London,Whitechapel,Whitechapel,E05009336,-0.06527185396583725,534239.0001221001,51.512644655480166,181130.00012210011,Tower Hamlets,Pubs,E09000030,11/27/2022
Tower Hamlets,,Good Samaritan,,E09000030,87 Turner Street,London,Whitechapel,Whitechapel,E05009336,-0.05955939396095163,534623.0001221001,51.51682225075903,181605.00012210011,Tower Hamlets,Pubs,E09000030,11/27/2022
Tower Hamlets,,Hungerford Arms,,E09000030,240 Commercial Road,London,Whitechapel,Shadwell,E05009332,-0.05665563329045503,534833.0001221001,51.51392318171424,181288.00012210011,Tower Hamlets,Pubs,E09000030,11/27/2022
Tower Hamlets,,Thomas Neale,,E09000030,39 Watney Market,London,Whitechapel,Shadwell,E05009332,-0.05506434974067625,534946.0001221001,51.5130424037926,181193.00012210011,Tower Hamlets,Pubs,E09000030,11/27/2022
Tower Hamlets,,Dean Swift,,E09000030,2 Deancross Street,London,Whitechapel,Shadwell,E05009332,-0.053614778738876455,535046.0001221001,51.51323420076114,181217.00012210011,Tower Hamlets,Pubs,E09000030,11/27/2022
Tower Hamlets,,Manor Arms,,E09000030,150 East India Dock Road,Poplar,London,Poplar,E05009328,-0.014086425641706146,537797.0001221001,51.51036799238559,180972.00012210011,Tower Hamlets,Pubs,E09000030,11/27/2022
Tower Hamlets,,Greenwich Pensioner,,E09000030,28 Bazeley Street,Poplar,London,Poplar,E05009328,-0.008973820484377225,538155.0001221001,51.509282994293564,180861.00012210011,Tower Hamlets,Pubs,E09000030,11/27/2022
Tower Hamlets,,Hope & Anchor,,E09000030,14 Newby Place,Poplar,London,Poplar,E05009328,-0.011005147095800335,538012.0001221001,51.50996501422739,180933.00012210011,Tower Hamlets,Pubs,E09000030,11/27/2022
Tower Hamlets,,Ship,,E09000030,290 Westferry Road,Isle of Dogs,Mudchute,Island Gardens,E05009324,-0.017008796125146476,537663.0001221001,51.48754642689989,178429.00012210011,Tower Hamlets,Pubs,E09000030,11/27/2022
Tower Hamlets,,Great Eastern,,E09000030,1 Glenaffric Avenue,Isle of Dogs,Mudchute,Island Gardens,E05009324,-0.004791904694185811,538509.0001221001,51.48822054385873,178527.00012210011,Tower Hamlets,Pubs,E09000030,11/27/2022
Tower Hamlets,,Ferry House,,E09000030,26 Ferry Street,Isle of Dogs,Mudchute,Island Gardens,E05009324,-0.010943658221232458,538089.0001221001,51.48589676248905,178257.00012210011,Tower Hamlets,Pubs,E09000030,11/27/2022
Tower Hamlets,,George,,E09000030,114 Glengall Grove,Isle of Dogs,Crossharbour,Blackwall & Cubitt Town,E05009318,-0.01035151817133316,538102.0001221001,51.495195231630184,179292.00012210011,Tower Hamlets,Pubs,E09000030,11/27/2022
Tower Hamlets,,Ledger Building,,E09000030,4 Hertsmere Road,Canary Wharf,London,Canary Wharf,E05009323,-0.02224143220070886,537241.0001221001,51.50710620026317,180594.00012210011,Tower Hamlets,Pubs,E09000030,11/27/2022
Tower Hamlets,,Sipping Room,,E09000030,16 Hertsmere Road,Isle of Dogs,Canary Wharf,Canary Wharf,E05009323,-0.021020801557840047,537326.0001221001,51.50700466301337,180585.00012210011,Tower Hamlets,Pubs,E09000030,11/27/2022
Tower Hamlets,,Browns,,E09000030,"Unit A Hertsmere Road, West India Quay",Isle of Dogs,Canary Wharf,Canary Wharf,E05009323,-0.021020801557840047,537326.0001221001,51.50700466301337,180585.00012210011,Tower Hamlets,Pubs,E09000030,11/27/2022
Tower Hamlets,,Burger & Lobster,,E09000030,"Unit C, 2 Port East Building,",Isle of Dogs,Canary Wharf,Canary Wharf,E05009323,-0.021020801557840047,537326.0001221001,51.50700466301337,180585.00012210011,Tower Hamlets,Pubs,E09000030,11/27/2022
Tower Hamlets,,Merchant,,E09000030,"25-27 Fishermans Walk, Building FC2",Isle of Dogs,Canary Wharf,Canary Wharf,E05009323,-0.020096063829190478,537395.0001221001,51.5053971673543,180408.00012210011,Tower Hamlets,Pubs,E09000030,11/27/2022
Tower Hamlets,,Davy's,,E09000030,31-35 Fishermans Walk,Isle of Dogs,Canary Wharf,Canary Wharf,E05009323,-0.020096063829190478,537395.0001221001,51.5053971673543,180408.00012210011,Tower Hamlets,Pubs,E09000030,11/27/2022
Tower Hamlets,,Limehouse,,E09000030,10 Cabot Square - Fishermans Walk,Isle of Dogs,Canary Wharf,Canary Wharf,E05009323,-0.020096063829190478,537395.0001221001,51.5053971673543,180408.00012210011,Tower Hamlets,Pubs,E09000030,11/27/2022
Tower Hamlets,,Pagination,,E09000030,9 Cabot Square,Isle of Dogs,Canary Wharf,Canary Wharf,E05009323,-0.020084421722826554,537398.0001221001,51.5046684807156,180327.00012210011,Tower Hamlets,Pubs,E09000030,11/27/2022
Tower Hamlets,,Henry Addington,,E09000030,22-28 Mackenzie Walk,Canary Wharf,London,Canary Wharf,E05009323,-0.020459258409214556,537374.0001221001,51.504000281397865,180252.00012210011,Tower Hamlets,Pubs,E09000030,11/27/2022
Tower Hamlets,,Slug & Lettuce,,E09000030,"51-55 Mackenzie Walk, 30 South Colonnade",Isle of Dogs,Canary Wharf,Canary Wharf,E05009323,-0.02226245063442172,537248.0001221001,51.50429152637843,180281.00012210011,Tower Hamlets,Pubs,E09000030,11/27/2022
Tower Hamlets,,Parlour,,E09000030,"Park Pavilion, 40 Canada Sqare",Isle of Dogs,Canary Wharf,Canary Wharf,E05009323,-0.017904470645193495,537550.0001221001,51.504424796464825,180304.00012210011,Tower Hamlets,Pubs,E09000030,11/27/2022
Tower Hamlets,,Sports Bar & Grill,,E09000030,1 Crossrail Place,Isle of Dogs,Canary Wharf,Canary Wharf,E05009323,-0.016668578675949758,537632.0001221001,51.505672011669844,180445.00012210011,Tower Hamlets,Pubs,E09000030,11/27/2022
Tower Hamlets,,All Bar One,,E09000030,42 McKenzie Walk,Isle of Dogs,Canary Wharf,Canary Wharf,E05009323,-0.018904017359271316,537483.0001221001,51.50364124832876,180215.00012210011,Tower Hamlets,Pubs,E09000030,11/27/2022
Tower Hamlets,,Brodie’s (Bar & Kitchen),,E09000030,43 Fishermans Walk,Isle of Dogs,Canary Wharf,Canary Wharf,E05009323,-0.01849094651394982,537507.0001221001,51.505190179994315,180388.00012210011,Tower Hamlets,Pubs,E09000030,11/27/2022
Tower Hamlets,,BrewDog Canary Wharf,,E09000030,"Unit 17, 2 Churchill Place",Canary Wharf,,Canary Wharf,E05009323,-0.01282330496532024,537902.0001221001,51.504617600704805,180335.00012210011,Tower Hamlets,Pubs,E09000030,11/27/2022
Tower Hamlets,,Rocket by Balls Brothers,,E09000030,2 Churchill Place,Canary Wharf,,Canary Wharf,E05009323,-0.01282330496532024,537902.0001221001,51.504617600704805,180335.00012210011,Tower Hamlets,Pubs,E09000030,11/27/2022
Tower Hamlets,,Festival Inn,,E09000030,71 Grundy Street,Poplar,London,Lansbury,E05009325,-0.01403515564143738,537796.0001221001,51.51187806630026,181140.00012210011,Tower Hamlets,Pubs,E09000030,11/27/2022
Tower Hamlets,,Callaghanns,,E09000030,55 Chrisp Street,Poplar,London,Lansbury,E05009325,-0.01264065714298165,537891.0001221001,51.51245701931542,181207.00012210011,Tower Hamlets,Pubs,E09000030,11/27/2022
Tower Hamlets,,George IV,,E09000030,7 Ida Street,Poplar,London,Lansbury,E05009325,-0.009943615773116948,538081.0001221001,51.51150291556554,181106.00012210011,Tower Hamlets,Pubs,E09000030,11/27/2022
Tower Hamlets,,Crown,,E09000030,667 Commercial Road,Poplar,Limehouse,Limehouse,E05009326,-0.027115428251110806,536891.0001221001,51.51104659856046,181023.00012210011,Tower Hamlets,Pubs,E09000030,11/27/2022
Tower Hamlets,,Star Of The East,,E09000030,805a Commercial Road,Poplar,Limehouse,Mile End,E05009327,-0.027567466160032857,536857.0001221001,51.51192659047074,181120.00012210011,Tower Hamlets,Pubs,E09000030,11/27/2022
Tower Hamlets,,Craft Beer Co.,,E09000030,576 Commercial Road,Limehouse,London,Shadwell,E05009332,-0.03858672570726539,536092.0001221001,51.51209343133093,181118.00012210011,Tower Hamlets,Pubs,E09000030,11/27/2022
Tower Hamlets,,Queens Head,,E09000030,8 Flamborough Street,Poplar,Limehouse,St. Dunstan's,E05009329,-0.037243291066865095,536182.0001221001,51.513168181266614,181240.00012210011,Tower Hamlets,Pubs,E09000030,11/27/2022
Tower Hamlets,,Old Ship,,E09000030,17 Barnes Street,Poplar,Limehouse,St. Dunstan's,E05009329,-0.03825668244116546,536111.0001221001,51.51340098661345,181264.00012210011,Tower Hamlets,Pubs,E09000030,11/27/2022
Tower Hamlets,,Prince Regent,,E09000030,81 Salmon Lane,Poplar,Limehouse,St. Dunstan's,E05009329,-0.03494275977043106,536340.0001221001,51.5137052487767,181304.00012210011,Tower Hamlets,Pubs,E09000030,11/27/2022
Tower Hamlets,,Grapes,,E09000030,76 Narrow Street,Limehouse,London,Limehouse,E05009326,-0.03139637897242727,536603.0001221001,51.508033710142584,180680.00012210011,Tower Hamlets,Pubs,E09000030,11/27/2022
Tower Hamlets,,Narrow,,E09000030,44 Narrow Street-Limehouse Basin,Limehouse,London,Limehouse,E05009326,-0.03139637897242727,536603.0001221001,51.508033710142584,180680.00012210011,Tower Hamlets,Pubs,E09000030,11/27/2022
Tower Hamlets,,Tooke Arms,,E09000030,165 West Ferry Road,Isle of Dogs,Millwall,Canary Wharf,E05009323,-0.023934617037972936,537152.0001221001,51.497619407698785,179536.00012210011,Tower Hamlets,Pubs,E09000030,11/27/2022
Tower Hamlets,,28West,,E09000030,28 Westferry Circus,Isle of Dogs,Millwall,Canary Wharf,E05009323,-0.026443839820349056,536954.0001221001,51.50557612646548,180416.00012210011,Tower Hamlets,Pubs,E09000030,11/27/2022
Tower Hamlets,,Gun,,E09000030,27 Coldharbour,Isle of Dogs,Crossharbour,Blackwall & Cubitt Town,E05009318,-0.005937974141687322,538388.0001221001,51.50190152578455,180046.00012210011,Tower Hamlets,Pubs,E09000030,11/27/2022
Tower Hamlets,,Pepper Saint Ontiod,,E09000030,21 Pepper Street,Crossharbour,London,Canary Wharf,E05009323,-0.015854507318815343,537718.0001221001,51.49588207090406,179358.00012210011,Tower Hamlets,Pubs,E09000030,11/27/2022
Tower Hamlets,,Half Moon,,E09000030,212-223 Mile End Road,London,Stepney,Bethnal Green,E05009317,-0.04370977860876727,535708.0001221001,51.521703293929846,182177.00012210011,Tower Hamlets,Pubs,E09000030,11/27/2022
Tower Hamlets,,Horn Of Plenty,,E09000030,36 Globe Road,London,Stepney,Bethnal Green,E05009317,-0.04482577819983465,535630.0001221001,51.5219017777829,182197.00012210011,Tower Hamlets,Pubs,E09000030,11/27/2022
Tower Hamlets,,Bancroft Arms,,E09000030,410 Mile End Road,London,Mile End,St. Dunstan's,E05009329,-0.03840923925714184,536074.0001221001,51.52226229850234,182249.00012210011,Tower Hamlets,Pubs,E09000030,11/27/2022
Tower Hamlets,,White Hart,,E09000030,1-3 Mile End Road,Whitechapel,,Bethnal Green,E05009317,-0.0529205395042531,535074.0001221001,51.520048855479764,181976.00012210011,Tower Hamlets,Pubs,E09000030,11/27/2022
Tower Hamlets,,Pride of Spitalfields,,E09000030,3 Heneage Street,Spitalfields,,Spitalfields & Banglatown,E05009333,-0.06878411651212792,533978.0001221001,51.518548409796,181780.00012210011,Tower Hamlets,Pubs,E09000030,11/27/2022
Tower Hamlets,,Carpenters Arms,,E09000030,135 Cambridge Heath Road,London,Whitechapel,St. Peter's,E05009331,-0.05368065508908877,535014.0001221001,51.522507743587134,182248.00012210011,Tower Hamlets,Pubs,E09000030,11/27/2022
Tower Hamlets,,Gun,,E09000030,54 Brushfield Street,Shoreditch,,Spitalfields & Banglatown,E05009333,-0.07506005361740001,533543.0001221001,51.51842675072789,181755.00012210011,Tower Hamlets,Pubs,E09000030,11/27/2022
Tower Hamlets,,English Restaurant,,E09000030,50-52 Brushfield St,London,Spitalfields,Spitalfields & Banglatown,E05009333,-0.07506005361740001,533543.0001221001,51.51842675072789,181755.00012210011,Tower Hamlets,Pubs,E09000030,11/27/2022
Tower Hamlets,,Water Poet,,E09000030,11 Folgate Street,London,Spitalfields,Spitalfields & Banglatown,E05009333,-0.07573792588638403,533490.0001221001,51.52047043304201,181981.00012210011,Tower Hamlets,Pubs,E09000030,11/27/2022
Tower Hamlets,,Grocer,,E09000030,Spitalfields Market,London,Spitalfields,Spitalfields & Banglatown,E05009333,-0.07474919783773534,533562.0001221001,51.519303022664054,181853.00012210011,Tower Hamlets,Pubs,E09000030,11/27/2022
Tower Hamlets,,Galvin Hop,,E09000030,35 Spital Square,Spitalfields,,Spitalfields & Banglatown,E05009333,-0.07672206695027821,533424.0001221001,51.519695138484764,181893.00012210011,Tower Hamlets,Pubs,E09000030,11/27/2022
Tower Hamlets,,Dirty Bones,,E09000030,1 Club Row,London,Spitalfields,Weavers,E05009335,-0.07269009943622,533692.0001221001,51.52368506803365,182344.00012210011,Tower Hamlets,Pubs,E09000030,11/27/2022
Tower Hamlets,,BrewDog Shoreditch,,E09000030,51-55 Bethnal Green Road,London,Spitalfields,Weavers,E05009335,-0.07221276142559278,533725.0001221001,51.523722190779246,182349.00012210011,Tower Hamlets,Pubs,E09000030,11/27/2022
Tower Hamlets,,Culpeper,,E09000030,40 Commercial Street,London,Spitalfields,Spitalfields & Banglatown,E05009333,-0.0706870320070992,533854.0001221001,51.515818687278994,181473.00012210011,Tower Hamlets,Pubs,E09000030,11/27/2022
Tower Hamlets,,Ten Bells,,E09000030,84 Commercial Street,London,Spitalfields,Spitalfields & Banglatown,E05009333,-0.07207012062676926,533750.0001221001,51.51856650177228,181776.00012210011,Tower Hamlets,Pubs,E09000030,11/27/2022
Tower Hamlets,,Golden Heart,,E09000030,110 Commercial Street,London,Spitalfields,Spitalfields & Banglatown,E05009333,-0.07259702758856997,533711.0001221001,51.51940257594626,181868.00012210011,Tower Hamlets,Pubs,E09000030,11/27/2022
Tower Hamlets,,Commercial Tavern,,E09000030,142 Commercial Street,Spitalfields,,Spitalfields & Banglatown,E05009333,-0.07441633464530065,533579.0001221001,51.5213840771554,182085.00012210011,Tower Hamlets,Pubs,E09000030,11/27/2022
Tower Hamlets,,Montys Bar & Lounge,,E09000030,149 Brick Lane,London,Spitalfields,Weavers,E05009335,-0.07011272136427285,533871.0001221001,51.52360670970703,182340.00012210011,Tower Hamlets,Pubs,E09000030,11/27/2022
Tower Hamlets,,Bell,,E09000030,50 Middlesex Street,London,Aldgate East,Spitalfields & Banglatown,E05009333,-0.073879976292466,533634.0001221001,51.5153045747773,181410.00012210011,Tower Hamlets,Pubs,E09000030,11/27/2022
Tower Hamlets,,Tracks&records,,E09000030,94-98 Middlesex Street,London,Aldgate East,Spitalfields & Banglatown,E05009333,-0.07503160101104234,533551.0001221001,51.51636674436531,181526.00012210011,Tower Hamlets,Pubs,E09000030,11/27/2022
Tower Hamlets,,Grapeshots,,E09000030,2-3 Artillery Passage,London,Aldgate East,Spitalfields & Banglatown,E05009333,-0.07580230015691636,533494.0001221001,51.5175755441438,181659.00012210011,Tower Hamlets,Pubs,E09000030,11/27/2022
Tower Hamlets,,Bar Locks,,E09000030,21 White Church Lane,London,Aldgate East,Whitechapel,E05009336,-0.06766251747804154,534066.0001221001,51.515076380043936,181396.00012210011,Tower Hamlets,Pubs,E09000030,11/27/2022
Tower Hamlets,,White Hart,,E09000030,89 Whitechapel High Street,London,Aldgate East,Spitalfields & Banglatown,E05009333,-0.06955859415462423,533934.0001221001,51.51523351837689,181410.00012210011,Tower Hamlets,Pubs,E09000030,11/27/2022
Tower Hamlets,,Goodman's Field,,E09000030,87-91 Mansell Street,London,Goodmans,Whitechapel,E05009336,-0.07129609225811323,533823.0001221001,51.51197943181749,181045.00012210011,Tower Hamlets,Pubs,E09000030,11/27/2022
Tower Hamlets,,Princess Of Prussia,,E09000030,15 Prescot Street,London,Goodmans,Whitechapel,E05009336,-0.068915448798584,533991.0001221001,51.51101390850254,180942.00012210011,Tower Hamlets,Pubs,E09000030,11/27/2022
Tower Hamlets,,White Swan,,E09000030,21 Alie Street,London,Goodmans,Whitechapel,E05009336,-0.06963425549867314,533935.0001221001,51.513103272973524,181173.00012210011,Tower Hamlets,Pubs,E09000030,11/27/2022
Tower Hamlets,,Black Horse,,E09000030,40 Leman Street,London,Goodmans,Whitechapel,E05009336,-0.06858285876846304,534010.0001221001,51.512402444842344,181097.00012210011,Tower Hamlets,Pubs,E09000030,11/27/2022
Tower Hamlets,,Oliver Conquest,,E09000030,70 Leman Street,London,Goodmans,Whitechapel,E05009336,-0.06858285876846304,534010.0001221001,51.512402444842344,181097.00012210011,Tower Hamlets,Pubs,E09000030,11/27/2022
Tower Hamlets,,Brown Bear,,E09000030,139 Leman Street,London,Goodmans,Whitechapel,E05009336,-0.06776189952649354,534068.0001221001,51.512047162442585,181059.00012210011,Tower Hamlets,Pubs,E09000030,11/27/2022
Tower Hamlets,,Running Horse,,E09000030,"7 Piazza Walk, Leman St, Goodmans Field",London,Aldgate,Whitechapel,E05009336,-0.06826322338307464,534030.0001221001,51.513143651749765,181180.00012210011,Tower Hamlets,Pubs,E09000030,11/27/2022
Tower Hamlets,,Wilton's Music Hall Mahogany Bar,,E09000030,Graces Alley,Shadwell,Tower Hamlets,Whitechapel,E05009336,-0.06535082185007053,534241.0001221001,51.510100757810584,180847.00012210011,Tower Hamlets,Pubs,E09000030,11/27/2022
Tower Hamlets,,Sir Sydney Smith,,E09000030,22 Dock Street,London,,Whitechapel,E05009336,-0.066879547528487,534137.0001221001,51.5093974838166,180766.00012210011,Tower Hamlets,Pubs,E09000030,11/27/2022
Tower Hamlets,,Simmons,,E09000030,61 Royal Mint Street,London,Goodmans,Whitechapel,E05009336,-0.06890573014766994,533995.0001221001,51.50988055003332,180816.00012210011,Tower Hamlets,Pubs,E09000030,11/27/2022
Tower Hamlets,,Artful Dodger,,E09000030,47 Royal Mint Street,London,Goodmans,Whitechapel,E05009336,-0.06890573014766994,533995.0001221001,51.50988055003332,180816.00012210011,Tower Hamlets,Pubs,E09000030,11/27/2022
Tower Hamlets,,Leman Street Tavern,,E09000030,31 Leman Street,London,Goodmans,Whitechapel,E05009336,-0.06862142012302742,534005.0001221001,51.513194519865785,181185.00012210011,Tower Hamlets,Pubs,E09000030,11/27/2022
Tower Hamlets,,Bar & Block,,E09000030,66 Alie Street,Aldgate,,Whitechapel,E05009336,-0.06816387000270611,534036.0001221001,51.513447798683934,181214.00012210011,Tower Hamlets,Pubs,E09000030,11/27/2022
Tower Hamlets,,Slug & Lettuce,,E09000030,"Unit 1 Tower Bridge House, St Katherine's Dock",London,Wapping,St. Katharine's & Wapping,E05009330,-0.07119073469537068,533847.0001221001,51.506284726485184,180412.00012210011,Tower Hamlets,Pubs,E09000030,11/27/2022
Tower Hamlets,,Dickens Inn,,E09000030,"Marble Quay, St Katherine's Way",London,Wapping,St. Katharine's & Wapping,E05009330,-0.06865492807048383,534024.0001221001,51.50592821075605,180377.00012210011,Tower Hamlets,Pubs,E09000030,11/27/2022
Tower Hamlets,,Moretown Belle,,E09000030,"5 Thomas Moore Sq, Nesham Street",London,Wapping,St. Katharine's & Wapping,E05009330,-0.06563534375593039,534231.0001221001,51.50678679653541,180478.00012210011,Tower Hamlets,Pubs,E09000030,11/27/2022
Tower Hamlets,,Captain Kidd,,E09000030,108 Wapping High Street,London,Wapping,St. Katharine's & Wapping,E05009330,-0.05851014195708043,534738.0001221001,51.5025139718823,180016.00012210011,Tower Hamlets,Pubs,E09000030,11/27/2022
Tower Hamlets,,Turk's Head,,E09000030,1 Green Bank,London,Wapping,St. Katharine's & Wapping,E05009330,-0.05968378285445374,534653.0001221001,51.50372056150664,180148.00012210011,Tower Hamlets,Pubs,E09000030,11/27/2022
Tower Hamlets,,Town Of Ramsgate,,E09000030,62 Wapping High Street,London,Wapping,St. Katharine's & Wapping,E05009330,-0.06047003214391727,534601.0001221001,51.50285219063914,180050.00012210011,Tower Hamlets,Pubs,E09000030,11/27/2022
Tower Hamlets,,Turner's Old Star,,E09000030,14 Watts Street,London,Wapping,St. Katharine's & Wapping,E05009330,-0.057776768108687024,534782.0001221001,51.50484917226821,180277.00012210011,Tower Hamlets,Pubs,E09000030,11/27/2022
Tower Hamlets,,White Swan & Cuckoo,,E09000030,97 Wapping Lane,London,Wapping,St. Katharine's & Wapping,E05009330,-0.05629153268191722,534885.0001221001,51.50486953064518,180282.00012210011,Tower Hamlets,Pubs,E09000030,11/27/2022
Tower Hamlets,,Prospect of Whitby,,E09000030,57 Wapping Wall,London,Shadwell,St. Katharine's & Wapping,E05009330,-0.049430282038727895,535356.0001221001,51.506590305566235,180486.00012210011,Tower Hamlets,Pubs,E09000030,11/27/2022
Tower Hamlets,,Marquis Of Cornwallis,,E09000030,304 Bethnal Green Road,Bethnal Green,London,Weavers,E05009335,-0.0631159442696035,534350.0001221001,51.52574876496486,182591.00012210011,Tower Hamlets,Pubs,E09000030,11/27/2022
Tower Hamlets,,Old George,,E09000030,379 Bethnal Green Road,Bethnal Green,London,St. Peter's,E05009331,-0.05791587702072131,534708.0001221001,51.52665206986348,182701.00012210011,Tower Hamlets,Pubs,E09000030,11/27/2022
Tower Hamlets,,Sun Tavern,,E09000030,441 Bethnal Green Road,Bethnal Green,London,St. Peter's,E05009331,-0.05791587702072131,534708.0001221001,51.52665206986348,182701.00012210011,Tower Hamlets,Pubs,E09000030,11/27/2022
Tower Hamlets,,Shakespeare,,E09000030,460 Bethnal Green Road,Bethnal Green,London,St. Peter's,E05009331,-0.0556572571334387,534865.0001221001,51.52653370439649,182692.00012210011,Tower Hamlets,Pubs,E09000030,11/27/2022
Tower Hamlets,,Bethnal Green Tavern,,E09000030,456 Bethnal Green Road,Bethnal Green,London,St. Peter's,E05009331,-0.0556572571334387,534865.0001221001,51.52653370439649,182692.00012210011,Tower Hamlets,Pubs,E09000030,11/27/2022
Tower Hamlets,,Salmon & Ball,,E09000030,502 Bethnal Green Road,Bethnal Green,London,St. Peter's,E05009331,-0.0556572571334387,534865.0001221001,51.52653370439649,182692.00012210011,Tower Hamlets,Pubs,E09000030,11/27/2022
Tower Hamlets,,OLd Street Brewery Taproom,,E09000030,"Arch 11, Gales Gardens",Bethnal Green,,St. Peter's,E05009331,-0.055073187996376956,534907.0001221001,51.526029370107416,182637.00012210011,Tower Hamlets,Pubs,E09000030,11/27/2022
Tower Hamlets,,Backyard Bar & Kitchen,,E09000030,231 Cambridge Heath Rd,Bethnal Green,Cambridge Heath,St. Peter's,E05009331,-0.05415552932684691,534970.0001221001,51.52624798295503,182663.00012210011,Tower Hamlets,Pubs,E09000030,11/27/2022
Tower Hamlets,,Camel,,E09000030,277 Globe Road,Bethnal Green,London,Bethnal Green,E05009317,-0.04970523871545471,535274.0001221001,51.527819897901345,182846.00012210011,Tower Hamlets,Pubs,E09000030,11/27/2022
Tower Hamlets,,Florist Arms,,E09000030,255 Globe Road,Bethnal Green,London,Bethnal Green,E05009317,-0.04970523871545471,535274.0001221001,51.527819897901345,182846.00012210011,Tower Hamlets,Pubs,E09000030,11/27/2022
Tower Hamlets,,Casa Blue,,E09000030,120 Bethnal Green Road,Bethnal Green,Shoreditch,Weavers,E05009335,-0.06957311389772468,533906.0001221001,51.524434235488336,182433.00012210011,Tower Hamlets,Pubs,E09000030,11/27/2022
Tower Hamlets,,Carpenter's Arms,,E09000030,73 Cheshire Street,Bethnal Green,London,Weavers,E05009335,-0.06503948550124694,534223.0001221001,51.52356808502735,182345.00012210011,Tower Hamlets,Pubs,E09000030,11/27/2022
Tower Hamlets,,Kings Arms,,E09000030,11a Buckfast Street,Bethnal Green,London,Weavers,E05009335,-0.06466764584113169,534245.0001221001,51.52485703145183,182489.00012210011,Tower Hamlets,Pubs,E09000030,11/27/2022
Tower Hamlets,,Star of Bethnal Green,,E09000030,359 Bethnal Green Road,Bethnal Green,London,St. Peter's,E05009331,-0.060896930773734356,534502.0001221001,51.526395612610656,182667.00012210011,Tower Hamlets,Pubs,E09000030,11/27/2022
Tower Hamlets,,Workers Arms,,E09000030,"Bethnal Green Working Men's Club, 42-44 Pollard Row",Bethnal Green,,St. Peter's,E05009331,-0.06174013337061916,534443.0001221001,51.52657143619285,182685.00012210011,Tower Hamlets,Pubs,E09000030,11/27/2022
Tower Hamlets,,Well & Bucket,,E09000030,143 Bethnal Green Road,Bethnal Green,Shoreditch,Weavers,E05009335,-0.06946841992326744,533912.0001221001,51.52486420585077,182481.00012210011,Tower Hamlets,Pubs,E09000030,11/27/2022
Tower Hamlets,,Redchurch,,E09000030,107 Redchurch Street,Bethnal Green,Shoreditch,Weavers,E05009335,-0.07084553195559701,533818.0001221001,51.52434724925009,182421.00012210011,Tower Hamlets,Pubs,E09000030,11/27/2022
Tower Hamlets,,Owl & Pussycat,,E09000030,34 Redchurch Street,Bethnal Green,Shoreditch,Weavers,E05009335,-0.07288762668395055,533678.0001221001,51.52378724371341,182355.00012210011,Tower Hamlets,Pubs,E09000030,11/27/2022
Tower Hamlets,,Mikkeller Bar,,E09000030,2 Hackney Road,Bethnal Green,Shoreditch,Weavers,E05009335,-0.07510561692313276,533515.0001221001,51.52691747047482,182699.00012210011,Tower Hamlets,Pubs,E09000030,11/27/2022
Tower Hamlets,,Birdcage,,E09000030,80 Columbia Road,Bethnal Green,Shoreditch,Weavers,E05009335,-0.06906385828012256,533931.0001221001,51.52795134974244,182825.00012210011,Tower Hamlets,Pubs,E09000030,11/27/2022
Tower Hamlets,,Royal Oak,,E09000030,73 Columbia Road,Bethnal Green,Shoreditch,Weavers,E05009335,-0.06759934858099557,534030.0001221001,51.528826590551084,182925.00012210011,Tower Hamlets,Pubs,E09000030,11/27/2022
Tower Hamlets,,Nelsons Head,,E09000030,32 Horatio Street,Bethnal Green,Shoreditch,Weavers,E05009335,-0.06827027818368298,533979.0001221001,51.5303485700539,183093.00012210011,Tower Hamlets,Pubs,E09000030,11/27/2022
Tower Hamlets,,Marksman,,E09000030,254 Hackney Road,Bethnal Green,Shoreditch,Weavers,E05009335,-0.067112201653913,534059.0001221001,51.53045540096092,183107.00012210011,Tower Hamlets,Pubs,E09000030,11/27/2022
Tower Hamlets,,Sebright Arms,,E09000030,31-35 Coate Street,Bethnal Green,Cambridge Heath,St. Peter's,E05009331,-0.06138490493411592,534453.0001221001,51.531539037876286,183238.00012210011,Tower Hamlets,Pubs,E09000030,11/27/2022
Tower Hamlets,,Perseverance,,E09000030,112 Pritchards Road,Bethnal Green,Cambridge Heath,St. Peter's,E05009331,-0.06077485895595911,534489.0001221001,51.533678427527235,183477.00012210011,Tower Hamlets,Pubs,E09000030,11/27/2022
Tower Hamlets,,Hare,,E09000030,505 Cambridge Heath Road,Bethnal Green,Cambridge Heath,St. Peter's,E05009331,-0.05594731412889239,534826.0001221001,51.53292398831981,183402.00012210011,Tower Hamlets,Pubs,E09000030,11/27/2022
Tower Hamlets,,Victory,,E09000030,27 Vyner Street,Bethnal Green,Cambridge Heath,St. Peter's,E05009331,-0.053171277632224,535015.0001221001,51.53411006887645,183539.00012210011,Tower Hamlets,Pubs,E09000030,11/27/2022
Tower Hamlets,,Bistrotheque,,E09000030,23–27 Wadeson Street,Bethnal Green,Cambridge Heath,St. Peter's,E05009331,-0.05482532811398781,534902.0001221001,51.53353493952542,183472.00012210011,Tower Hamlets,Pubs,E09000030,11/27/2022
Tower Hamlets,,Queen Adelaide,,E09000030,481 Hackney Road,Bethnal Green,Cambridge Heath,St. Peter's,E05009331,-0.05706787334300111,534751.0001221001,51.53200721968756,183298.00012210011,Tower Hamlets,Pubs,E09000030,11/27/2022
Tower Hamlets,,Resident,,E09000030,"Arch 252, Paradise Row",Bethnal Green,,St. Peter's,E05009331,-0.05448032365243564,534944.0001221001,51.5274225436117,182793.00012210011,Tower Hamlets,Pubs,E09000030,11/27/2022
Tower Hamlets,,Mother Kelly's,,E09000030,251 Paradise Row,Bethnal Green,,St. Peter's,E05009331,-0.05448032365243564,534944.0001221001,51.5274225436117,182793.00012210011,Tower Hamlets,Pubs,E09000030,11/27/2022
Tower Hamlets,,Dundee Arms,,E09000030,339 Cambridge Heath Road,Bethnal Green,London,St. Peter's,E05009331,-0.054534051536747855,534937.0001221001,51.528529651553335,182916.00012210011,Tower Hamlets,Pubs,E09000030,11/27/2022
Tower Hamlets,,Approach Tavern,,E09000030,47 Approach Road,Bethnal Green,Cambridge Heath,St. Peter's,E05009331,-0.05017078484826793,535233.0001221001,51.53075956364905,183172.00012210011,Tower Hamlets,Pubs,E09000030,11/27/2022
Tower Hamlets,,Redchurch Brewery,,E09000030,275-276 poyser street,Bethnal Green,Cambridge Heath,Lansbury,E05009325,0.0029106537575220525,538963.0001221001,51.51472865980671,181489.00012210011,Tower Hamlets,Pubs,E09000030,11/27/2022
Tower Hamlets,,Little Driver,,E09000030,125 Bow Road,Bow,London,Bow West,E05009320,-0.02230787368522219,537176.0001221001,51.527199213953885,182828.00012210011,Tower Hamlets,Pubs,E09000030,11/27/2022
Tower Hamlets,,Coborn,,E09000030,8 Coborn Road,Bow,London,Bow West,E05009320,-0.028614218824047726,536740.0001221001,51.52673878731053,182765.00012210011,Tower Hamlets,Pubs,E09000030,11/27/2022
Tower Hamlets,,Lighthouse,,E09000030,421 Wick Lane,Bow,London,Bow East,E05009319,-0.020535626457519357,537273.0001221001,51.53581223019104,183789.00012210011,Tower Hamlets,Pubs,E09000030,11/27/2022
Tower Hamlets,,Muller & Briggs,,E09000030,130 Cadogan Terrace,Hackney Wick,,Bow East,E05009319,-0.02578479184705601,536900.0001221001,51.53881464624887,184113.00012210011,Tower Hamlets,Pubs,E09000030,11/27/2022
Tower Hamlets,,Bow Bells,,E09000030,116 Bow Road,Bow,Bromley By Bow,Bromley North,E05009321,-0.018710155388110154,537425.0001221001,51.527372325942665,182854.00012210011,Tower Hamlets,Pubs,E09000030,11/27/2022
Tower Hamlets,,Galvanisers Union,,E09000030,"16 Newmill House, 2 Devas Street",Bow,Bromley By Bow,Bromley South,E05009322,-0.010750859190181969,537992.0001221001,51.52241697636663,182318.00012210011,Tower Hamlets,Pubs,E09000030,11/27/2022
Tower Hamlets,,Beehive,,E09000030,104 Empson Street,Bow,Bromley By Bow,Bromley South,E05009322,-0.010799822483620774,537992.0001221001,51.52129359525094,182193.00012210011,Tower Hamlets,Pubs,E09000030,11/27/2022
Tower Hamlets,,Widows Son,,E09000030,75 Devons Road,Bow,Bromley By Bow,Bromley South,E05009322,-0.016029501193576094,537627.0001221001,51.52203872363817,182266.00012210011,Tower Hamlets,Pubs,E09000030,11/27/2022
Tower Hamlets,,Angel of Bow,,E09000030,171 Devons Road,Bow,London,Bromley South,E05009322,-0.018670375946680237,537452.0001221001,51.51932230904611,181959.00012210011,Tower Hamlets,Pubs,E09000030,11/27/2022
Tower Hamlets,,Rusty Bike,,E09000030,588 Mile End Road,Bow,London,Mile End,E05009327,-0.031048013497338243,536577.0001221001,51.524801066445804,182545.00012210011,Tower Hamlets,Pubs,E09000030,11/27/2022
Tower Hamlets,,New Globe,,E09000030,359 Mile End Road,Bow,London,Bow West,E05009320,-0.034780875179093944,536320.0001221001,51.524162171577586,182467.00012210011,Tower Hamlets,Pubs,E09000030,11/27/2022
Tower Hamlets,,Wentworth Arms,,E09000030,127 Eric Street,Bow,London,Mile End,E05009327,-0.03188840777892458,536523.0001221001,51.523367192653915,182384.00012210011,Tower Hamlets,Pubs,E09000030,11/27/2022
Tower Hamlets,,Morgan Arms,,E09000030,43 Morgan Street,Bow,London,Bow West,E05009320,-0.032885926814429284,536444.0001221001,51.52664862779457,182747.00012210011,Tower Hamlets,Pubs,E09000030,11/27/2022
Tower Hamlets,,Lord Tredegar,,E09000030,50 Lichfield Road,Bow,London,Bow West,E05009320,-0.030905693210941478,536577.0001221001,51.528099351039394,182912.00012210011,Tower Hamlets,Pubs,E09000030,11/27/2022
Tower Hamlets,,Green Goose,,E09000030,112 Anglo Road,Bow,London,Bow East,E05009319,-0.026585836572566295,536866.0001221001,51.53163320195397,183313.00012210011,Tower Hamlets,Pubs,E09000030,11/27/2022
Tower Hamlets,,Albert,,E09000030,74 St Stephens Road,Bow,London,Bow East,E05009319,-0.030600686972965554,536586.0001221001,51.53215936300575,183364.00012210011,Tower Hamlets,Pubs,E09000030,11/27/2022
Tower Hamlets,,Eleanor Arms,,E09000030,460 Old Ford Road,Bow,London,Bow East,E05009319,-0.0314516712648626,536520.0001221001,51.534494011558735,183622.00012210011,Tower Hamlets,Pubs,E09000030,11/27/2022
Tower Hamlets,,Young Prince,,E09000030,448 Roman Road,Bow,London,Bow West,E05009320,-0.032419646795447316,536462.0001221001,51.531443418840325,183281.00012210011,Tower Hamlets,Pubs,E09000030,11/27/2022
Tower Hamlets,,Lord Morpeth,,E09000030,402 Old Ford Road,Bow,London,Bow West,E05009320,-0.03420272322322999,536331.0001221001,51.53390160385493,183551.00012210011,Tower Hamlets,Pubs,E09000030,11/27/2022
Tower Hamlets,,East London Liquor Co,,E09000030,Grove Road,Bow,London,Bow West,E05009320,-0.04015789599225045,535925.0001221001,51.53156398755905,183280.00012210011,Tower Hamlets,Pubs,E09000030,11/27/2022
Tower Hamlets,,Crown,,E09000030,223 Grove Road,Bow,London,Bow West,E05009320,-0.04015789599225045,535925.0001221001,51.53156398755905,183280.00012210011,Tower Hamlets,Pubs,E09000030,11/27/2022
Tower Hamlets,,Victoria,,E09000030,110 Grove Road,Bow,London,Bow West,E05009320,-0.038100764965443214,536072.0001221001,51.53010859833418,183122.00012210011,Tower Hamlets,Pubs,E09000030,11/27/2022
Tower Hamlets,,Howling Hops Tap Room,,E09000030,"Queens Yard, White Post Lane",Homerton,Hackney Wick,Bow East,E05009319,-0.02114722141956258,537212.0001221001,51.5419921993721,184475.00012210011,Tower Hamlets,Pubs,E09000030,11/27/2022
Tower Hamlets,,Crate Brewery & Pizzeria,,E09000030,"Unit 7, White Building, Queen's Yard, White Post Lane",Hackney Wick,,Bow East,E05009319,-0.02114722141956258,537212.0001221001,51.5419921993721,184475.00012210011,Tower Hamlets,Pubs,E09000030,11/27/2022
Tower Hamlets,http://andrewlimclarkson.com/,Andrew Lim Clarkson,6713918,E09000030,1 Dye House Lane,,,Bow East,E05009319,-0.018770269035215625,537400.0001221001,51.53428947459703,183623.00012210011,Tower Hamlets,Set and exhibition building,E09000030,11/27/2022
Tower Hamlets,,Innersphere Ltd,6357180,E09000030,25 Victoria Wharf,20 Palmers Road,,Bethnal Green,E05009317,-0.04044171798969907,535912.0001221001,51.529320318581824,183030.00012210011,Tower Hamlets,Set and exhibition building,E09000030,11/27/2022
Tower Hamlets,,Frontside-Gardens,0,E09000030,,,,Bow East,E05009319,-0.022254239712034458,537134.6405028999,51.542194011848935,184495.36352539808,Tower Hamlets,Skate Parks,E09000030,11/27/2022
Tower Hamlets,,Mile-End,0,E09000030,,,,Mile End,E05009327,-0.029957152632357275,536675.7479247972,51.51709022999817,181689.67449949682,Tower Hamlets,Skate Parks,E09000030,11/27/2022
Tower Hamlets,,Mudchute,0,E09000030,,,,Island Gardens,E05009324,-0.02114228532548817,537369.9702758938,51.48957590572956,178646.889709495,Tower Hamlets,Skate Parks,E09000030,11/27/2022
Tower Hamlets,,Victoria-Park,0,E09000030,,,,Bow East,E05009319,-0.032651599211177613,536426.4512939975,51.53795168764676,184004.21911619604,Tower Hamlets,Skate Parks,E09000030,11/27/2022
Tower Hamlets,http://theretailplace.co.uk/shopping/23910/classic-cuts,Classic Cuts Ltd.,6356102,E09000030,17 Plumbers Row,,,Whitechapel,E05009336,-0.0645485113759088,534279.9600829929,51.515780852265245,181480.04010009766,Tower Hamlets,Textile design,E09000030,11/27/2022
Tower Hamlets,https://www.ideastore.co.uk/learning-fashion-course-outlines,Fashion and Textiles Programmes Ideas Store Bow ,6053810,E09000030,1 Gladstone Place,Roman Road,,Bow East,E05009319,-0.028312672679151996,536745.0001221001,51.53204897207915,183356.00012210011,Tower Hamlets,Textile design,E09000030,11/27/2022
Tower Hamlets,http://www.heba.org.uk,Heba Womens Project,6002791,E09000030,164 Brick Lane,,,Spitalfields & Banglatown,E05009333,-0.06988732792538659,533892.0001221001,51.521777295559886,182137.00012210011,Tower Hamlets,Textile design,E09000030,11/27/2022
Tower Hamlets,https://illaewoven.wordpress.com/,Illae Woven,6077465,E09000030,Queen Yard,51 White Post Lane ,,Bow East,E05009319,-0.021884593479196836,537160.0001221001,51.54228344036618,184506.00012210011,Tower Hamlets,Textile design,E09000030,11/27/2022
Tower Hamlets,https://www.istitutomarangoni.com/landing_pages/en/schools/?int_cmp=SRC_ALL_F_000000_Google_UK_EN_Brand-Fashion_SRC&gclid=EAIaIQobChMIprjjt-Dj3wIVRrDtCh25fghuEAAYASAAEgJL8vD_BwE&gclsrc=aw.ds&utm_expid=.9urys7PHSgC48VdVmjhyRg.0&utm_referrer=https%3A%2F%2Fwww.google.co.uk%2F,Istituto Marangoni ?,6362125,E09000030,30 Fashion St,,,Spitalfields & Banglatown,E05009333,-0.07105940867352555,533822.4201049954,51.517779218002275,181690.3101195991,Tower Hamlets,Textile design,E09000030,11/27/2022
Tower Hamlets,https://londonundercover.co.uk,London undercover,6000283,E09000030,20 Hanbury Street,,,Spitalfields & Banglatown,E05009333,-0.07148850832528032,533787.0001221001,51.519708122684385,181904.00012210011,Tower Hamlets,Textile design,E09000030,11/27/2022
Tower Hamlets,https://www.londonmet.ac.uk/services-and-facilities/cass-works/,"Metropolitan Works, Cass Works",6151592,E09000030,Calcutta House,Old Castle Street,,Spitalfields & Banglatown,E05009333,-0.07201118956868453,533765.0001221001,51.51484217175615,181362.00012210011,Tower Hamlets,Textile design,E09000030,11/27/2022
Tower Hamlets,https://www.fashionrider.com/supplier/needle-n-thread-studio-ltd/,Needle N Thread Studio,6135042,E09000030,138 Cambridge Heath Road,,,Bethnal Green,E05009317,-0.05305684471253637,535054.0001221001,51.52361260058415,182372.00012210011,Tower Hamlets,Textile design,E09000030,11/27/2022
Tower Hamlets,https://www.thesamplingstudio.com,The Sampling Studio,6360818,E09000030,Studio 58a,The Truman Brewery,Brick Lane,Spitalfields & Banglatown,E05009333,-0.07073531244397774,533835.370117195,51.521030477737156,182052.41009519994,Tower Hamlets,Textile design,E09000030,11/27/2022
Tower Hamlets,http://www.thewhitechapelworkhouse.com,The Whitechapel Workhouse,6011677,E09000030,132 Whitechapel Road,,,Whitechapel,E05009336,-0.06170598393096212,534471.9700927958,51.517541176169594,181680.99011229724,Tower Hamlets,Textile design,E09000030,11/27/2022
Tower Hamlets,www.halfmoon.org.uk,Half Moon Young People's Theatre,6044554,E09000030,43 White Horse Road,,,St. Dunstan's,E05009329,-0.04060387388386498,535835.3360935748,51.5137280909121,181349.9299254202,Tower Hamlets,Theatre rehearsal studio,E09000030,11/27/2022
Tower Hamlets,info@identitystudioslondon.com,Identity Studios,6352462,E09000030,160-170 Cannon St Road,,,Shadwell,E05009332,-0.06150116473736873,534385.648161392,51.51375165723372,181313.93817974778,Tower Hamlets,Theatre rehearsal studio,E09000030,11/27/2022
Tower Hamlets,www.space.org.uk,The Space ,6060149,E09000030,269 Westferry Road,,,Island Gardens,E05009324,-0.024198972590448294,537038.0064163918,51.49216667255609,178983.36308824475,Tower Hamlets,Theatre rehearsal studio,E09000030,11/27/2022
Tower Hamlets,http://www.rehearsalspacelondon.co.uk/Studio-Hire-North-of-the-River/45-/Brady-Arts-amp-Community-Centre,Brady Arts and Community Centre,6011121,E09000030,192-196 Hanbury St,,,Spitalfields & Banglatown,E05009333,-0.06536854289329683,534100.7210158528,51.51941798875198,181936.81199790363,Tower Hamlets,Theatre rehearsal studio,E09000030,11/27/2022
Tower Hamlets,http://www.artsadmin.co.uk/toynbee-studios/spaces,Artsadmin,6183619,E09000030,Toynbee Studios,28 Commercial Street,,Spitalfields & Banglatown,E05009333,-0.07231014363370139,533627.8135669763,51.51649284194273,181598.90075498493,Tower Hamlets,Theatre rehearsal studio,E09000030,11/27/2022
Tower Hamlets,http://www.towerhamletsarts.org.uk/?s=3&v=16&guide=AllAges,Kobi Nazrul Centre,6001111,E09000030,30 Handbury St,,,Spitalfields & Banglatown,E05009333,-0.07306046044022163,533564.8345193889,51.52022815902942,182012.81756188942,Tower Hamlets,Theatre rehearsal studio,E09000030,11/27/2022
Tower Hamlets,http://stretch-london.com/,Versatile Yoga Studio,6354492,E09000030,59 Columbia Road,,,Weavers,E05009335,-0.06918660584060822,533806.8059387521,51.5293368605739,183032.5786137146,Tower Hamlets,Theatre rehearsal studio,E09000030,11/27/2022
Tower Hamlets,http://www.apiarystudios.org/,Apiary Studios,6183708,E09000030,458 Hackney Road,,,St. Peter's,E05009331,-0.058906585927129065,534511.6665526356,51.53205360662932,183353.46414038626,Tower Hamlets,Theatre rehearsal studio,E09000030,11/27/2022
Newham,www.3mills.com,3 Mills Studios,10009018097,E09000025,Three Mill Lane,,,Stratford and New Town,E05000492,-0.0063917008953146845,538168.838427885,51.52684776922875,182872.68576148117,Tower Hamlets,Theatre rehearsal studio,E09000030,11/27/2022
Tower Hamlets,http://www.chisenhaledancespace.co.uk/space-hire,Chisenhale Dance Space,10015466801,E09000030,68-84 Chisenhale Rd,,,Bow West,E05009320,-0.03845123256506606,535925.3618003004,51.53362880201855,183566.4280080038,Tower Hamlets,Theatre rehearsal studio,E09000030,11/27/2022
Tower Hamlets,https://www.wiltons.org.uk/,Wiltons Music Hall,6006845,E09000030,1 Graces Alley, Whitechapel,NA,Whitechapel,E05009336,-0.06855098152314887,533904.3177072529,51.5111242301771,181008.89950051653,Tower Hamlets,Theatres,E09000030,11/27/2022
Tower Hamlets,http://www.halfmoon.org.uk/,Half Moon Young Peopleâ€™s Theatre,6044554,E09000030,43 White Horse Road,NA,NA,Stepney Green,E05009334,-0.04222055336179672,535721.6696195585,51.51423921425979,181403.7525289107,Tower Hamlets,Theatres,E09000030,11/27/2022
Tower Hamlets,https://space.org.uk/,The Space,6060149,E09000030,269 Westferry Rd, Isle of Dogs,NA,Island Gardens,E05009324,-0.02581689990938972,536924.180950054,51.49268042767557,179037.45373557467,Tower Hamlets,Theatres,E09000030,11/27/2022
Tower Hamlets,http://www.chisenhaledancespace.co.uk/,Chisenhale Dance Space,6146768,E09000030,64-84 Chisenhale Rd,NA,NA,Bow West,E05009320,-0.0400691300878303,535811.6628177078,51.53413798560607,183620.02780056524,Tower Hamlets,Theatres,E09000030,11/27/2022
Tower Hamlets,https://www.artsadmin.co.uk/toynbee-studios,Toynbee Studios,6183707,E09000030,28 Commercial St,NA,NA,Spitalfields & Banglatown,E05009333,-0.07392359297470631,533514.4023954292,51.517003617717734,181652.7429910199,Tower Hamlets,Theatres,E09000030,11/27/2022
